Name,Address,Latitude,Longitude,Type
İdeal market (Hökməli),"Abşeron r., Bakı-Şamaxı şossesi 12-ci km. (İdeal market)",40.446374069275095,49.70095361852881,atm
Respublika DYP,"Abşeron r., Xırdalan ş., Sahə 1287 ev 4 (Respublika DYP)",40.4467429,49.7746598,atm
Bazarstore (Höküməli),Abşeron ray Höküməli qəs Bakı Şamaxı şossesi 100/6 (Bazarstore),40.44131784918866,49.74818651483471,atm
Araz market (Saray),"Abşeron rayonu, Saray qəsəbəsi (Saray DYP postun yanında)",40.523947,49.687323,atm
Araz Market (Məhəmmədi),"Abşeron rayonu, Məhəmmədi kəndi, GöyQurşağı-Məmmədli yaşayış kompleksi, bina1",40.511532,49.941772,atm
Araz Market (Ceyranbatan),"Abşeron rayonu, Ceyranbatan qəsəbəsi, Bakı-Sumqayıt şossesi",40.543519,49.662952,atm
Hindarx qəsəbəsi,Ağcabədi r. Hindarx qəs.,40.06560134887695,47.189884185791016,atm
Bazarstore (Ağcabədi),"Ağcabədi r., Hüsü Hacıyev küç",40.04389591992003,47.44712674755466,atm
Xocavənd rayon MRX,"Ağcabədi r., H.Əliyev prospekti 231 (Xocəvənd MRX)",39.74848289323667,47.52689583188733,atm
ABB-nin Ağcabədi filialı,Ağcabədi r. Ü. Hacıbəyli p-ti (ABB Ağcabədi filialı),40.05174789108378,47.44438540181161,atm
Ağcabədi Xəstəxana,"Ağcabədi r., Hüsü Hacıyev küç",40.040845830263585,47.44186014616106,atm
Ağdam 4 yol,"Ağdam ray., Tərtər 4 yolu, qaçqınlar qəsəbəsi",40.240761,47.076033,atm
Oba Market (Xındırıstan),"Agdam r., Xindiristan kəndi",40.121478,47.105222,atm
Səyyar ATM,Ağdam,Səyyar,Səyyar,atm
Quzanlı (market),"Ağdam r., Quzanlı qəsəbəsi, H.Əliyev pr. yerləşən Ömər rmarketin ərazisi",40.163327,47.156348,atm
Store market,"Ağdaş rayonu, Xosrov kəndi (Store market)",40.632770,47.572907,atm
Ləki Nur market,"Agdash rayonu, Leki qesebesi, Sabir k. 1 (Nur market)",40.5593118849288,47.428207445752946,atm
Halal market (Ağdaş),"Ağdaş rayon,Yuxarı Ləki kəndi (Halal Super market)",40.573779,47.324767,atm
Ağdaş Market,"Ağdaş ş., M.İsayev küç. ""Ağdaş"" market (Beş mərtəbəli binanın birinci mərtəbəsi)",40.648036,47.471287,atm
Ləki Dəmir Yolu Stansiyası,"Ağdaş, Ləki qəsəbəsi, Ləki Dəmir Yol Stansiyası",40.55931628166554,47.428209778066986,atm
Birinci Market (Ağdaş),"Ağdaş, H.Əliyev pr., 73A (Birinci market)",40.640642,47.470164,atm
Birinci Market,"Ağdaş r., Məşəd kəndi (Azpetrol YDM)",40.63019365175335,47.46457721515742,atm
Ləki Market,"Bakı-Qazax yolunun 261-ci km (Yuxarı Ləki kəndi, Ləki Market)",40.538446,47.424371,atm
ABB-nin Ağstafa filialı,"Ağstafa, Ağstafa , H.Əliyev küçəsi 50A (ABB Ağstafa filialı)",41.112131,45.440719,atm
Əsədoğlu Market,"Ağstafa şəhər, Heydər Əliyev prospekti 1",41.113903096772376,45.44012155349091,atm
Dərya Market,"Ağstafa ş., H.Əliyev küçəsi 94",41.11051669744541,45.43690289195264,atm
Böyük kəsik stansiyası (Market),"Ağstafa r-nu, Böyük kəsik stansiyası, Market",41.387223,45.182483,atm
Ağstafa Kəsəmən 2,Ağstafa şəhəri R.Alcanov küçəsi,41.12317416863878,45.44745573104018,atm
"Xatai kəndi, Tataroğlu market","Ağstafa rayonu, Xətai kəndi",41.120916859406655,45.46100211841675,atm
Göyçə market (Ağstafa),"Ağstafa ray., A.Göycəli kəndi (Göyçə market)",41.11532180663432,45.479006333575704,atm
Ağstafa Kəsəmən 1,"Ağstafa şəhəri, H.Əliyev prospekti 13",41.11478547873437,45.44700387289946,atm
Ailəm Market,"Ağstafa rayonu, Qırılı kəndi (Ailəm market)",41.09352470669974,45.513117202191594,atm
Rəşidoğlu market,Ağstafa rayonu Köçəsgər kəndi (Rəşidoğlu market),41.05870952082634,45.52258079883393,atm
Bolmart market (Ağsu),"Ağsu rayonunda  yerləşən  ""Bolmart"" market",40.566603,48.391684,atm
"""Şirvan"" şadlıq evi","Ağsu, M.Ə.Rəsulzadə küçəsi (""Şirvan"" şadlıq evi)",40.566681,48.390917,atm
İRİ market (Ağsu),"Ağsu, Ağsu, S.Vurğun küçəsi, ""İRİ"" market",40.55865511530523,48.403436828794405,atm
OBA market (Astara),"Astara şəhəri, İstiqlaliyyət k. (Oba market)",38.4479518960598,48.875395081461605,atm
Optimal Market (Astara),"Astara, H.Əliyev prospekti, 213 ( ""Yeni"" market )",38.464560,48.872644,atm
Vergi İdarəsi,"Babək, H.Əliyev prospekti (Vergi İdarəsi)",39.153612,45.442724,atm
Qabaqçöl qəsəbəsi,"Balakən r., Qabaqçöl qəsəbəsi",41.7102966,46.2697115,atm
İdeal Market (Balakən),"Balakən r., Rafiq Səmədov  küç. 96",41.7219367,46.3971851,atm
Bal Məkan market (Balakən),"Balakən şəh., Əli Ansuxski küç.,19 (Bal Məkan market)",41.7259131,46.4114317,atm
İcra nümayəndəliyi (Katex),"Balakən, Katex kəndi (İcra nümayəndəliyi)",41.6475155,46.5352563,atm
Ekonom Market (Balakən),"Balakən r., H.Əliyev pr. 98 (Ekonom market)",41.70253953958725,46.4276518120216,atm
Oba market (Balakən),"Balakən ""Oba"" market",41.71960449605561,46.415280436658975,atm
Mağaza (Kortala kəndi),"Balakən, Kortala kəndi, avtomobil yolunun kənarında həyətyanı ərazidə yerləşən mağaza",41.6224431,46.3887313,atm
Kamil Market (Balakən),Balakən şəh. N.Nərimanov küç 50,41.721711,46.418159,atm
Oscar YDM (Daşburun),"Bakı-Horadiz yolu, Daşburun dairəsi",39.642694,47.690111,atm
Mandarin Market (Beyləqan),Beyləqan rayon Daşburun qəsəbəsi,39.630939,47.707214,atm
Mərkəzi Xəstəxana (Beyləqan),"Beyləqan şəhəri, S. Qazıyeva küç. 21 (Mərkəzi Xəstəxanasını ərazisi)",39.772857666015625,47.62112045288086,atm
Oscar YDM (Daşburun),"Beyləqan ş., Daşburun qəs.",39.7666989,47.876665,atm
Bolmart (Bərdə),Bərdə (Bolmart market),40.368789,47.105262,atm
ABB-nin Bərdə filialı,"Bərdə,Üzeyir Hacıbəyov  küç, (ABB-nin Bərdə filialı)",40.373889,47.122778,atm
Bazarstore Market (Bərdə),"Bərdə, Bakı küç., 2A (""Bazarstore"" market)",40.376111,47.134444,atm
ABB-nin Biləsuvar filialı,"Biləsuvar, Biləsuvar , H.Əliyev prospekti 45 (ABB-nin  Biləsuvar filialı)",39.455388,48.545808,atm
Z.Bünyadov prospekti (Yerüstü keçid),"Bakı, Binəqədi rayonu, Z.Bünyadov prospekti 11 (Yerüstü keçid)",40.412184,49.840771,atm
Araz Market (Binəqədi),"Bakı, Binəqədi rayonu, 2-ci mədən (""Araz"" market)",40.472185,49.834165,atm
Grandmart market (Novxanı),"Bakı ş. Binəqədi r-nu, Novxanı qəs. (Grandmart market)",40.540970,49.783317,atm
Oba market (Rəsulzadə qəsəbəsi),"Bakı, Binəqədi, M.Ə.Rəsulzadə qəsəbəsi, Azadlıq pr. (Oba market - Binəqədi 19)",40.431985,49.842676,atm
A-Plus Store (Sulutəpə),"Binəqədi r., Sulutəpə qəs., Ruslan Allahverdiyev ev. 1 döngə 7",40.431699,49.769746,atm
Baksol Metak şirkəti,"Bakı, Binəqədi r-nu, Baksol yolu (Metak şirkəti)",40.432354,49.866710,atm
Oba market (S.Bəhlulzadə),"Bakı, Binəqədi rayonu, Səttar Bəhlulzadə (Oba 509 saylı)",40.413224,49.838148,atm
Rahat Market (Binəqədi),"Bakı, Binəqədi rayonu, 8 mk-r, S.S.Axundov küçəsi, 3G (Rahat market)",40.425752,49.843798,atm
Soliton (Qəsəbə mərkəzi),"Bakı, Binəqədi rayonu, M.Ə.Rəsulzadə qəsəbəsi, Azadlıq 12 (Qəsəbə mərkəzi)",40.43903980390977,49.84441356492325,atm
Oba Market (Binəqədi),"Binəqədi rayonu, S.Məmmədov küç",40.425150,49.826468,atm
Elmar Market (Binəqədi),"Bakı ş., Binəqədi r., Biləcəri,  Yəhya Hüseynov küç., (""Elmar"" market)",40.432162,49.804411,atm
Favorit Market (Binəqədi),"Bakı, Binəqədi rayonu, Binəqədi qəsəbəsi, Ramazanov küçəsi, 1 (""Favorit"" market)",40.46598610774985,49.82946053568206,atm
Rahat Market (Mehdiabad),"Binəqədi r., Mehdiabad 28 May küç.",40.495252,49.855148,atm
Araz market (Biləcəri qəsəbəsi),"Bakı, Binəqədi rayonu, Biləcəri qəsəbəsi, A.Zeynallı küçəsi 24",40.437115,49.801995,atm
Oba market (Müşviqabad),"Bakı, Binəqədi rayonu, Müşviqabad qəsəbəsi (Oba market)",40.46761502581352,49.622689251742344,atm
Rahat market (9-cu MKR),"Bakı, Binəqədi rayonu, 9-cu mikrorayon, M.Cəlal küçəsi (""Sarı"" market)",40.42578125,49.818824768066406,atm
Bolmart supermarket (9-cu MKR),"Bakı, 9-cu mkr. Mir Cəlal küç. 72 (""Bolmart"" supermarketi)",40.421162,49.814681,atm
Grand supermarket (8-ci MKR),"Bakı, Binəqədi rayonu, C.Xəndan küçəsi 26 (""Grand"" supermarketi)",40.416279,49.833863,atm
Favorit supermarket (9-cu MKR),"Bakı, Binəqədi rayonu, Mir Cəlal küçəsi 59K 9-cu mikrorayon (Favorit - Supermarket)",40.418736,49.810984,atm
Rahat market (Xocahəsən),"Bakı, Binəqədi rayonu, Xocəhəsən qəsəbəsi (Rahat market)",40.41465012957297,49.76827137827392,atm
Rahat Market (Binəqədi şössesi),"Bakı ş. Mehdiabad qəs. Binəqədi şossesi, 3-cü mədən, korpus 119/55 (""Rahat"" market)",40.46753257446363,49.84231164928107,atm
Araz market (7-ci MKR),"Bakı, Binəqədi rayonu, 7-ci mkr. S.S.Axundov 3C (Cross market, keçmiş ""Bona"" market)",40.426657,49.849794,atm
Oba market (Binəqədi),"Bakı, Binəqədi r-nu Eldar Babayev küçəsi 18/1 (Oba)",40.41344323232291,49.82794167409921,atm
Bizim Market (Binəqədi),"Bakı şəhəri, Binəqədi r-nu, İ,Dadaşov küç., 60 (Bizim market)",40.413922,49.843966,atm
Rahat market (Müşviqabad),"Bakı, Binəqədi rayonu, Müşviqabad qəsəbəsi (Rahat market)",40.463923,49.629655,atm
Safa store (9 mkr),"Bakı, Binəqədi rayonu, Mir Cəlal küçəsi,  9-cu mikrorayon (""Safa store"")",40.413839,49.803859,atm
Oba market (Cəlilabad),"Cəlilabad, H.Əliyev k., (Oba market)",39.215229,48.525204,atm
ABB-nin Cəlilabad filialı,"Cəlilabad, Cəlilabad, Azərbaycan küçəsi 103a (ABB-nin Cəlilabad filialı)",39.212246,48.504805,atm
ABB-nin Cəlilabad filialı,"Cəlilabad, Azərbaycan küçəsi 44a (ABB-nin Cəlilabad filialı)",39.212265,48.505136 ,atm
Asiman Market (Göytəpə),"Cəlilabad rayonu, Göytəpə qəsəbəsi, Qurtuluş pr. 94 (""Asiman"" market)",39.11820132392511,48.59439570246162,atm
"Market, Mirzəli Hüseynzadə küç","Cəlilabad şəhəri, Mirzəli Hüseynzadə küç. 1 (Market)",39.21109254745534,48.50612612544456,atm
Oba market (Alar kəndi),"Cəlilabad, Alar kəndi (Oba market)",39.26638016949251,48.5023440349456,atm
Avtovağzal,"Culfa, H.Əliyev prospekti (Avtovağzal)",38.956311,45.631555,atm
Rabitə idarəsi,"Culfa, Təbriz küçəsi (Rabitə idarəsi)",38.956336,45.629442,atm
ABB-nin Daşkəsən filialı - 1,"Daşkəsən, Daşkəsən, H.Əliyev küçəsi 38 (ABB Gəncə filialının Daşkəsən şöbəsi)",40.523939760706085,46.08170728310632,atm
ABB-nin Daşkəsən filialı - 2,"Daşkəsən, Daşkəsən, H.Əliyev küçəsi 38 (ABB Gəncə filialının Daşkəsən şöbəsi)",40.523939760706085,46.08170728310632,atm
Daşkəsən Market,"Daşkəsən, Nizami küçəsi, market",40.523353001815735,46.08261776290432,atm
Bazarstore (Füzuli),"Füzuli ş., Yeni yaşayış kompleksi (Bazarstore)",39.59665280084392,47.153582134639294,atm
Horadiz market,"Füzuli rayonu, Horadiz şəhəri, Q.Namazaliyev 417 (Market)",39.4478445,47.3404235,atm
"Füzuli, Əhmədbəyli kəndi","Füzuli rayonu, Əhmədbəyli kəndi",39.5594237,47.566481,atm
ABB-nin Gədəbəy filialı,"Gədəbəy şəhəri, H.Əliyev pr 2A (ABB Gədəbəy filialı)",40.576428,45.808638,atm
Dadaş market (Gədəbəy),"Gədəbəy, Səməd Vurğun 46B, (Market)",40.57215910675314,45.80605010948782,atm
Şınıx kəndi,"Gədəbəy rayonu Şınıx kəndi,",40.66194607921284,45.47864818127052,atm
Market (Gədəbəy),"Gədəbəy, Gədəbəy, R.Əliyev kəndi (Market)",40.502506644668244,45.75588957205038,atm
Slavyanka,"Gədəbəy, Gədəbəy, Slavyanka (ELOİL  YDM)",40.659640423995974,45.80808174961761,atm
Novo-Saratovka kəndi,"Gədəbəy, Novo-Saratovka kəndi",40.59737322448654,45.602710735222225,atm
ABB-nin Gədəbəy filialı,"Gədəbəy şəhəri, H.Əliyev pr. 2A (ABB Gədəbəy filialı)",40.576428,45.808638,atm
Gədəbəy Qızıl mədəni,Gədəbəy Qızıl mədəni,40.58222707606838,45.80520595114627,atm
FHN Mülki Müdafiə Briqadası,"Gəncə ş., 9911 saylı FHN Mülki Müdafiə Briqadası",40.6788172747948,46.41097516187645,atm
Nicat market (Z. Hacıyev küç. ilə kəsişməsi),"Gəncə, Üzeyir Hacıbəyov küç. (Z. Hacıyev küç. Kəsişməsi) Nicat market",40.71083725084026,46.376986340737,atm
Maxi Market - 1,"Gəncə şəhəri, Maxi market",40.67081847684641,46.37643392091075,atm
Sevimli market - Gülüstan,"Göygöl rayonu, Qızıl qaya qəsəbəsi Gəncə Kəlbəcər yolu M.Ş.Vazeh küç.64 (""Sevimli"" market)",40.639995,46.339050,atm
Metro market,"Gəncə şəhəri, Ş.Şəddadilar küç.. (""Metro"" market)",40.688130530087555,46.35228814930942,atm
Həsən market,Gəncə şəhəri (Həsən market),40.68702083480114,46.375527204174574,atm
Gəncə Güllər market,"Gəncə, Atatürk prospekti , 261",40.696967,46.374950,atm
Maxi Market - 2,"Gəncə ş., H.Əliyev pr. 44A, ""Maxi market""",40.705671,46.366488,atm
Meqa market (Gəncə),Ş.İ.Xətai pr. Ev 97(MEQA market),40.697332,46.357009,atm
Bazarstore market (Xoyski küç.),GƏNCƏ ŞƏH.FƏTƏLİ XAN XOYSKİ KÜÇ,40.68176422482345,46.36232296818081,atm
Orxan market,"Gəncə, Z.Hacıyev küçəsi 30 (Gəncə Dəmir Yol Vağzalı)",40.70985144740438,46.36712269558923,atm
Oba market (İ. Qayıbov),"Gəncə şəh., İ.Qaibov küç. 195 (Oba market)",40.660912,46.340420,atm
Malikoğlu market,"Gəncə ş., S. Rəhimov küç. 58 (Malikoğlu market)",40.64765391103091,46.3739075561145,atm
OBA market (Gülüstan qəsəbəsi),"Gəncə, Gülüstan qəsəbəsi, (Oba market 61)",40.644512958500634,46.344169901569735,atm
Oba market (Azərbaycan küçəsi),"Gəncə, Azərbaycan küç., döngə 3, ev 3 (Oba market)",40.715510354612526,46.36919808454821,atm
AL market (Gəncə),"Gəncə, Nizami r-nu, Mahrasa bağı, Ş.Rustaveli küç,73",40.674912962811256,46.34291614263309,atm
Gold Əminə (Göyçay),Göygöl şəhəri Azay Kazımov 1 (Gold Əminə market),40.591753,46.320091,atm
Poçt 21 (Gəncə ),"Gəncə, Məhsəti qəs. (Poçt)",40.720589,46.399607,atm
Oba market (Qəmbər H. küç.),"Gəncə şəh., Nizami rayonu, Qəmbər Hüseyinli küç.2",40.682654152203234,46.355966852856284,atm
Oba market (Abbaszadə küç.),"Gəncə, Nizami rayonu, A.Abbaszadə  E 32 (Oba market)",40.673112276851136,46.356629109734776,atm
Avtovağzal (Gəncə),"Gəncə, Avtozavod küçəsi 1 (Avtovağzal)",40.69490799903645,46.36624591570782,atm
Oba market (Nərimanov küç.),"Gəncə, Nərimanov k.194 (Oba market)",40.66610706742961,46.361184430837284,atm
Gəncə Alüminiumçular,"Gəncə ş., Ş.İ. Xətai pr. 84",40.686575507383694,46.386988604846174,atm
Yeni Gəncə market,"Gəncə, Yeni Gəncə qəsəbəsi, (Gəncə şəhəri Nizami rayon icra hakimiyyəti)",40.680183,46.358832,atm
Aptek (Aşıq Ələsgər küç.),"Gəncə, Aşıq Ələsgər 31",40.65614147037462,46.367216857759935,atm
Poçt (Hacıkənd),"Gəncə, Hacıkənd qəsəbəsi, Azərbaycan küç. 20, qəsəbə poçtu",40.514488220214844,46.32265090942383,atm
Oba market (Təbriz küç.),"Gəncə, Təbriz küç., 292",40.66232020663183,46.316486471004325,atm
GƏNCƏ MEHMANDAROV ARAZ M,"Gəncə, Mehmandarov küçəsi (Araz market)",40.674658,46.334370,atm
Oba market (Kəpəz),"Gəncə şəh., Kəpəz rayon DOS-102, 146 nomrəli binanın şərq tərəfi",40.69802214603583,46.35498769205732,atm
ABB-nin Gəncə filialı,"Gəncə, ABB-nin Gəncə filialı",40.667885589623694,46.35421889072551,atm
Delfin market (Gəncə),Gəncə ş. Pərviz Səmədov 12 (Delfin market),40.679356,46.350109,atm
FAMA market (Gəncə),"Gəncə ş., FAMA market",40.71877375410452,46.35380144423876,atm
Oba market (Nərimanov küç.),"Gəncə, Kəpəz r-nu, N.Nərimanov küç.14",40.680022638664894,46.386754210882145,atm
"""Gəncə"" mehmanxanası","Gəncə, Ş.İ.Xətai prospekti 155 (""Gəncə"" mehmanxanası)",40.67983472562637,46.3608138940871,atm
Məcburi köçkünlər qəsəbəsi (Kəpəz),"Gəncə şəhəri, Kəpəz məcburi köçkünlər qəsəbəsi, ""Hacıməlik"" 600 ( mağaza )",40.66543078042121,46.45306484976036,atm
Nur market (Gəncə),"Gence, Sadilli qes., mehelle e-3 sahe 19 (“Nur” market)",40.7086722,46.3559315,atm
Bazarstore market (Nərimanov),GANCA Nəriman Nərimanov pr,40.674790,46.369978,atm
"""Detal Alüminiy"" zavodu","Gəncə, ""Detal Alüminiy"" zavodu",40.68655176009785,46.42680254923436,atm
Mega market (Goranboy),"Goranboy, H.Əliyev prospekti (Mega market)",40.6024404,46.7798901,atm
Ağcakənd kəndi (Mağaza),"Goranboy, Goranboy, Ağcakənd kəndi (Ərzaq mağazası )",40.4210013,46.5704388,atm
XL market (Göyçay),Göyçay rayonu Bərgüşad yolu,40.6350061,47.7579344,atm
Ləkçıplaq kəndi (Göyçay),"Göyçay rayonu, Ləkçıplaq kəndi",40.5806563,47.8065966,atm
Bolluq Kəndimiz (Göyçay),Göyçay r. (Bolluq Kəndimiz),40.649875804889035,47.725107250830376,atm
Qızılağac market (Göyçay),"Göyçay rayonu,Qızılağac kəndi.Qızılağac market",40.568960,47.766780,atm
Xəstəxana (Göyçay),"Göyçay şəhəri, Nizami küçəsi 134",40.6578618,47.7514585,atm
Dəniz market (Göyçay),Göyçay rayonu Mallı Şıxlı kəndi (Dəniz market),40.586315,47.6930619,atm
Nar market (Göyçay),"Göyçay şəhəri, H.Əliyev prospekti 42",40.650092,47.739047,atm
Grand market (Göyçay),"Göyçay ş., Natəvan küç., 49-cu məhəllə",40.6387758,47.7388978,atm
Poçt (Qaraməryəm),"Göyçay , Qaraməryəm (Poçt)",40.615055084228516,48.01321792602539,atm
Balmart market (Göygöl),Göygöl şəhəri (Balmart marketi),40.580935,46.323174,atm
Gold Əminə market (Göygöl),"Göygöl, 28 May küç. 3 (Gold Əminə market)",40.58438055454058,46.32713979777223,atm
Balçılı kəndi (Göygöl),Göygöl Balçılı kəndi,40.70163449171468,46.28085693051547,atm
“Qədirxum” restoranı (Hacıqabul),Bakı-Qazax magistralının Hacıqabul rayon ərazisi “Qədirxum” restoranı,40.019351,48.953950,atm
Oba market (Hacıqabul),"Hacıqabul ş., Heydər Əliyev prospekti",40.0446401,48.9350715,atm
Səyyar ATM - Hadrut,Hadrut,Səyyar,Səyyar,atm
ABB-nin İmişli filialı,İmişli şəhəri H.Əliyev pr. 146,39.8697496,48.0591736,atm
ABB-nin İmişli filialı,"İmişli, Imişli ş., M.Əsədov küç., 1 (ABB-nin İmişli filialı)",39.8697496,48.0591736,atm
Yaşıl market,"İmişli şəh., Çaxırlı kəndi, ""Yaşıl"" market",39.7431265,48.0017707,atm
Sərfəli market,Biləsuvar rayonu 3 saylı Cəbrayıl qəsəbəsi,39.705208,48.055671,atm
İmişli - Ailəm market,İmişli şəhəri N.Savalanov küçəsi (Ailəm market),39.860772,48.062889,atm
Bizim market (İvanovka k.),"İsmayıllı, İvanovka kəndi (Bizim market)",40.744335,48.035809  ,atm
ABB-nin İsmayıllı filialı - 1,"İsmayıllı , Cavanşir küçəsi 21A (ABB-nin İsmayıllı filialı)",40.785185755946756,48.148832691677796,atm
İsmayıllı market,İsmayıllı şəh Ərəstun Mahmudov küçəsi (İsmayıllı market),40.79271532791891,48.169611422364035,atm
İsmayıllı xəstəxana,"İsmayıllı , Axundov küçəsi 65 (Xəstəxana)",40.780207899689216,48.158922848125826,atm
Sərhəd market (Lahıc),"İsmayıllı r., Lahıc yolu",40.732443,48.281610,atm
Mustafa market,İsmayıllı şəhəri Cavanşir küçəsi (Mustafa Market),40.78837644822651,48.14818636103082,atm
Kəlbəcər,Kəlbəcər rayonu,40.11231758599875,46.04005736537025,atm
Qaz idarəsi,"Kəngərli rayon, Qaz idarəsi",39.41259555672917,45.1211206190765,atm
Efi market,"Kürdəmir rayonu, Efi market",40.32826396707835,48.14812618465529,atm
Poçt (Kürdəmir),"Kürdəmir, Kürdəmir, H.Əliyev prospekti 19 (poçt)",40.34572111057594,48.14701402079077,atm
Bolmart (Kürdəmir),Kürdəmir ş. Babək pr-ti,40.351643,48.162422,atm
ABB-nin Kürdəmir filialı,H.Əliyev prospekti 14 (ABB-nin Kürdəmir filialı),40.345717,48.147349,atm
Kürdəmir Arif market,"Kürdəmir, Kürdəmir-Ağsu şossesinin sol tərəfində yerləşən “Arif Market” mağazası",40.380251,48.184177,atm
Oba market (Kürdəmir),"Kürdəmir, Atakişili kəndi",40.336139,48.151694,atm
Oba market (Mollakənd),"Kürdəmir rayonu, Molla kənd (Oba market)",40.115967,48.099909,atm
Karrar kəndi,"Kürdəmir rayonu, Karrar kəndi",40.303571,48.261652,atm
EDU market (Kürdəmir),"Kürdəmir, Sığırlı kəndi,  EDU market",40.256074,48.409077,atm
Oba market (Lerik),"Lerik, İsmayıl Yaqubov küçəsi (Oba market)",38.7713032637467,48.420164802598414,atm
Lənkəran şəhər Maliyyə İdarəsi,"Lənkəran şəhəri, Heydər Əliyev prospekti,74 Lənkəran şəhər Maliyyə İdarəsi",38.765647163778816,48.85237758792672,atm
Şağlaser kəndi (Ay işığı),"Lənkəran, Şağlaser kəndi (Ay işığı)",38.85652510403561,48.7482181314667,atm
Favorit market (Lənkəran),"Lənkəran rayonu, Şürük kəndi (Favorit market)",38.69654083251953,48.81938171386719,atm
ABB-nin Lənkəran filialı - 1,"Lənkəran ş , Ş.Axundov küçəsi,16 a (Lənkaran filialının inzibati binası)",38.75389236817951,48.85536031218073,atm
Bazarstore (Nizami küçəsi),"Lənkəran şəhəri, Nizami küçəsi, 21-ci məhəllə",38.759006,48.834747,atm
Lənkəran Mərkəzi Xəstəxanası,"Lənkəran şəhəri, Nizami 67 küçəsi ( Mərkəzi xəstəxananın ərazisi )",38.75902994400665,48.839270827122306,atm
Müalicə Diaqnostika Mərkəzi (Lənkəran),"Lənkaran şəhəri, H.Əliyev prospekti, 303, Müalicə Diaqnostika Mərkəzi",38.782632,48.841864,atm
ABB-nin Lənkəran filialı - 2,"Lənkəran şəhəri, Ş.Axundov 16 (Lənkəran filialının inzibati binasının daxilində)",38.75389236817951,48.85536031218073,atm
ABB-nin Lənkəran filialı - 3,"Lənkəran şəhəri, Ş.Axundov 16 (Lənkəran filialının inzibati binasının daxilində)",38.75389236817951,48.85536031218073,atm
Pibon market (Lənkəran),"Lənkəran şəhəri, Liman qəsəbəsi, Teymur Rəcəbov küç. 1 (Pibon Market)",38.877864837646484,48.80789566040039,atm
Bazarstore (Masallı),Masalli (Bazarstore),39.0230945,48.6689756,atm
Rahat market (Masallı ),"Masallı,  H.Əliyev Prospekti (Rahat market)",39.026735,48.664782,atm
Market (Yevlax),Mingəçevir şəhəri Heydər Əliyev prospekti bina 542,40.757251,47.082679,atm
Bazar store (Mingəçevir),"Mingəçevir şəhəri, Nizami küçəsi 4",40.77265114913743,47.047365815237264,atm
Təbriz küçəsi,"Mingəçevir şəhəri, Sağ sahil, Təbriz küçəsi",40.77271892480843,47.02302420763618,atm
5+ market (Nizami küçəsi),"Mingəçevir, Nizami küç. 13",40.76156509641441,47.05873221201858,atm
"Araz market (Mingəçevir, Az.Dres qəsəbəsi)","Mingəçevir şəhər, AZ.DRES qəsəbəsi (Araz market)",40.769875,46.998646,atm
Qədiroğlu (20 yanvar küç.),Mingəçevir şəhər 20 Yanvar küçəsi 15,40.762267728097456,47.04789145909993,atm
5+ market (Ş.İ.Xətai küç.),"Mingəçevir, Ş.İ.Xətai küç. 7A (""5+1"" market)",40.75679684607236,47.06375321857951,atm
Araz market (Mingəçevir),"Mingəçevir şəh., Heydər Əliyev pros. (Araz market)",40.771339,47.041057,atm
Embawood (Mingəçevir),Mingəçevir şəhəri H.Əliyev pr kolxoz bazarı,40.767829,47.056671,atm
Qədiroğlu market (AZDRES),"Mingəçevir şəhəri, AZDRES qəsəbəsi",40.7695367025998,46.98956992471116,atm
5+ market (M.Maqomayev küç.),"Mingəçevir şəhəri, M.Maqomayev küçəsi, 16/1 ( ""5+"" market )",40.767231,47.045919,atm
Oba market (Naftalan),"Naftalan şəh, İ.Həsənzadə küç 22/1B (Oba market)",40.5088266,46.8130938,atm
Hərbi şəhərcik (Təlim-tədris binası),"Naxçıvan şəhəri,hərbi şəhərcikdə (Təlim-tədris binası)",39.225676,45.406456,atm
Naxçıvan Tikiş Fabriki,"Naxçıvan şəh., İdris Məmmədov küçəsi 1 (Naxçıvan Tikiş Fabriki)",39.201103,45.412581,atm
Bolmart (Naxçıvan),"Naxçıvan, Əziz Əliyev küç. (Bolmart market)",39.208671,45.407789,atm
Naxçıvan şəhər İcra Hakimiyyəti,"Naxçıvan, H.Əliyev prospekti (Naxçıvan şəhər İcra hakimiyyəti)",39.217378,45.408321,atm
Sənaye Malları Mağazası (Bulqan kəndi),"Naxçıvan şəhəri, Bulqan Kəndi (Sənaye Malları Mağazası)",39.188050,45.378157,atm
Gənclik Ticarət Mərkəzi,"Naxçıvan, Pişəvəri küçəsi (Gənclik Ticarət Mərkəzi)",39.220879,45.407274,atm
Reyhan market,"Naxçıvan,Bahadur Abbasov küçəsi, ""Reyhan"" market",39.200934,45.421690,atm
Aviakassa (Cəlil Məmmədquluzadə küç),"Naxçıvan, Cəlil Məmmədquluzadə küçəsi, Aerokassa",39.202626,45.410540,atm
Caman Market (Gömrük İdarəsi),Naxçıvan şəhəri Çəmən market,39.193341,45.409979,atm
Limon market,"Naxçıvan şəhəri, Limon market",39.217445,45.402140,atm
Oba market (Nizami küçəsi),"Neftçala r., Nizami Gəncəvi küç. (Oba market)",39.3762951,49.2478822,atm
Oba market (Əsədov küçəsi),"Neftcala seheri, M.Esedov kucesi",39.38552138836381,49.24320310011082,atm
Azərişıq Baş İdarə,"Bakı, Nərimanov rayonu, Kazımzadə küçəsi 20 (""Azərişıq"" Baş İdarə)",40.389364,49.850059,atm
Oba market (Əlicabbar Orucəliyev küç.),"Bakı, Nərimanov rayonu, Əlicabbar Orucəliyev 5C, (Oba market)",40.3962291,49.8755532,atm
Azərbaycan gözdən əlillər cəmiyyətinin inzibati binası,"Bakı, Nərimanov rayonu, Faiq Yusifov 40, (Azərbaycan gözdən əlillər cəmiyyəti - inzibari bina)",40.4081377,49.8702131,atm
Araz market (Dostluq K/T),"Baki şəh.,Nərimanov r-nu,Ceyhun Hacıbəyli küç.39, ""Spar"" market",40.39030628769046,49.84648598972087,atm
Azərbaycan Gənclər və İdman Nazirliyi,"Bakı, Nərimanov rayonu, Olimpiya küçəsi 4 (Azərbaycan Gənclər və İdman Nazirliyi)",40.399363,49.855252,atm
ASAN 7,"Bakı, Nərimanov r-nu, Aşıq Molla Cümə (ASAN 7)",40.413547393954175,49.85578457315257,atm
Socar YDM (Ziya Bünyadov prospekti),"Baki şəhəri, Ziya Bünyadov prospekti, 2074 saylı məhəllə, (“Socar” YDM)",40.425189,49.906662,atm
Keşlə (Neptun Supermarket),"Bakı, Nərimanov rayonu, Keşlə qəsəbəsi (Neptun Supermarket)",40.415868986129276,49.86867514517272,atm
Babək pr. (Sizin market),"Bakı, Xətai r-nu, Babək pr. ilə Q.Qarayev küç. kəsişməsi (Sizin market 24/7)",40.39478087355298,49.9500376529113,atm
"""Azerfon"" MMC","Bakı, Nərimanov rayonu, H.Əliyev pr. 106A (""Azerfon"" şirkəti)",40.416694,49.908860,atm
Mənzil-kommunal təsərrüfatı dep.,"Bakı şəhəri, Nərimanov rayonu, Yusifbəyli küç. 73 (Bakı şəhəri Mənzil-kommunal təsərrüfatı dep.)",40.39602220254467,49.843002459137416,atm
Keşkə stadionu,"Heydər Əliyev prospekti ""Şəfa"" stadionu",40.411293,49.896965,atm
Bolmart (Nərimanov),"Bakı, Nərimanov rayonu, Ülvi Bünyadzadə 2 (Bolmart Təbtiz k.)",40.385283,49.850846,atm
ABB Baş İdarə,"Bakı, Nəsimi rayonu, Nizami küçəsi, 67 (Azərbaycan Beynəlxalq Bankı, Baş İdarə)",40.372273,49.836737,atm
Neptun supermarket (Moskva p.),"Bakı, Nəsimi rayonu, Moskva pr. (""Neptun"" supermarket)",40.396672,49.815462,atm
Alvadı market (4-cü MKR),"Nəsimi r.,4-cü MKR E.İsgəndərov küç., 13",40.417322,49.822512,atm
Spar market (3-cü MKR),"Bakı, Cavadxan küç., məh. 3005 (Spar market)",40.40681521433774,49.81293513798374,atm
Bakı Sağlamlıq Mərkəzi,"Bakı ş., Nəsimi rayonu, N.Yusifbəyli küç. və Azadlıq pr.kəsişməsi, Bakı Sağlamlıq Mərkəzi",40.398583,49.839810,atm
"ABB,Baş İdarə","Bakı, Səbail rayonu, Nizami küçəsi, 67 (ABB  Baş İdarə)",40.372165,49.836578,atm
Fövqəladə Hallar Nazirliyi,"Bakı, Nəsimi rayonu, Füzuli küçəsi 69 (Fövqəladə Hallar Nazirliyi)",40.379028,49.844066,atm
Olimpik Star idman kompleksi,"Bakı şəh., Nəsimi rayonu, Mərdanov qardaşları,137, ""Olimpik Star"" idman kompleksinin yanı.",40.401234,49.831350,atm
Adore Mart,"Bakı şəhəri, Nəsimi r-nu, M.Qaşqay küçəsi, 104, ADORE MART",40.393318,49.843006,atm
Oba market (3 MKR. ƏCƏMI),"Bakı, Nəsimi ray., Hüseynbala Əliyev (Oba market), Memar Əcəmi m/s yaxınlığı",40.409972,49.819026,atm
ABB-nin Nizami filialı-1,"Bakı ş. Nizami rayonu, T.Abbasov və Ə.Hacıyev küç. Kəsişməsi 2453 məhəllə",40.419242,49.933865,atm
Market (Çobanzadə küç.),"Bakı, Nizami rayonu, Çobanzadə küçəsi 57 (Market)",40.4000943,49.9389424,atm
Bizim Market (8-ci km),"Nizami rayonu, 2381-ci məhəllə Bəhruz Nuriyev kü",40.403811,49.959784,atm
Oba market (8-ci km bazar),"Bakı, Nizami r., Q. Qarayev PR. Ev .89",40.405737,49.947720,atm
Oba market (Keşlə),"Bakı, Nizami rayonu, Keşlə qəsəbəsi, Kazımov küçəsi (Market)",40.3924261,49.8942294,atm
142 saylı poçt,"Bakı,  Nizami r-nu, İ.Məmmədov 7 (142 saylı poçt)",40.39774325650495,49.955289899635524,atm
Araz market (Naxçıvanski),"Bakı, Nizami rayonu, C.Naxçıvanski küçəsi, 71 (""Araz"" ticarət mərkəzi)",40.409342,49.956267,atm
Araz market (Planet ş/s),"Nizami rayonu, Mehdi Abbasov küçəsi 4C (Araz market, Planet ş/s yaxınlığı)",40.412667,49.933928,atm
Bakımart market,"Bakı ş. Nizami r-nu, Qara Qarayev pr-ti, 39 (""Bakımart"" supermarket)",40.415972,49.939291,atm
Optimal market (Tofiq Abbasov küç.),"Bakı, Nizami r-nu, Tofiq Abbasov 9 (""Optimal"" market)",40.4209338,49.9249186,atm
Oba market (Polis Taboru),"Bakı, Nizami rayonu, 8-ci km qəsəbəsi, Məhsəti Gəncəvi küçəsi 159a-159d (Oba market)",40.403280,49.940502,atm
Oba market (Mədəniyyət evi),"Bakı, Nizami rayonu, Babək prospekti 2776/77-cı məhəllə (Oba market)",40.3861780131973,49.905875597114246,atm
Bravo market (Özbəkistan küçəsi),"Bakı şəhəri, Nizami rayonu, Özbəkistan küçəsi (Bravo market) - Romans Palas yaxınlığı",40.41491831036991,49.927172865974775,atm
"Araz market (""Start"" idman kompleksinin yanı)","Bakı şəhəri, Nizami rayonu Şərifli küç. 25 (""Araz"" market- ""Start"" idman kompleksinin yanı)",40.413225,49.949429,atm
Veysəloğlu Ulduz fabriki,"Bakı, Nizami rayonu, Zəki Məmmədov (Veysəloğlu ""Ulduz"" şokolad fabriki)",40.40292,49.895034,atm
Bestmart,"Bakı ş., Nizami r. Q.Qarayev prospekti, ev 124-126",40.397263,49.953151,atm
Xaçmaz kəndi,"Oğuz rayonu, Xaçmaz kəndi (Kənd İcra nümayəndəliyinin inzibati binası)",41.03188412206423,47.60547318863613,atm
Luksoil YDM,"Oğuz Rayonu, Sincan kəndi (Luksoil YDM)",40.93882029457601,47.600632655273365,atm
Araz store (Oğuz),Oğuz ş. H.Əliyev  (Araz store),41.064666,47.463550,atm
Oğuzmart,"Oğuz şəh., Cavanşir küç.",41.06776302854087,47.46166590695176,atm
ABB-nin Oğuz filialı,"Oğuz, H.Əliyev küçəsi 98 (ABB Oğuz filialı)",41.07513162361538,47.46630194724633,atm
Kərimli qəsəbəsi,"Oğuz, Kərimli qəs. Üç yol kəsişməsi (Market)",40.97129721343012,47.48912400230216,atm
Qapıcıq ticarət mərkəzi,"Ordubad, Qapıcıq ticarət mərkəzi",38.908166,46.021242,atm
Məişət evi (Sabir Dizə kəndi),"Ordubad r-nu, Sabir Dizə kəndi (Məişət evi )",38.945438,45.826706,atm
Laçın Market (Pirallahı),"Pirallahı r., S.Vurğun küç. (Laçın Market)",40.455673,50.337098,atm
Oba market (Pirallahı),"Xəzər r., Pirallahı qəsəbəsi, Oba market",40.468143,50.326045,atm
Araz market (Pirallahı),"Bakı ş. Pirallahı r-nu, Araz market",40.45951461791992,50.33545684814453,atm
Sahil Optimal,"Qaradağ r., Sahil qəsəbəsi, Məhərrəm Seyidov küç,",40.226955,49.575993,atm
"Oba market (Lökbatan, 28 May küç.)","Qaradağ r., Lökbatan qəsəbəsi, 28 may küç. (""OBA"" market)",40.32605743408203,49.74203109741211,atm
Gəmiqayırma zavodu,"Bakı ş. Qaradağ r., Salyan şossesi 24 km. (Gəmiqayırma zavodu)",40.26524907348759,49.66529621561048,atm
Oba market (Sabir küç.),"Bakı ş. Qaradağ r., Sanqaçal qəsəbəsi, Sabir küçəsi (Oba market)",40.166751861572266,49.46155548095703,atm
Coşqun market (Qaradağ),"Qaradağ r., Ələt qəsəbəsi, Kamil Məmmədov küçəsi (""COŞQUN"" market)",39.95484161376953,49.408084869384766,atm
Rifah market (Qaradağ),"Qaradağ r., Sahil qəsəbəsi, Nəriman Nərimanov küç, 3",40.226876,49.583904,atm
"Oba market (Lökbatan, D.Bünyadzadə küç.)","Qaradağ r., Lökbatan qəsəbəsi, D.Bünyadzadə küçəsi 1 (Oba market)",40.32728576660156,49.71882629394531,atm
Socar YDM (Bakı-Səlyan şossesi) - 1,"Qaradağ r., Bakı-Səlyan şossesinin 14-cü km.-də yolun sağ tərəfi (""Socar"" YDM)",40.296492,49.752394,atm
Socar YDM (Bakı-Səlyan şossesi),"Qaradağ r-nu, Bakı-Səlyan şossesinin 70-ci km.-də Hacıqabul-Astara yolayrıcında, Bakı-Ələt yolunun sağ tərəfi (""Socar"" YDM )",39.967448,49.409069,atm
Grandmart (Qobu),"Qaradağ rayonu, Lökbatan qəsəbəsi (Grandmart)",40.34317398071289,49.751800537109375,atm
Qobustan İdeal market,"Qaradağ r., Qobustan qəsəbəsi (""İdeal"" Mebel mağazası)",40.08033752441406,49.4132080078125,atm
Qobustan - Təbriz market,"Bakı, Qaradağ r., Qobustan qəs. (Təbriz market)",40.083529059362924,49.41202043201628,atm
Puta qəs. (Oba market),"Bakı, Qaradağ rayonu, Puta qəs. (Oba market)",40.299558085073855,49.66176516206742,atm
"Lökbatan, 28 May küçəsi","Qaradağ r., Lökbatan qəs. 28 May küç.",40.32234573364258,49.73484420776367,atm
Hərbi hissə (Qaradağ),"Qaradağ.r,. Bakı-Ələt yolu (M4), 25-ci km",40.283416748046875,49.7291259765625,atm
Aydan market (Qax),"Qax rayonu, Ü. Hacıbəyov küç.1",41.41997213788232,46.91745062045867,atm
Oğuz-Qax-İlisu yolu,"Qax şəhəri, H.Əliyev pr. Qaxıngiloy və Qaxbaş kəndlərin birləşdiyi ərazi, İlisu kəndinə gedən yol",41.43002805615341,46.958456888706884,atm
El Dost market (Qax),"Qax rayonu, Mərkəzi Avtovağzal, H.Əliyev pr-ti",41.415880579418754,46.90333256762513,atm
"""Stop"" market (Qax)","Qax rayonu, Yevlax-Balakən-Gürcüstan şossesi 90-cı km",41.390415,46.745077,atm
ABB-nin Qazax filialı - 1,"Qazax r., Sabir küçəsi 75 (ABB Qazax filialı)",41.089988,45.358857,atm
Qazax - Bazarstore,"Qazax, H.Əliyev prosp. (Bazarstore)",41.096981,45.377598,atm
7 gözəl ticarət mərkəzi,"Qazax şəh., Azadlıq küçəsi (7 gözəl ticarət mərkəzi)",41.094810945647815,45.365615596889,atm
Göyçə market (Qazax),"Qazax, Azadlıq küç., (Vağzal Binası)",41.089427,45.352479,atm
Market (Yuxarı Salahlı),"Qazax, Qazax, Yuxarı Salahlı (market)",41.240084496571846,45.263357940062775,atm
Əsədoğlu market (Daş Salahlı),"Qazax, Daş Salahlı kəndi (Əsədoğlu market )",41.13504031365082,45.266065341406026,atm
Murad market,Qazax Şəh. N.Nərimanov 72C (“Murad Market”),41.09803950538207,45.342922309969794,atm
Elvin market (Qazax),"Qazax rayonu, Kəmərli kəndi",41.22004754785183,45.12276684184158,atm
İK market,"Qazax, Ə.A.Şıxlinski və Ş.İ.Xətai küçələrinin kəsişməsi (İk market)",41.096924507411124,45.35013761924103,atm
Avropa market (Qazax),"Qazax, H.Əliyev pr-ti 173 (""Avropa"" market)",41.097373,45.377244,atm
Aviapetrol (Qazax),"Qazax -Çaylı yolu, QƏrb Qapısı restoranın yanı",41.103200,45.338827,atm
ABB Qəbələ filialı-1,"Qəbələ , Qəbələ, İ.Qutqaşınlı küçəsi, 37",40.981172,47.848992,atm
Qəbələ Mərkəzi Poçt,"Qəbələ , Qəbələ, H.Əliyev prospekti 31 (Qəbələ poçtu)",40.9767587,47.8532103,atm
Böyük Əmirli,"Qəbələ Rayonu,  Böyük Əmirli kəndi (Bizim Market)",40.8605022,47.7572106,atm
Nic kəndi,"Qəbələ, Nic (ATS)",40.9397161,47.6675996,atm
Röya market (Vəndam),"Qəbələ, Vəndam ( ""Röya"" market )",40.945222,47.944572,atm
Qutqaşınlı küçəsi,"Qəbələ, I.B.Qutqaşınlı küçəsi",40.97713211018328,47.84559539486955,atm
Ulduz market (Hacıalı),"Qəbələ, Hacıalı (Ulduz market)",40.84321652024895,47.727200647150994,atm
Makromart market,"Qəbələ, Zarağan kəndi (""Makromart"" market )",40.9281958,47.801864,atm
Araz market (Zarağan qəs.),"Qəbələ Rayonu, Zarağan Qəsəbəsi",40.928872,47.801910,atm
Oba market (Qobustan),"Qobustan rayonu (""Oba"" market)",40.080623,49.413528,atm
Ramil market (Qobustan),Qobustan rayonu (Ramil market),40.53514055786753,48.913971206905494,atm
Quba Mega Store,"Quba Şəhəri, H.Əliyev Pr. Tofiq Əhmədov 1 (Mega Store Super Market)",41.362346,48.528652,atm
Quba Mərkəzi Xəstəxana,"Quba r-nu, H.Əliyev prospekti, (Quba Mərkəzi Xəstəxana)",41.357189,48.493482,atm
Oba market (Qusar),"Qusar, Oba market",41.41895299584495,48.41726102389853,atm
Qusar Mərkəzi Xəstəxanası,"Qusar , Çingiz Qurbanov k. (Pioner market)",41.430196,48.441192,atm
Nadir Ticarət mərkəzi,Saatlı rayon Şirinbəy kəndi (Nadir Ticarət mərkəzi),39.88524638919933,48.53784214857403,atm
ABB-nin Saatlı filialı,"Saatlı, H.Əliyev pr. 178 (ABB Saatlı filialı)",39.938093,48.364036,atm
ABB-nin Saatlı filialı,"Saatlı, H.Əliyev pr. 178 (ABB Saatlı filialı)",39.938093,48.364036,atm
SABIRABAD OBA,"Sabirabad, H.Əliyev pr. (Oba market)",40.011417,48.470944,atm
Bazarstore (Sabirabad),"Sabirabad şəhəri, Heydər Əliyev pr.35",40.00424833500348,48.47037871300628,atm
OBA market (Şabran),"Şabran şəhəri, Məhəmməd Əmin Rəsulzadə 272B (Oba market)",41.201596,48.981878,atm
Şabran Telekommunikasiya qovşağı,"Şabran, H.Əliyev küçəsi (Telekommunikasiya qovşağı)",41.2000261,48.9846549,atm
Qayalı Market (Şabran DYV yanı),"Şabran şəhəri, Qayalı market (Şabran Dəmir Yolu Vağzalı yanında)",41.20963869417298,48.9966102775522,atm
OBA market (Gəndob kəndi),"Şabran rayonu, Gəndob kəndi (Oba market)",41.2595909,48.9025509,atm
A Plus Store,"Bakı ş. Sabunçu r., Bakıxanov qəs., Sülh və Neftçilər küç. kəsişməsi (A plus store)",40.42174240141368,49.96990174653606,atm
Oba Market (Nardaran),"Bakı, Sabunçu rayonu, Nardaran qəs. (Oba market)",40.55756251609222,50.00794099965487,atm
Oba market (Kürdəxanı),"Bakı, Sabunçu rayonu, Kürdaxanı qəsəbəsi (Oba market)",40.545716,49.916783,atm
Oba makret - Ramana,"Bakı şəhəri, Sabunçu r-nu, Ramana qəs. (Oba market)",40.480817,49.986323,atm
Sərham market,"Bakı şəh., Nazim İsmayılov küç., 5 (Sərham-1 market)",40.430535,49.957662,atm
Xəyal Ticarət Mərkəzi,"Bakı, Sabunçu rayonu, Maştağa qəsəbəsi, Heybətov küçəsi 1 (Bazar, ""Xəyal"" Ticarət mərkəzi)",40.525772,49.995601,atm
Maştağa - Araz market,"Bakı, Sabunçu, Maştağa qəs., Azərbaycan qadını (Araz market)",40.554935,50.022777,atm
İl komplex,"Bakı, Sabunçu rayonu, Kürdaxanı qəsəbəsi, ""İl komplex"")",40.547473,49.911127,atm
Araz market (Qırmızı küç.),"Bakı, Sabunçu rayonu, Sabunçu qəsəbəsi, Qırmızı küçə 5",40.444828,49.943353,atm
Megastore market (Bakıxanov qəs.),"Bakı, Bakıxanov qəs., Gənclər küç., 27 C ""Megastore"" market",40.410986,49.968736,atm
Bilgəh Qocalar Evi,"Bakı, Sabunçu rayonu, Bilgəh qəsəbəsi, XX qurultay küç.,24",40.5651774,50.031049,atm
Yeni Ramanı Poçt 112,"Bakı, Sabunçu rayonu, Yeni Ramana qəsəbsi, Bünyadzadə küçəsi (Poçt №112)",40.442007,49.977136,atm
Pirşağı 18 saylı mağaza,"Bakı, Sabunçu rayonu, Pirşağı qəs. Ə.Məlikov küç.29 (18 saylı mağaza)",40.557957,49.887773,atm
Avromart Zabrat,"Sabunçu rayonu, Zabrat ŞTQ",40.491417,49.954422,atm
4 saylı ASAN Xidmət Mərkəzi,"Bakı, Sabunçu r-nu, Bakıxanov qəs.,Sülh küç.,8a 4 saylı Bakı ""ASAN xidmət"" Mərkəzi",40.420949,49.969015,atm
Tac market (Maştağa),"Bakı, Sabunçu rayonu, Maştağa qəs., Əhmədağa Əhmədov küçəsi 1 (Tac market)",40.529252,50.011019,atm
Balaxanı Poçt №6,"Bakı, Sabunçu rayonu, Balaxanı qəsəbəsi, M.Ə.Sabir küçəsi ev 1 (Poçt №6)",40.459132,49.922743,atm
Bakı Ticarət Mərkəzi,"Bakı, Sabunçu rayonu, Maştağa qəs. H.Heybatov küç. 13 (""Bakı"" T.M)",40.52841304745526,49.99775520877097,atm
Oba market (Ramana),"Bakı, Sabunçu rayonu, Ramana qəsəbəsi, (Oba Market)",40.45691,49.98757,atm
Araz market (Maştağa),"Bakı, Sabunçu rayonu, Maştağa qəsəbəsi",40.506841,49.975514,atm
Poçt Pirşağı,"Bakı, Sabunçu rayonu, Pirşağı qəsəbəsi, Sovxoz küçəsi 1 (98 №li poçt)",40.529156,49.874017,atm
İstilik kombinatl (Zabrat 2),"Bakı şəhəri, Sabunçu r-nu, Zabrat II qəs. İstilik kombinatı, ""Al"" market",40.491643,49.944678,atm
Neptun supermarket (Nardaran),"Bakı, Sabunçu rayonu, Nardaran qəsəbəsi (Neptun supermarket)",40.5436976893416,49.986414848985625,atm
ABB - Maştağa DYP,"Bakı şəhəri, Sabunçu rayonu, Zabrat-Maştağa şosesi 5/10 (DYP, Texniki baxış mərkəzi)",40.500197,49.962166,atm
OBA market (parkın yanı),"Bakı ş, Sabunçu r., M. Şəfai 18 (Maştağa OBA market Pakın yaxınlığı)",40.532793,50.004612,atm
Oba market (Zabrat 1),"Sabunçu rayonu, Zabrat 1 qəs. (Oba market)",40.47518200469756,49.94492408373571,atm
Pətək supermarket (Şuşa şəhərciyi),"Bakı şəhəri, Sabunçu r-nu, Ramana qəs. Şuşa şəhərciyi (""Pətək"" supermarket )",40.468433,50.014513,atm
Uluxanlı Ticarət Mərkəzi,"Bakı, Sabunçu r-nu, M.Vəkilov küç.,ev 2b, ""Uluxanlı"" Ticarət Mərkəzi ( 1-ci mərtəbə )",40.42310738251768,49.95607702855947,atm
Sərham market,"Bakı şəhəri, Sabunçu r-nu, Bakıxanov qəsəbəsi, Y.Əliyev küç. 00/37, ""Sərham"" market",40.436554,49.959343,atm
Rahat market (Zabrat),"Sabunçu r., Zabrat qəsəbəsi (Rahat market)",40.465812,49.945362,atm
Sabunçu Ticarət Mərkəzi,"Bakı şəhəri, Sabunçu qəsəbəsi, Ə.Məmmədquliyev küç. 5, ""Sabunçu"" ticarət mərkəzi",40.44219166561668,49.94242759789886,atm
Şahbuz Rabitə idarəsi,"Şahbuz rayonu, 28 May küçəsi, ev 12",39.406574,45.571739,atm
Kolanı (icra nümayəndəliyi),"Şahbuz rayonu, Kolanı icra nümayəndəliyi",39.454915,45.682375,atm
Salyan Hacıoğlu,"Salyan ray.,Marisli K. Ələt-Astara yolu 61 km (Hacıoğlu)",39.5941935,48.9035331,atm
İlkin-N MMC market,"Salyan Rayonu, Garabaglı kəndi, Dərələyəz TM",39.769696655130055,48.97645606869309,atm
Salyan Perla Mebel,"Salyan, Bakı-Astara şossesi, 131-ci km (Perla mbel)",39.584365,48.971827,atm
Salyan - Öz geyim,Salyan şəh H.Z.Tağıyaev ev 53A (Öz geyim),39.589979,48.979980,atm
Oba market (Şamaxı),"Şamaxı, Azərbaycan və Bakı küçələrin kəsişməsi (Şamaxı Oba market)",40.63758470739361,48.643366305560974,atm
Favorit market (Şamaxı),"Şamaxı, Nərimanov küç. 25 (Favorit market)",40.639797,48.639261,atm
Şamaxı Universam,"Şamaxı, Şəhriyar küçəsi 1 (Universam)",40.638080,48.636420,atm
OBA market (Şamaxı),"Şamaxı ş., Göylər kəndi  (Şamaxı OBA market 2)",40.492518,48.680252,atm
Təklə kəndi (market),"Şamaxı, Qobustan rayonu, Təklə kəndi (Market)",40.59005567252837,48.78277059720461,atm
Çuxuryurd,Şamaxı Çuxuryurd qəsəbəsi,40.706744204493546,48.63381503841992,atm
Şamaxı - Qayalı market,Şamaxı şəhərinin giriş hissəsinin sağ tərəfi “Qayalı” marketi,40.601502,48.685747,atm
VİP market,"Şamaxı ş., Seyid Əzim Şirvani küç, (""VİP"" market)",40.62618985492619,48.64697936760638,atm
ETM market,"Şamaxı r-nu, M.Ə.Sabir adına qəsəbə",40.58859686756416,48.710497177489636,atm
Qarayeri qəsəbəsi,Samux ray. Qarayeri qəsəbəsi,40.7883727,46.3221531,atm
ABB-nin Samux filialı - 1,"Samux, Samux , Nəbiagalı qəsəbəsi, H.Əliyev prospekti, 134 (ABB Samux filialı)",40.76619506836712,46.40602189588147,atm
Yenikənd qəsəbəsi,"Samux rayonu, Yenikənd qəsəbəsi",40.926711261387624,46.30477480589314,atm
Kitab evi-1,"Bakı, Səbail rayonu, Nigar Rəfibəyli küçəsi 29 (Kitab evi)",40.371540,49.8366995,atm
Bizim Market (Badamdar),"Səbail rayonu, Badamdar qəsəbəsi, R.İsgəndərov küçəsi 4A",40.339497,49.805836,atm
Araz market (Badamdar),"Bakı, Səbayıl r-nu, Badamdar şossesi, 34",40.351064,49.810626,atm
Araz market (20-ci sahə),"Bakı, Səlyan şossesi 20-ci sahə",40.328854,49.818527,atm
Ay market (Bibiheybət),"Bakı, Səbail rayonu, məktəb küçəsində (Meydan)",40.30629905393148,49.82161226889155,atm
Kitab evi-2,"Bakı, Səbail rayonu, Nigar Rəfibəyli küçəsi 29 (Kitab evi)",40.371540,49.8366995,atm
Bibiheybət məscidi,"Bakı, Səbail rayonu, Bakı-Səlyan şos. Bibi heybət məsçidi (Socar YDM)",40.318558,49.821734,atm
Xüsusi Müalicə Sağlamlıq Kompleksi,"Bakı şəhəri, Səbail r-nu, Badamdar şossesi 31 (Xüsusi Müalicə Sağlamlıq Kompleksi)",40.3532548,49.810131,atm
İçərişəhər,"Bakı, Səbail rayonu, Sabir küç. (İcəri şəhər)",40.367878,49.835853,atm
İnvestisiya Xoldinqi,"Bakı şəhəri, Səbail, Azərbaycan prospekti 6, AZ 1005 (İnvestisiya Xoldinqi)",40.370140,49.834495,atm
Sədərək Qaz İdarəsi,"Sədərək, Sədərək rayon Qaz  İdarəsi",39.705024,44.882971,atm
Məişət evi (Sədərək kənd),"Sədərək, Sədərək kəndi (Məişət evi)",39.715318,44.880348,atm
Şəki Turan,"Şəki, Turan",40.8576279,47.2439433,atm
Karvansaray,"Şəki, M.F.Axundov küçəsi 185 (Karvansaray)",41.20065640081308,47.192696888477144,atm
24 saat market,"Şəki, N.Nərimanov küçəsi (24 market)",41.1575006,47.1797249,atm
Rəsulzadə prospekti (market),"Şəki, Məmmədəmin Rəsulzadə prospekti (market)",41.2035946,47.1789536,atm
Ekonom Market (Şəki),"Şəki şəhəri,  M.Ə.Rəsulzadə, 89 (Ekonom market)",41.2021738,47.1778313,atm
Rahat market,"Şəki, Sabit Rəhimov küçəsi (Rahat market)",41.204403,47.167895,atm
Bazarstore (Şəki),Şəki şəhəri Mikayl Müşfiq küçəsi,41.2011884,47.168241,atm
Oba market (Sarıca kəndi),Sheki Sarica kandi,40.8756585,47.3442316,atm
Dağdibi (market),"Şəki, N.Nərimanov küçəsi (Dağdibi) Yoluüstü market",41.1649494,47.1826243,atm
"""Zirvə"" şadlıq evi","Şəki, Böyük Dəhnə kəndi, ""Zirvə"" şadlıq evi",40.9760921,47.1216961,atm
"""Ulduz"" market","Şəki şəhəri, Aşağı Göynük kəndi (“Ulduz” market)",41.2710919,47.0121229,atm
Oba market (Rəsulzadə pr.),"Şəki şəhəri, M.Ə.Rəsulzadə pr. (Oba market)",41.170646079723674,47.167501608026996,atm
Orta zəhzid (market),"Şəki, Orta zəhzid qəsəbəsi (market)",41.1808773,47.2397094,atm
Baş Göynük (mağaza),"Şəki, Baş Göynük (mağaza)",41.3271077,47.1143002,atm
Muradoğlu market,"Şəki, Kiçik Dəhnə kəndi, Muradoğlu market",40.9903792,47.0829386,atm
Dodu məh. (Ticarət Mərkəzi),"Şəki şəhəri, M.Ə.Rəsulzadə  qəs. Dodu məhəlləsi (Ticarət mərkəzi)",41.2266250886393,47.18036562362362,atm
Qoxmuq ərzaq mağazası,"Şəki, Qoxmuq kəndi (ərzaq dükanı)",41.2117144,47.1336442,atm
Oba market (Düyərli kəndi),"Şəmkir rayonu, Düyərli kəndi",40.91224174293924,45.849760757744306,atm
ABB-nin Şəmkir filialı - 1,"Şəmkir, S.Vurğun küçəsi 131 (ABB-nin Şəmkir filialı)",40.83009862611042,46.02020803764185,atm
Oba market (N.Nərimanov küç.),"Şəmkir şəhəri, N.Nərimanov küç, ev 36 (Oba market)",40.82791863759396,46.03316042503847,atm
20 Yanvar küçəsi (Aptek),"Şəmkir, 20 Yanvar küç. (Aptek)",40.8270830,46.0275570,atm
Göysu market,"Şəmkir, Çinarlı qəsəbəsi, ""Göysu"" market",40.78054386242497,46.10962366307333,atm
Zümrüd market (S.Vurğun küç.),"Şəmkir şəhəri, S.Vurğun küçəsi 1 (""Zümrüd"" Market)",40.80845508143643,46.011625364971025,atm
Zümrüd market (Dəllər),"Şəmkir, Dəllər (""Zümrüd"" Market)",40.877960046983134,46.02822894818403,atm
“Ayan” marketin binası,Şəmkir rayonunun Yeni Göyçə kəndi ərazisində (“Ayan” marketin binası),40.673725,45.949518,atm
Şəmkir Kür qəsəbəsi,"Şəmkir, Kür qəsəbəsi (Market-2)",40.906036376953125,46.18333435058594,atm
Oba market (Zəyəm qəsəbəsi),"Şəmkir, Zəyəm qəsəbəsi",40.90403131093439,45.88809050306273,atm
Şəmkir DYS,"Şəmkir, Təzəkənd qəsəbəsi (Şəmkir dəmir yolu stansiyası, market)",40.83558185619012,46.14895179949743,atm
Oba market (Şəmkir küç.),Şəmkir şəhəri Şəmkir küçəsi 156,40.844334551049386,46.0214808261822,atm
Qaraçəmirli kəndi (ATS),"Şəmkir rayonu, Qaraçəmirli kəndi (ATS)",40.84469985961914,46.21489334106445,atm
Dəllər qəsəbəsi,"Şəmkir rayonu, Dəllər qəsəbəsi, M.Əsədov küç. 10",40.86807171178731,46.035563324060746,atm
Çənlibel kəndi,"Şəmkir rayonu, Çənlibel kəndi, Əziz Əliyev küç. 141",40.736359349152686,45.876675387982445,atm
Oba market (Zəyəm Cırdaxan kəndi),"Şəmkir rayonu, Zəyəm Cırdaxan kəndi (""Oba"" market)",40.88614001331207,45.823961127058915,atm
"Şəmkir, Keçili kəndi","Şəmkir rayonu, Keçili kəndi, Aşıq Məsim küçəsi, ""Elmir"" şadlıq sarayında yerləşən gözəllik salonu",40.86296463012695,46.1319694519043,atm
Əlihüseynli market (Seyfəli k.),"Şəmkir rayonu,Seyfəli kəndi ( ""Əlihüseynli"" market )",40.75804138183594,46.13218307495117,atm
Makromart,"Şəmkir, Elşən Allahverdiyev küç. (""Makromart"")",40.840772,46.039142,atm
Şəmkir Zirvə market,Şəmkir şəhəri S.Vurğun küçəsi 59C,40.816968,46.013744,atm
Xanlıqlar kəndi,"Şərur rayon, Xanlıqlar kəndi (İcra nümayəndəliyi)",39.502980,45.025777,atm
Şərur Kompyuter təlim-tədris mərkəzi,"Şərur,H.əliyev prospekti, 37A (Kompyuter təlim-tədris mərkəzi)",39.555615,44.983507,atm
Şərur Dəmir Yolu Vağzalı,"Şərur, Dəmir Yol İdarəsi",39.550345,44.981579,atm
Şərur DSMF,"Şərur, H.Əliyev Prospekti (DSMF)",39.556266,44.985170,atm
Oba market (Şirvan),"Şirvan,  (Oba market 10)",39.93533797580885,48.9277584293474,atm
Şirvan - Mərkəzi Poçtu,"Şirvan, M.Ə. Rəsulzadə küçəsi 1 (Şirvan Mərkəzi Poçtu)",39.9639619,48.9498982,atm
Şirvan - Zeytun Aptek,"Şirvan şəh., H.Əliyev prospekti 80 (Zeytun Aptek)",39.96962896717166,48.943344837480076,atm
Şirvan - Neptun market,"Şirvan ş., M. Rəsulzadə küç. (Neptun market)",39.9603401,48.9456314,atm
Oba market (Siyəzən),"Siyəzən rayonu, Heydər Əliyev (Oba market)",41.0681426,49.1190027,atm
Araz market (Siyəzən),"Siyəzən rayonu, H.Əliyev prospekti (Araz market)",41.0868391,49.10217,atm
ABB-nin Sumqayıt filialı,"Sumqayıt, S.Vurğun küçəsi 112, 14-cü məhəllə (ABB Sumqayıt filialı)",40.593644,49.678000,atm
Sumqayıt Hiper market,"Sumqayıt şəh., 10 MKR ev Babək küçəsi 8A",40.568932,49.691457,atm
Araz market (Saray),Sumqayıt qəs. Saray qəsəbəsi,40.54812093252883,49.712974291484116,atm
Grandmart (6-cı mkr.),"Sumqayıt şəhəri, S. Vurğun 6 (6-cı mkr)",40.57915557687467,49.69343567439931,atm
Karbomid zavodu,"Sumqayıt, Bakı-Quba yolu 35-ci km.",40.595535,49.584639,atm
Qayalı market (11-ci MKR),"Sumqayıt ş., 11-ci MKR Stansiya yolu (Qayalı market)",40.564651,49.675762,atm
ABB-nin Sumqayıt filialı,"Sumqayıt, S.Vurğun küçəsi 112, 14-cü məhəllə (ABB Sumqayıt filialı)",40.593644,49.678000,atm
ABB-nin Sumqayıt filialı,"Sumqayıt, S.Vurğun küçəsi 112, 14-cü məhəllə (ABB Sumqayıt filialı)",40.593644,49.678000,atm
Azərkimya zavodu,"Sumqayıt, (Azərkimya, zavod)",40.61885800632254,49.586052225107245,atm
Sumqayıt- Top market,"Sumqayıt, Vəli Axundov 61, (Top market)",40.560942,49.708619,atm
Qayalı market (Sumqayıt),"Sumaqyıt ş., H.Z.Tağıyev qəs., S.Bəhlulzadə 154",40.619089,49.562501,atm
Sumqayıt - Pioner market,"Sumqayıt, 45-ci məhəllə N.Nərimanov küç. (Pioner market)",40.584182,49.679436,atm
Sumqayıt - Qobu yolu,"Sumqayıt, Sumqayıt-Qobu yolu (YPİ Sumqayıt), Araz market",40.5658478432792,49.62710993544676,atm
ABB-nin Sumqayıt filialı,"Sumqayıt, S.Vurğun küçəsi 112, 14-cü məhəllə (ABB Sumqayıt filialı)",40.593644,49.678000,atm
Araz market (Sumqayıt),"Sumqayıt ş., Çerkasi küç. (Araz market)",40.562602,49.684419,atm
ABB-nin Sumqayıt filialı,"Sumqayıt, S.Vurğun küçəsi 112, 14-cü məhəllə (ABB Sumqayıt filialı)",40.593644,49.678000,atm
Oba market (2-ci mkr.),"Sumqayıt, 2-ci mkr, (Oba market)",40.583646,49.676909,atm
Socar YDM (Bakı-Quba),"Sumqayıt, Bakı-Quba yolunun 28-ci km.-də yolun sağ tərəfi (""Socar"" YDM)",40.556408,49.639655,atm
Əşya bazarı,"Sumqayıt, 17-ci Məhəllə, Əşya bazarı (Qayalı)",40.590456827159166,49.665493378093814,atm
Etilen Polietilen Zavodu,"Sumqayıt, S.Vurgun küçəsi 1 (Etilen Polietilen Zavodu)",40.61296717612092,49.59232415612692,atm
Grandmart (Stansiya Sumqayıt),Stansiya Sumqayıt şəhərciyi (Grandmart),40.557397,49.587704,atm
Oba market (26-cı məhəllə),"Sumqayıt, 26-cı məhəllə, H.Əliyev küç. ilə S.Vurğun küç. kəsişməsi (Oba market)",40.60041914443382,49.633033246771234,atm
Sumqayıt (3-cü MKR) - Aptek,"Sumqayıt, 3-cü mikrorayon, Bakı küçəsi (Aptek)",40.584838,49.666696,atm
Sumqayıt (17-ci MKR),"Sumqayıt şəhəri17-ci mikrorayon, İsmət Qayıbov küçəsi",40.564045,49.708687,atm
Ordubad market,"Sumqayıt, H.Əliyev pr. 326 (Ordubad market)",40.58327291972072,49.674347179299666,atm
Sumqayıt mall,"Sumqayıt, Babək pr. (Sumqayıt mall)",40.56568705898096,49.69668206177609,atm
Elmar market (6-cı mkr.),"Sumqayıt şəhəri 6-mkr, (Elmar market)",40.5801370895433,49.68770429648758,atm
Bazarstore (Sumqayıt),"Sumqayıt ş., Məzahir Abdullayev küç., məhəllə 47",40.56370295833912,49.69660702468112,atm
Dəmir yolu yaşayış massivi,"Sumqayıt şəhəri, H.Z.Tagıyev qəs., Dəmir yolu yaşayış massivi, 6c (Al market )",40.638913,49.539608,atm
Araz market (11-ci mkr.),Sumqayıt ş. 11 MKR (Araz Market),40.56987518467765,49.675234217331294,atm
Qayalı market (10-cu MKR),"Sumqayıt şəh., 10 MKR ev Babək küçəsi 8A (Qayalı market)",40.5683442217651,49.69212633877863,atm
Stansiya Sumqayıt,"Sumqayıt ş., Stansiya Sumqayıt",40.556300,49.609900,atm
OBA market (Çöllük küçəsi),"Suraxanı rayonu, Hövsan qəsəbəsi , Çöllük küçəsi 5",40.359425,50.071050,atm
Günəşli - Armstore,"Bakı, Suraxanı r., Yeni Günəşli qəsəbəsi, D yaşayış massivi bina 8 (Armostore)",40.371024,49.978146,atm
Araz market - İmam Həsən məscidin yanı,"Bakı ş. Xəzər r-nu, Binə qəs., Ə.İsazadə İmam Həsən məsçidin yanı (Kapital bankın ATM-in yanı) (Araz market - 3)",40.424564,50.102718,atm
Xəzər market (Yeni Günəşli),"Suraxanı rayonu, Yeni Günəşli qəsəbəsi, V yaşayış sahəsi, 9B",40.3796364,49.9805445,atm
ARDİN Nəqliyyatda Baş Polis İdarəsi,"Bakı, Suraxanı r., Zığ qəs., Zığ-Hövsan yolu 2ci km (ARDİN Nəqliyyatda Baş Polisİd.)",40.346833,49.990538,atm
Araz market (Əmircan),"Bakı, Suraxanı rayonu, Əmircan qəsəbəsi, keçid 1847",40.4125877,50.0025804,atm
Qloriya ticarət mərkəzi,"Bakı, Suraxanı rayonu, Bakıxanov qəsəbəsi, Fətəliyev küçəsi 53 (""Qloriya"" ticarət mərkəzi)",40.4162485,49.9679667,atm
Kənd Hövsan,"Bakı, Suraxanı rayonu, Hövsan qəsəbəsi, Məktəb küç. 17 (Market)",40.3756627,50.0855809,atm
Araz market (Günəşli),"Suraxanı r., Yeni Günəşli qəs.",40.38362669876616,49.98257632582618,atm
Araz market (Qaraçuxur),"Suraxanı rayonu, Qaraçuxur qəsəbəsi, Rafiq Alacanov küçəsi 17",40.401503,49.978186,atm
Market - Zığ,"Bakı, Suraxanı rayonu, Ziğ qəsəbəsi, Zığ dairəsi (Market)",40.358718436343935,49.97771222518275,atm
Gürgan OBA Market,"Bakı, Suraxanı rayonu, Gürqan qəsəbəsi, E.Hüseynov küçəsi (Oba market)",40.39552044995272,50.33845869512729,atm
Bazarstore (Əmircan),"Bakı, Suraxanı rayonu, Suraxanı qəsəbəsi, Qarabağ FK (BazarStore)",40.420900,49.997200,atm
Xəzər market (Qaraçuxur),"Qaraçuxur qəsəbəsi, məhəllə 4057-4060,M.Fətəliyev küç., 15C",40.398562,49.976395,atm
Market - Yeni Suraxanı,"Bakı, Suraxanı rayonu, Yeni Suraxanı qəsəbəsi, 14 Iyul küçəsi (market)",40.43295761125316,50.03292205500093,atm
Oba market (Türkan 1),"Bakı, Xəzər rayonu, Türkan qəs. Xanlar  küç. (Oba market-1)",40.36576372616282,50.2140806361463,atm
3 saylı Zeytun,"Bakı, Suraxanı rayonu, Qala qəsəbəsi",40.4488784,50.1610618,atm
Oba market (Türkan 2),"Bakı, Xəzər rayonu, Türkan qəs. Xanlar  küç. (Oba market-2)",40.365346,50.223002,atm
Araz market (Qaraçuxur),"Bakı şəhəri,Suraxanı r-nu, Qaraçuxur qəsəbəsi, Yusif Eyvazov küç.2, ""Araz"" market",40.393168,49.981710,atm
Oba market (Günəşli),"Suraxanı rayonu, Yeni Günəşli qəsəbəsi, ""AB"" y/m",40.385567,49.977402,atm
Araz market (Hövsan),"Bakı şəhəri, Suraxanı r-nu, Hövsan qəsəbəsi, "" Araz "" market",40.360341,50.075640,atm
Bizim Market (Suraxanı),"Suraxanı rayonu, Əmircan qəsəbəsi, İlqar Məmmədov küçəsi (Bizim market)",40.433184,49.983698,atm
Oba market - Qaraçuxur,"Bakı, Suraxanı rayonu, Qaraçuxur qəsəbəsi, Əhməd Mehbalıyev (Oba market)",40.391983,49.972153,atm
Socar Xilasetmə,"Bakı, Suraxanı rayonu, Qum qəsəbəsi (Socar Xilasetmə)",40.311059,50.003728,atm
Oba market - Əmircan,"Suraxanı ray Əmircan qəs., Tofiq Bayram küçəsi 23 (Oba market)",40.42225998815181,49.987756393493,atm
Bravo (Şuşa),"Şuşa, Aslan Qaraşarov (Bravo supermarket)",39.758028,46.744986,atm
Araz market (Şuşa),"Şuşa, Araz market",39.762900,46.748172,atm
Oba market (Tərtər),"Tərtər rayonu, Köhnə Avtovağzalın qarşısı (Oba market)",40.348474572132915,46.93084437113342,atm
ABB-nin Tərtər filialı,"Tərtər, E.Hüseynov küçəsi 3 (ABB Tərtər filialı)",40.3421718,46.9310682,atm
Ticarət mərkəzi (Əyyublu kəndi),"Tovuz, Tovuz, Əyyublu kəndi (Ticarat mərkəzi)",40.92818093292794,45.81789255357261,atm
Araz market (Aşağıquşçu kəndi),"Tovuz rayonu, Aşağıquşçu kəndi (market)",40.9668139,45.6559002,atm
ABB-nin Tovuz filıialı - 1,"Tovuz, M.Ə.Sabir küçəsi 49 (ABB Tovuz filialı)",40.99266228364854,45.617062286730686,atm
Grand market,Tovuz rayonu Aşağı Öysüzlü kəndi Grand Market,40.9867950,45.6043400,atm
Bazarstore (Qovular qəsəbəsi),"Tovuz, Qovular qəsəbəsi,  ( "" Bazarstore "" )",40.946900,45.741577,atm
OBA market (Hacılı kəndi),Tovuz r. İbrahim Hacılı kəndi. OBA Market,40.90065812603951,45.74772221553863,atm
Əsədoğlu market,"Tovuz rayonu, Musa Musayev, 55 ( “Əsədoğlu” market)",40.980921,45.631120,atm
Qaraxanlı kəndi,"Tovuz, Qaraxanlı",41.04345566976774,45.649950107518286,atm
Cəlilli  kəndi,"Tovuz rayonu, Cəlilli kəndi",41.022179838902986,45.6074418253336,atm
Oba market (Düz Qırıqlı),"Tovuz rayonu, Düz Qırıqlı kəndi ( Oba market)",40.936166475088335,45.80047298422321,atm
Alakol kəndi,"Tovuz rayonu, Alakol kəndi",40.904474,45.771252,atm
Mega market (Ucar),Ucar r. Azərbaycan pr. (Mega market),40.505089324416296,47.658295254137954,atm
ABB-nin Ucar filialı - 1,"Ucar, Oğuz k. 44 (ABB Ucar filialı)",40.505089324416296,47.658295254137954,atm
"""Ələkbər"" T/M","Ucar , 20 Yanvar küçəsi (""Ələkbər"" T/M)",40.51716706554899,47.660804530512515,atm
Oba market (Ucar),Ucar ş. H.Əliyev 51 (Oba market),40.51434285254126,47.64981570013317,atm
Bəyaz market,"Ucar, Bakı-Gəncə - Qazax magistral yolu Ucar rayonu  (dörd yol ərazisində) ""Bəyaz"" market",40.494637072964125,47.664796648508165,atm
Qayalı market,"Xaçmaz, N.Nərimanov küç. Qayalı market",41.46372432119405,48.801711016277196,atm
Emin market,"Xaçmaz rayonu, Yalama kəndi (Emin market)",41.75776526118335,48.58542538868048,atm
Oba market (Xaçmaz),"Xaçmaz, 20 yanvar küç. 68 (Oba market)",41.45830609370114,48.80237485368127,atm
Xaçmaz KOB,Xaçmaz-Gəndov şosesinin 1-ci kilometri (KOB),41.43831975743837,48.80104403591704,atm
Xudat şöbəsi,"Xaçmaz, Xudat qəs. (Qayalı market)",41.622576,48.686001,atm
Kristal Ticarət Mərkəzi,"Xaçmaz rayonu, Qusarçay kəndi (Kristal Ticarət Mərkəzi)",41.564982,48.720352,atm
"""Qayalı Gold Xaçmaz"" market","Xaçmaz şəh., Xaçmaz -  Yalama yolu",41.447905917890296,48.79538092732107,atm
Oba market (Xudat),"Xaçmaz, Xudat, Nəriman Nərimanov 81, (Oba Market)",41.63116236931206,48.68173254694367,atm
Polis idarəsi,Xankəndi şəhəri (Polis idarəsi),39.82279396846413,46.76207734060297,atm
Bazarstore Nəsimi,"Bakı ş, Nərimanov rayonu, A.A.Mirqasımov 61b (Bazarstore Nəsimi)",40.396078,49.843044,atm
Market - Gəncə,"Bakı, Xətai rayonu, Gəncə prospekti 63 (market)",40.361758,49.963030,atm
"VİP Market, Sadıxcan küç","Bakı ş. Xətai rayonu, Sadıxcan küç. 15 (VİP market)",40.361348,49.956503,atm
A+ market (Əhmədli),"Bakı şəhəri, Xətai rayonu, General Şıxlinski (""A+"" supermarket)",40.377972,49.959938,atm
Oba market (N.Tusi küç.),"Bakı ş. Xətai.,N.Tusi küç.(OBA market)",40.376554,49.960465,atm
İ.Zülfüqarov küç. - Oba,"Bakı, Xətai rayonu, İ.Zülfüqarov küçəsi 2942A",40.369442966270874,49.95565743010633 ,atm
25 saylı poçt,"Bakı, Xətai rayonu, Yusif Səfərov küçəsi 8 (25 saylı poçt)",40.378044,49.865506,atm
Favorit market (Xətai),"Bakı, Xətai rayonu, Gəncə pr. 29/42 (""Favorit"" market)",40.367433,49.959763,atm
"Kənd Əhmədli,32 saylı poçt şöbəsi","Bakı, Xətai rayonu, Ş.Əhmədov küçəsi (Kənd Əhmədli, 32 saylı poçt şöbəsi)",40.38556199991127,49.94423270042216,atm
Araz market (Xətai m/s),"Bakı ş., Xətai rayonu Xocalı pr. 29 (ARAZ supermarket)",40.38383137823616,49.87024356170516,atm
H.ASLANOV ARAZ M.,"Bakı, Xətai, M.Hadi küç., 384-388 (Araz market)",40.372182,49.952682,atm
ABB-nin Xətai fililalı,"Bakı şəhəri, Xətai r-nu, Nobel pr. 23, Xətai filialının yeni binası ( ASAN-2 xidmətinin yanı )",40.3791493,49.8786948,atm
ABB-nin Xətai fililalı,"Bakı şəhəri, Xətai r-nu, Nobel pr. 23, Xətai filialının yeni binası ( ASAN-2 xidmətinin yanı )",40.3791493,49.8786948,atm
Yaşıl market - Neapol,"Bakı şəhəri, Xətai r-nu, Neapol küç. 15, Gözəllıik salonu və market.",40.381100,49.965156,atm
Xəzər Dəniz Gəmiçilik,"Bakı şəhəri, Xətai r-nu, Zığ şossesi, 2236-cı məhəllə, Azərbaycan Xəzər Dəniz Gəmiçiliyi Quru Yük Limanı məntəqəsi",40.363272,49.934508,atm
Xəzər Dəniz Neft Donanmasının inzibati binası,"Bakı şəhəri, Xətai r-nu, Zığ şossesi,  Əbilov küç. 25, (Xəzər Dəniz Neft Donanmasının inzibati binası )",40.3584964,49.9426746,atm
ABB-nin Xətai fililalı,"Bakı şəhəri, Xətai r-nu, Nobel pr. 23, Xətai filialının yeni binası ( ASAN-2 xidmətinin yanı )",40.3791493,49.8786948,atm
Bizim market (Günəşli),"Bakı şəhəri, Xətai r-nu, Günəşli qəs., İ.İsmayılov küç., 5 C, ""Bizim market""",40.362782,49.969740,atm
Premium market (Günəşli),"Bakı şəhəri, Xətai r-nu, Günəşli qəs., İ.İsmayılov küç., 8, ""Premium"" market",40.36000237671684,49.96998251947099,atm
Home market,"Bakı şəhəri, Xətai r-nu, N.Tusi küç. 2942 a, ""Home"" market",40.366632,49.962392,atm
OBA market  (Məhəmməd Hadi),"Xətai rayonu, Məhəmməd Hadi küçəsi 134 (Oba market)",40.392393,49.953553,atm
TAM Store (Xətai),"Bakı, Xətai rayonu, 28 May küçəsi (TAM Store)",40.38051641422077,49.86255735170676,atm
APLUS - Xətai,"Bakı, Xətai r-nu, Qədir Məmmədov küçəsi, 4 (APLUS)",40.365718,49.944938,atm
Oba market - Xətai,"Bakı, Xətai rayonu, Sabit Orucov küçəsi 55 (Oba market)",40.381128,49.869159,atm
Aptek 63 (Buzovna),"Bakı ş. Xəzər ray, Buzovna qəs., sahə 74d (Aptek 63)",40.52058792114258,50.04142379760742,atm
Oba market (Mərdəkan),"Bakı, Xəzər rayonu , Mərdəkan qəsəbəsi, B.Əliyev küçəsi 15/1 (Oba Market)",40.48192158158108,50.15694577703763,atm
Araz market (Buzovna),"Bakı, Xəzər rayonu , Buzovna qəsəbəsi, N.Eyvazov küçəsi, ""Araz"" market",40.51689963143232,50.10228723917505,atm
Oba market (Buzovna qəs.),"Bakı, Xəzər rayonu, Buzovna qəsəbəsi, Rasim İmanov küçəsi 24 (Oba Market)",40.52771759033203,50.097679138183594,atm
Fidan market,"Şüvəlan qəs., Lev Sarçuk küç., 15",40.4961051940918,50.198326110839844,atm
Buta market (Şağan),"Bakı, Xəzər, Şağan, Nüsrət Məmmədov 17B",40.49152013344613,50.128911612990876,atm
Günəş market,"Bakı ş,Xəzər r-nu, Şüvəlan qəs. İldırım küç. 114A (market)",40.48486675015568,50.192971295497784,atm
Socar YDM (Qala),"Bakı, Xəzər r-nu,  Bakı-Mərdəkan-Qala yolayrıcının cənub-qərb hissəsi (""Socar"" YDM )",40.47160910262088,50.10430247644211,atm
Oba market (Mərdəkan),"Bakı, Xəzər ray., Mərdəkan qəs., S. Esenin (Oba Mərdəkan)",40.487765483014805,50.13811918080828,atm
Bakı Ticarət Mərkəzi,"Bakı, Xəzər rayonu, Buzovna qəsəbəsi, Rasim İmanov küçəsi (Bakı Ticarət Mərkəzi)",40.5235595703125,50.09986114501953,atm
41 saylı poçt,"Bakı, Xəzər r-nu, Buzovna qəs. A.Nemətulla 8 (41 saylı poçt)",40.5166194,50.1130179,atm
Bolmart - Zirə,"Bakı ş. Xəzər rayonu, Zirə qəsəbəsi (Bolmart)",40.419333,50.261524,atm
5+ market (Albalılıq),"Bakı, Xəzər r. Buzovna qəs. M. Namazov küç. 83C, giriş 1",40.52619628304033,50.06774970038911,atm
Socar YDM (Aeroport yolu),"Bakı, Xəzər rayonu , Yeni Suraxanı Bakı-Aeroport yolu (Socar YDM)",40.440682,50.013566,atm
Mərdəkan Ticarət Mərkəzi,"Bakı şəhəri, Xəzər r-nu, Mərdəkan qəs., Kolxoz küç., Ticarət mərkəzi",40.490966796875,50.14175033569336,atm
Araz market (Binə qəs.),"Bakı şəhəri, Xəzər r-nu, Binə qəs., Binə sovxozu, ""Rahat"" market",40.4231071472168,50.10382080078125,atm
Grandmart (Xəzər),"Bakı ş, Xəzər rayonu, Mərdəkan şossesi, Binə atçılıq mərkəzi ilə üzbəüz (Grandmart supermarket)",40.462781,50.082981,atm
Oba market (Zirə qəs.),"Bakı ş, Xəzər rayonu, Zirə qəs. Babayev küç. (Oba market)",40.3653896,50.2947934,atm
Karqo (Binə qəsəbəsi),"Xəzər rayonu, Binə qəsəbəsi (Karqo)",40.45683582893795,50.069529558118816 ,atm
Super Market (Zirə),"Bakı şəh., Xəzər rayonu, Zirə qəs. 58-ci sahə (Super Market)",40.375587463378906,50.285831451416016,atm
Oba market (Xırdalan),"Xırdalan, Heydər Əliyev prospekti 797b (Oba market)",40.456015862308035,49.73619548595569,atm
Qarabağ market,"Xırdalan şəhəri, Masazır qəsəbəsi, qacqinlar üçün Yeni yaşayış  ""Qarabağ"" marketin ərazisi",40.484856,49.781844,atm
Bizim market (Xırdalan),"Xırdalan şəhəri, 27-ci məhəllə Qalubiyyə küç.3/14, ""Bizim market""",40.454525,49.744976,atm
Seval market (Gənclər şəhərciyi),"Xırdalan şəhəri, ""Gənclər şəhərciyi"", ""Seval"" market",40.471957,49.740496,atm
Oba market,Xocalı (Oba market),39.905333492072145,46.7994996923394,atm
Hadrut - Bolmart,"Xocavənd rayonu, Hadrut (Bolmart market)",39.517771626926155,47.03089620531888,atm
"""Halal market""","Yardımlı rayonu, ""Halal market""",38.90725748651939,48.239932215420154,atm
Rahat market (Yasamal),"Bakı, Yasamal r-nu, D.Bünyatzadə 15 (Rahat market)",40.390197,49.793972,atm
Nəşriyyat,"Yasamal r., Mətbuat pr. (Nəşriyyat)",40.369403,49.810091,atm
Antiinhisar Müdafiəsi Dövlət xidməti,"Bakı, Yasamal rayonu , İİN, Antiinhisar Medafiəsi Dövlət xidməti - H.Zərdabi 88A",40.399647,49.805971,atm
Rahat market,"Bakı şəhəri, Yasamal r-nu, C.Səlimov, küç. 3 (Rahat market 24/7)",40.400967,49.821943,atm
Meliorasiya və Su təsərrüfatı ASC,"Bakı ş. Yasama r-nu, Moskva pr. 69a (Azərbaycan Meliorasiya və su təsərrüfatı ASC - inzibati binanin girişində)",40.4062887,49.8059686,atm
Yasamal filialı - 2,"Bakı, Yasamal rayonu, İnşaatçılar prospekti 2 (ABB Yasamal filialı 24/7 sahə)",40.37450472475061,49.81907753239535,atm
Araz market (Megasity),"Bakı şəh.,Yasamal rayonu Şəhriyar küç. 6, ""Megacity"" yaşayış kompleksinin yanı",40.3774733,49.8124621,atm
AL market (Yasamal),"Bakı ş. Yasamal r., Y/Y Dadaş Bünyatzadə (Al market)",40.39734649658203,49.79703903198242,atm
"AMEA, Fizika institutu","Bakı, Yasamal rayonu, H.Cavid prospekti 33 (AMEA, Fizika institutu)",40.374094,49.813858,atm
Park Yasamal,"Baki şəhəri, Yeni Yasamal rayonu, Kənar dairəvi yol 10 (Park Yasamal)",40.377284,49.791020,atm
Yevlax Oba market,"Yevlax, Füzuli küçəsi, Bazarın yanı OBA market",40.61687315702286,47.15165656286499,atm
Oba market (Malbinəsi),"Yevlax ray., Malbinesi k. (Oba market)",40.50497091110216,47.093229336233456,atm
Neptun supermarket,"Yevlax şəh., Yeni Yevlax küçəsi, (Neptun supermarket)",40.613915,47.1460189,atm
OBA market (Xaldan qəs.),"Yevlax ray., Xaldan Qəsəbəsi (Oba market)",40.7138616,47.218187,atm
OBA market (Yevlax),"Yevlax şəh., H.Əliyev pr., 63 (Oba market)",40.60600865876309,47.14564856945071,atm
Aran Dalğa market,"Yevlax r., Aran qəsəbəsi 2, Bakı- Gəncə şossesinin kənarında yerləşən Dalğa market",40.63159542229465,46.98894310886099,atm
Zaqatala mall,"Zaqatala r-nu, F.Əmirov küç.25, (Zaqatala Mall ərazisi )",40.725308,48.405816,atm
ATS-in yaxınlığında Mağaza,"Zaqatala, Muxax (ATS-in yaxınlığında Mağaza)",41.56996536254883,46.70876693725586,atm
Qəbələ market,"Zaqatala, V.İsmayilov 40A (Qəbələ market)",41.6246727,46.6375315,atm
Əliabad Bazarı,"Zaqatala r., Əliabad q., Yevlax-Zaqatala-Gürcüstan magistral yolunun 111KM-i, Əliabad Bazarı, Əliabad Pavliyonu",41.494300842285156,46.62809371948242,atm
Tala kəndi (Zaqatala),"Zaqatala, Aşağı Tala kəndi",41.60919600703392,46.635125665649575,atm
Zift supermarket (Zaqatala),"Zaqatala, Nizami küç,36  (“Zift” supermarketi)",41.63183691649234,46.65072977318418,atm
Qala Olimpiya Kompleksi,"Zaqatala, Qala düzü (Olimpiya Kompleksi)",41.640348,46.651785,atm
Danaçı kəndi (market),"Zaqatala, Danaçı kəndi (market)",41.5511772,46.4214668,atm
Çobankol kəndi,"Zaqatala r, Çobankol kəndi, Qax-Zaqatala magestral yolun üstü",41.53632705029023,46.701540684114654,atm
Selin market (Zaqatala),"Yuxari Tala kəndi, ""Tala"" pr-ti 25",41.61407356903221,46.655470100269326,atm
Bazarstore (Zaqatala),"Zaqatala şəh., Ş.Qurbanov küçəsi,4        ( ""Bazarstore"" market )",41.629904,46.644284,atm
Zəngilan (Ağalı k.),"Zəngilan rayonu, Ağalı kəndi",39.17919052219719,46.760592871258176,atm
OBA market (Zərdab),"Zərdab şəh., H.Əliyev pr. 4 yol ərazisi (Oba market)",40.22839913427785,47.70688333090458,atm
"""Sonti"" market (Zərdab)","Zərdab, Samir Abdullayev küçəsi 27 (""Sonti"" market)",40.211953133379446,47.70898468248254,atm
Zərdab 3 yol ayrıcı,"Zərdab, Ağcabədi və Ağdaş avtomobil yolunun 3 yol ayrıcı",40.22375438793309,47.576661530982406,atm
Aşağı Seyidlər kəndi,Zərdab rayonu Seyidlər kəndi,40.12119543824745,47.86790454379405,atm
Abşeron filialı (İzmir küçəsi),"Bakı, Yasamal rayonu, İzmir küçəsi, məhəllə 1033",40.388302,49.82439,branch
ASAN 5 filialı,"Bakı, Nizami rayonu, Heydər Əliyev prospekti 115",40.41774427731688,49.90836859799611,branch
Azəriqaz filialı,"Bakı şəhəri, Yusif Səfərov küçəsi 23",40.3807175,49.8634624,branch
Binəqədi filialı,"Bakı şəhəri, Binəqədi rayonu, S.S. Axundov küç. 42 (“Azadlıq prospekti” metrostansiyasının çıxışı)",40.425592,49.842635,branch
Əcəmi filialı,"Bakı, Nəsimi rayonu, M. Cəfərov küçəsi 28",40.407242,49.811661,branch
Əhmədli filialı,"Bakı şəhəri, Xətai rayonu, Məhəmməd Hadi küçəsi 155",40.384804,49.954494,branch
KOBİA filialı,"Bakı, Akademik Ziya Bünyadov prospekti 38C, 1969-cu məhəllə (Bakı KOB Evi)",40.4129563,49.853611,branch
Mərkəzi filialı,"Bakı şəh, Səbail rayonu, Sahil m. st. yaxınlığı, H.Z.Tağıyev küçəsi 3",40.369698,49.839626,branch
Müştəri xidməti departamenti,"Bakı, Bankın Baş ofisi, Nizami küçəsi 67",40.372036,49.836678,branch
Nərimanov filialı,"Bakı şəhəri, Nərimanov rayonu, Ağa Neymətulla küçəsi 42",40.402200,49.873241,branch
Nəsimi filialı,"Bakı, 28 may küç. 21A",40.377341,49.849451,branch
Nizami filialı,"Bakı, Q.Qarayev, A.Manafov, T.Abbasov və Ə.Hacıyev küçələrinin kəsişməsi, məh. 2453 (Qara Qarayev m/st, 50 saylı dövlət notariat kontorunun yanı)",40.419455,49.933968,branch
Qaradağ filialı,"Bakı şəh., Neftçi Qurban Abbasov küçəsi 29",40.3488352,49.8360056,branch
Sabunçu filialı,"Bakı şəh., Bakıxanov qəs.,S.Mehmandarov küç. 26",40.424931,49.959164,branch
Sənaye filialı,"Bakı şəhəri,  Babək prospekti 1145-ci məhəllə",40.389328,49.882416,branch
Şərifzadə filialı,"Bakı, Yasamal rayonu, A. M. Şərifzadə küçəsi 217/73, Bakı Tibb kollecinin yaxınlığı",40.397069,49.801439,branch
Suraxanı filialı,"Bakı şəhəri, Suraxanı rayonu, Əmircan qəsəbəsi, İ.Məmmədov küçəsi 3",40.430256,49.986922,branch
Yasamal filialı,"Bakı, Yasamal rayonu, İnşaatçılar pr. (Dövlət Gömrük Komitəsinin yanı)",40.37400208633886,49.819266096084036,branch
3 saylı Sumqayıt filialı,"Sumqayıt şəhəri, Heydər Əliyev prospekti 509",40.580589,49.681780,branch
Ağcabədi filialı,"Ağcabədi şəhəri, Üzeyir Hacıbəyli prospekti 185A",40.051826247641216,47.444376604761956,branch
Ağdaş filialı,"Ağdaş, H.Əliyev prospekti 96",40.644077,47.475788,branch
Ağstafa filialı,"Ağstafa şəhəri, Heydər Əliyev küçəsi 47B",41.111888,45.440918,branch
Ağsu filialı,"Ağsu şəhəri, Ü. Hacıbəyov küç. 29A",40.567467,48.402222,branch
Balakən filialı,"Balakən şəhəri, Heydər Əliyev prospekti 254 B",41.719612,46.415669,branch
Bərdə filialı,"Bərdə, Üzeyir Hacıbəyov küçəsi",40.372044,47.126541,branch
Biləsuvar filialı,"Biləsuvar, H.Əliyev prospekti 45",39.455777,48.545321,branch
Cəlilabad filialı,"Cəlilabad şəhəri, Azərbaycan küçəsi 103",39.2122248,48.504708,branch
Daşkəsən filialı,"Daşkəsən, H.Əliyev küç. 38",40.524254,46.080952,branch
Gədəbəy filialı,"Gədəbəy şəhəri, Heydər Əliyev prospekti 2A",40.525566,45.812313,branch
Gəncə filialı,"Gəncə, Heydər Əliyev prospekti 696",40.675659,46.358486,branch
Gəncə Mərkəz filialı,"Gəncə, Nizami rayonu, Atatürk prospekti 242B",40.680520,46.358100,branch
Gənclik filialı,"Nərimanov rayonu, Gənclik mst. yaxınlığı, Akademik H.Əliyev 94",40.403295,49.854145,branch
Goranboy filialı,"Goranboy, H.Əliyev küç. 21",40.605344,46.785962,branch
Göyçay filialı,"Göyçay, Heydər Əliyev prospekti 38",40.649455,47.748114,branch
Göygöl filialı,"Göygöl şəhəri, Heydər Əliyev prospekti 89A",40.5884722,46.3177778,branch
Hacıqabul filialı,"Hacıqabul, İsmət Qayıbov küçəsi",40.031333,48.935333,branch
Hava limanı filialı,Heydər Əliyev adına Beynəlxalq Hava Limanı,40.465714,50.052151,branch
İmişli filialı,"İmişli, 20 Yanvar küçəsi 17",39.844395,47.986908,branch
İsmayıllı filialı,"İsmayıllı, M,F. Axundov küçəsi 16a",40.787579,48.146694,branch
Kürdəmir filialı,"Kürdəmir, H.Əliyev prospekti 14",40.343666,48.157539,branch
Lənkəran filialı,"Lənkəran şəhəri, Ş.Axundov küçəsi 16",38.753909,48.855414,branch
Masallı filialı,"Masallı şəhəri, Heydər Əliyev prospekti 34",39.035248,48.668652,branch
Mərdəkan filialı,"Mərdəkan qəs., Yesenin 8a",40.487396,50.161011,branch
Mingəçevir filialı,"Mingəçevir şəhəri, Heydər Əliyev prospekti 96a",40.76657397925422,47.058333177765526,branch
Naxçıvan filialı,"Naxçıvan şəhəri, H.Əliyev prospekti 13A",39.21255,45.40795,branch
Oğuz filialı,"Oğuz, H.Əliyev küçəsi 98",41.075140,47.466616,branch
Pirallahı filialı,"Pirallahı rayonu, S. Murtuzəliyev küçəsi",40.455276,50.337276,branch
Qax filialı,"Qax şəhəri, H.Əliyev prosp. 52D",41.419292,46.921598,branch
Qazax filialı,"Qazax, H.Əliyev prospekti 75",41.089900,45.3589100,branch
Qəbələ filialı,"Qəbələ, İ.Qutqaşınlı küç. 58",40.977936,47.846554,branch
Quba filialı,"Quba, H. Əliyev pr. 219A",41.363458,48.522153,branch
Saatlı filialı,"Saatlı, H.Əliyev prospekti 178",39.937862321630135,48.36398497221913,branch
Şabran filialı,"Şabran, H.Əliyev küçəsi 101",41.212433,48.986492,branch
Salyan filialı,"Salyan ş., H.Əliyev küçəsi 103",39.605377,48.985332,branch
Şamaxı filialı,"Şamaxı, H.Əliyev küçəsi 51",40.63248586370292,48.63315617164039,branch
Samux filialı,"Samux rayonu, H.Əliyev 134",40.757492,46.399326,branch
Səbail filialı,"Səbail rayonu, Lev Tolstoy k-si 191",40.3740776,49.84202332,branch
Şəki filialı,"Şəki, H.Əliyev prospekti 61A",41.205125,47.177632,branch
Şəmkir filialı,"Şəmkir, S.Vurğun küçəsi 131",40.830095,46.020204,branch
Şirvan filialı,"Şirvan şəh., M. Rəsulzadə küç. 11 (Azərpoçtun yanı)",39.934551,48.917912,branch
Siyəzən filialı,"Siyəzən şəhəri, Babək küçəsi",41.075969,49.113477,branch
Sumqayıt filialı,"Sumqayıt şəhəri, Səməd Vurğun küçəsi 112/14",40.593892,49.678295,branch
Tərtər filialı,"Tərtər, E.Hüseynov küçəsi 3",40.339886,46.932442,branch
Tovuz filialı,"Tovuz, Sabir küçəsi 13",40.992667,45.616973,branch
Ucar filialı,"Ucar, Oğuz küç. 44",40.509697,47.65937,branch
Xaçmaz filialı,"Xaçmaz, N.Nərimanov prospekti 50A",41.471161,48.809338,branch
Xankəndi filialı,Xankəndi şəhəri,39.81634804205688,46.75202130372225,branch
Xətai filialı,"Xətai rayonu, 8 Noyabr pr.23, AMAY Ticarət Mərkəzi",40.37918,49.87869,branch
Xırdalan filialı,"Abşeron rayonu, Xırdalan şəhəri, M.Ə.Rəsulzadə küçəsi 3",40.4486008,49.7500943,branch
Yeni Sumqayıt filialı,"Sumqayıt şəhəri, 13-cü mikrorayon, Üzeyir Hacıbəyov küçəsi",40.570368,49.690033,branch
Yevlax filialı,"Yevlax, H.Əliyev prospekti 27",40.613266,47.14846,branch
Zaqatala filialı,"Zaqatala, Vidadi küçəsi 28a",41.6288793,46.6413267,branch
Zərdab filialı,"Zərdab, Azərbaycan küçəsi, 56",40.2183625883016,47.70675685132114,branch
ABB-nin Qax filialı,"Qax ş., İ.Mustafayev küç. 33 (ABB-nin Qax filialı)",41.43002805615341,46.958456888706884,cashin
ABB-nin Ağdaş filialı 24/7 sahə - 1,"Ağdaş, H.Əliyev prospekti, 96 (ABB-nin Ağdaş filialı 24/7 sahə)",40.64464509611075,47.47541481995137,cashin
ABB-nin Ağdaş filialı 24/7 sahə - 2,"Ağdaş, H.Əliyev prospekti, 96 (ABB-nin Ağdaş filialı 24/7 sahə)",40.64464509611075,47.47541481995137,cashin
ABB-nin Göygöl filialı,"Göygöl, H.Əliyev prospekti 54 (ABB Göygöl filialı)",40.58848930299931,46.31781200496325,cashin
ABB-nin Şirvan filialı 24/7 sahə,"Şirvan şəh., M.Ə.Rəsulzadə küç. 11 (ABB Şirvan filialı 24/7 sahə)",39.954087203639475,48.94529953145344,cashin
ABB-nin Hacıqabul filialı,"Hacıqabul şəhəri, İsmət Qayıbov küç. 32",40.031326,48.935543,cashin
ABB-nin Qazax filialı - 2,"Qazax r., Sabir küçəsi 75 (ABB Qazax filialı)",41.089988,45.358857,cashin
ABB Qəbələ filialı-2,"Qəbələ , Qəbələ, İ.Qutqaşınlı küçəsi, 37",40.981172,47.848992,cashin
Araz market - Buzovna,"Bakı, Xəzər rayonu, Buzovna qəs., Maştağa yolu (Araz market)",40.42544705254884,49.99476587212442,cashin
Araz market (Köhnə Günəşli),"Suraxanı r. Köhnə Günəşli qəs. İlqar Musayev küç., 56 D (24/7  ""ARAZ"" m.)",40.385005,49.971756,cashin
Araz market (Hövsan),Bakı şəhəri Suraxanı rayonu Hövsan ŞTQ E. Məmmədov ev. 5K,40.360714,50.079949,cashin
ABB Suraxanı filialı 24/7 - 1,"Bakı, Suraxanı rayonu, Əmircan qəsəbəsi, İ.Məmmədov küçəsi 3 (ABB Suraxanı filialı 24/7)",40.43012600743132,49.98685000312504,cashin
ABB Suraxanı filialı 24/7 - 2,"Bakı, Suraxanı rayonu, Əmircan qəsəbəsi, İ.Məmmədov küçəsi 3 (ABB Suraxanı filialı 24/7)",40.43012600743132,49.98685000312504,cashin
ABB-nin İsmayıllı filialı  - 2,"İsmayıllı , Cavanşir küçəsi 21A (ABB İsmayıllı filialı)",40.785185755946756,48.148832691677796,cashin
ABB-nin Quba filialı - 1,"Quba r-nu, H.Əliyev prospekti, 219A (ABB Quba filialı)",41.362896864278156,48.52212912027352,cashin
ABB-nin Quba filialı - 2,"Quba r-nu, H.Əliyev prospekti, 219A (ABB Quba filialı)",41.362896864278156,48.52212912027352,cashin
Sabiarbad ASAN xidmət,"Sabirabad, H.Əliyev Prospekti 128, ASAN xidmət, inzibati bina",40.017367,48.476843,cashin
Laçın - Mərkəz,Laçın şəhəri mərkəzi küçəsi (polis idarəsinin yanı),39.638275,46.552526,cashin
Bazarstore (Masazır),"Abşeron r-nu, Masazır kəndi (Bazarstore Masazır)",40.495197,49.759883,cashin
Bravo (Masazır),"Abşeron, Masazır qəsəbəsi, istiqlaliyyat küçəsi (Bravo Masazır)",40.490859057376916,49.75487170906055,cashin
Araz market (Masazır),"Abşeron ray., Masazır qəs., Nəsib bəy Yusifbəyli küç. 16a/2",40.478819,49.753169,cashin
ABB-nin Tovuz filialı,"Tovuz, M.Ə.Sabir küçəsi 49 (ABB Tovuz filialı)",40.99266228364854,45.617062286730686,cashin
Tovuz - ASAN Xidmət,"Tovuz rayonu, Bozalqanlı kənd ərazisi, Heydər Əliyev prospekti,  ASAN Xidmət Mərkəzi",40.9981450,45.657059,cashin
ABB-nin Şabran filialı,"Şabran, H.Əliyev pr. 101 (ABB-nin Şabran filialı)",41.2115994,48.998091,cashin
Şabran yaradıcılıq-istirahət kompleksi,Şabran r/n. Pirəbədil kəndi (Şabran yaradıcılıq-istirahət kompleksi),41.207591,48.801868,cashin
Bolmart (Ağcabədi),Ağcabədi (Bolmart),40.03171872968408,47.45169725321251,cashin
ABB-nin Ucar filialı - 2,"Ucar, Oğuz k. 44 (ABB Ucar filialı)",40.505089324416296,47.658295254137954,cashin
Qala Xiyabani (Lənkəran),"Lənkəran ş., Qala Xiyabani küç.",38.75796435845418,48.85431794806813,cashin
ABB - Masallı filialı,"Masallı şəh, Heydər Əliyev prospekti 34 (ABB Masallı filialı)",39.035048,48.669059,cashin
ABB-nin Xaçmaz filialı - 1,"Xaçmaz, N-Nərimanov küç- 50 A (ABB Xaçmaz filialı)",41.457071638868086,48.794027349410825,cashin
ABB-nin Xaçmaz filialı - 2,"Xaçmaz, N-Nərimanov küç- 50 A (ABB Xaçmaz filialı)",41.457071638868086,48.794027349410825,cashin
ABB-nin Xankəndi filialı,Xankəndi şəhəri (ABB Xankəndi filialı),39.8163286210201,46.752053354036015,cashin
ABB-nin Mingəçevir filialı - 1,"Mingəçevir r., Heydər Əliyev pr.96 (ABB Mingəçevir filialı)",40.762245,47.067538,cashin
ABB-nin Mingəçevir filialı - 2,"Mingəçevir r., Heydər Əliyev pr.96 (ABB Mingəçevir filialı)",40.762245,47.067538,cashin
ABB-nin Ağstafa filialı,"Ağstafa, Ağstafa , H.Əliyev küçəsi 50A (ABB Ağstafa filialı)",41.112116,45.440646,cashin
Bravo (Bakıxanov 7/24),"Bakı ş. Sabunçui r., Bakıxanov qəs. Ramiz Qəmbərov küç.2566-cı məhəllə, (Bravo bakıxanov - Razin SS) (Road to Bakixanov)",40.412404,49.954474,cashin
Bolmart (Bakıxanov),"Bakı ş. Sabunçu r., Bakıxanov qəs.  Muxtar Fətəliyev k. 1001 (Megastore)",40.41846821963565,49.96585292301883,cashin
ABB-nin Sabunçu filialı,"Bakı, Sabunçu rayonu, Bakıxanov qəsəbəsi, Mehmandarov küç.26 ( Sabunçu filialı )",40.424814,49.959092,cashin
ABB-nin Sabunçu filialı,"Bakı, Sabunçu rayonu, Bakıxanov qəsəbəsi, Mehmandarov küç.26 (ABB Sabunçu filialı)",40.424814,49.959092,cashin
Bolmart (Zabrat),"Bakı ş. Sabunçu r., Zabrat qəs. Zabrat şosesi 112 (Bolmart Zabrat)",40.446807,49.934971,cashin
ABB Sabunçu filialı,"Bakı, Sabunçu rayonu, Bakıxanov qəsəbəsi, Mehmandarov küç.26 (ABB Sabunçu filialı)",40.424814,49.959092,cashin
Madeyra mebel (Zabrat),"Bakı, Sabunçu rayonu, Zabrat 1, Babək  (Madeyra mebel)",40.472677,49.947573,cashin
Socar YDM (Sabunçu dairəsi),"Bakı, Sabunçu rayonu, Sabunçu dairəsi (Socar YDM)",40.436312,49.930275,cashin
Socar (Sabunçu dairəsi),"Bakı, Sabunçu rayonu, Sabunçu dairəsi (Socar YDM)",40.439081,49.939152,cashin
Bakıxanov - ASAN 4,"Bakı, Sabunçu r-nu, Bakıxanov qəs., Sülh küç., 8a (ASAN 4)",40.42101975299624,49.969111063659135,cashin
ABB-nin Ağsu filialı,"Ağsu, Azərbaycan küçəsi ( Ağsu şöbəsi)",40.567539,48.399806,cashin
Naxçıvan Olimpiya mərkəzi,"Naxçıvan, Əziz Əliyev ilə İstiqlaliyyat küçələrinin kəsişməsi (Naxçıvan Olimpiya mərkəzi)",39.22071925365035,45.41228232087287,cashin
"""Cahan"" T/M Naxçıvan","Naxçıvan, Əziz Əliyev küçəsi, ""Cahan"" Ticarət Mərkəzi",39.205957,45.424426,cashin
Mərkəzi poçt (Naxçıvan),"Naxçıvan, Nizami küçəsi,34 (Mərkəzi poçt)",39.21244829659379,45.406518085929584,cashin
BANU (Naxçıvan),"Naxçıvan şəh., Cahan gənclər şəhərciyi, BANU 1 market",39.19482854418544,45.42999469590923,cashin
Saat meydan (Naxçıvan),"Naxçıvan şəh., C.Məmmədquluzadə (Saat meydan Grand hotel)",39.19885164397089,45.416940881770394,cashin
"""Tebriz"" mehmanxanası (Naxçıvan)","Naxçıvan şəhəri, (Tebriz mehmanxanası)",39.210344,45.409007,cashin
Hava limanı,"Naxçıvan, Beynəlxalq Hava limanı",39.191190,45.447486,cashin
ABB-nin Naxçıvan filialı - 1,"Naxçıvan ş., H.Əliyev prospekti, ev 13A (ABB Naxçıvan filialı)",39.21261274583827,45.4079758807977,cashin
ABB-nin Naxçıvan filialı - 2,"Naxçıvan ş., H.Əliyev prospekti, ev 13A (ABB Naxçıvan filialı)",39.21261274583827,45.4079758807977,cashin
Naxçıvan - ASAN,"Naxçıvan şəhəri, Seyid Cəfər Pişəvəri 7",39.22111263375236,45.40476702853944,cashin
Bazarstore (Xətai),"Bakı, Xətai rayonu, Babək prospekti 1129 məhəllə",40.387924,49.866940,cashin
ABB-nin Xətai fililalı,"Bakı şəhəri, Xətai r-nu, Nobel pr. 23, Xətai filialının yeni binası ( ASAN-2 xidmətinin yanı )",40.3791493,49.8786948,cashin
Megastore (Əhmədli),"Xətai r., Əhmədli qəs., R.Məmmədov küç., Ukrayna dairəsi, ""Megastore""",40.372913,49.944703,cashin
Azəriqaz QSC - Y.Səfərov k.,"Bakı, Xətai rayonu, Yusif Səfərov küçəsi 23 (""Azəriqaz"" QSC)",40.3848192,49.863234,cashin
Bravo (Əhmədli),"Bakı ş. Xətai r., Ramiz Quliyev küç., 4 (Bravo Əhmədli - Radiofactory)",40.374662,49.944575,cashin
Bravo (Babək prospekti),"Bakı ş. Xətai ray., N.Rəfiyev küç. 29 (Bravo Babək)",40.387791,49.873824,cashin
ABB-nin Sənaye filialı,"Bakı, Xətai r-nu, Babək prospekti 1145 məhəllə (ABB Sənaye filialı)",40.388477,49.877889,cashin
Bravo Azure,"Bakı, Xətai, Afiyəddin Cəlilov küçəsi 69B (Bravo Azure)",40.378991784669445,49.87547653319742,cashin
H.Aslanov M. çıxışı,Xətai r. Məhəmməd Hadi küç. (H.Aslanov m. çıxışı),40.370930,49.953829,cashin
Rahat market (Sərhədçi),Xətai r. Babək pr. ev 90 E2317-ci m.,40.394847,49.958643,cashin
Araz market (Xəzər dairəsi),"Xətai r., Gəncə pr. 41",40.363397,49.960477,cashin
Bizim market (Sarayev),"Bakı, Xətai rayonu, Sarayev küçəsi 8C (Bizim market)",40.386636,49.964723,cashin
Socar YDM (Zığ),"Bakı, Xətai rayonu, Zığ şos. Gənclik parkı (Socar YDM)",40.355464,49.953263,cashin
Socar YDM N14 (Babək pr.),Babək pr. yolun sol tərəfi O.Vəliyev (Socar petrolium N14),40.392745,49.914431,cashin
Bazarstore (Nargilə dairəsi),"Bakı, Xətai rayonu, 8 Noyabr Prospekti (Bazarstore Nargilə dairəsi)",40.36808282056749,49.93875399331564,cashin
ASAN xidmət - Amay,"Bakı şəhəri, Xətai rayonu Nobel pr. 23 (ASAN xidmət - Amay)",40.379213,49.879039,cashin
ASAN 5,"Bakı, Nizami r-nu,  H.Əliyev prospekti 115 (ASAN 5)",40.417581,49.908305,cashin
Oba market (P.Həşimov küç.),"Baki, Xatai rayonu, Polad Həşimov küçəsi (Oba market)",40.34260236400333,49.96914311431556,cashin
Mərkəzi Neftçilər Xəstəxanası,"Bakı, Xətai rayonu, Yusif Səfərov küçəsi 17 (Mərkəzi Neftçilər Xəstəxanası)",40.380932,49.863842,cashin
ASAN-6 - Heydər Əliyev parkının yaxınlığı,"Bakı şəhəri, Xətai rayonu, V.Tau küçəsi, (ASAN-6, Heydər Əliyev parkının yaxınlığı)",40.378209,49.955839,cashin
Neptun supermarket (Ağ şəhər ),"Bakı, Xətai rayonu, Mərkəzi bulvar küçəsi (Ağ şəhər Neptun supermarket)",40.383320570901375,49.890207214942464,cashin
ABB-nin Salyan filialı,"Salyan şəhəri, H.Əliyev prospekti, 103, (ABB Salyan filialı)",39.597176,48.9853172,cashin
KOB evi (Bünyadov pr.),"Baki, Nərimanov, Ziya Bünyadov pospekti ilə Aşıq Molla cümə küçəsinin kəsişməsi  (KOB EVİ)",40.412773,49.853899,cashin
ABB-nin Gənclik filialı,"Bakı, Nərimanov r. Akademik H.Əliyev 94 (Gənclik filialı)",40.403239,49.854116,cashin
Hyundai (Dərnəgül yolu),"Bakı ş., Nərimanov r. Ziya Bünyadov 118 (Dərnəgül yolu) (Hyundai)",40.428001,49.897939,cashin
Bazarstore (Azadlıq pros.),"Nərimanov rayonu, Azadlıq pr. Yusif Vəzir Çəmənzəminli 23",40.402387,49.835848,cashin
Tam store (Nərimanov),"Nərimanov ray., Həsənoğlu küç. - Tam store (H.Əliyev mərkəzin yaxınlığında)",40.39725330793839,49.86978217722192,cashin
Grandmart (Nərimanov),"Bakı ş. Nərimanov rayonu, Gülarə Qədirbəyova küç., 9 (Grandmart)",40.393887,49.862502,cashin
Bazarstore (Gənclik),"Bakı, Nərimanov rayonu, F.X. Xoyski prospekti, 830",40.399636,49.850539,cashin
Araz market (Qarabağ küç.),Nərimanov r. Garabağ küç. İlə Təbriz küç. Kəsişmə,40.389171583025764,49.85744185513864,cashin
Bazarstore (Ayna Sultanova),"Bakı ş. Nərimanov r-nu, Ziya Bünyadov  48/54 (Bazarstore Ayna Sultanova)",40.412492,49.845384,cashin
Araz market (Əhməd Rəcəbli),"Bakı, Əhməd Rəcəbli 27, Nərimanov, (Araz market)",40.411042,49.861069,cashin
ABB-nin Gənclik filialı,"Bakı, Nərimanov r. Akademik H.Əliyev 94 (Gənclik filialı)",40.403353,49.854161,cashin
Bolmart  (Nərimanov),"Bakı, Nərimanov r-nu, Aşıq Molla Cümə 46G (Bolmart)",40.411036,49.857585,cashin
ABB-nin Nərimanov filialı,"Bakı şəhəri, Ağa Neymətulla küçəsi 42 (ABB Nərimanov filialı)",40.402200,49.873241,cashin
ABB-nin Nərimanov filialı,"Bakı şəhəri, Ağa Neymətulla küçəsi 42 (ABB Nərimanov filialı)",40.402200,49.873241,cashin
Gənclik Mall,"Bakı, Nərimanov ray., Fətəli xan Xoyski 14 (Gənclik mall)",40.400268,49.852213,cashin
ASAN 1 (Akademik H. Əliyev 36),"Bakı şəhəri, Nərimanov rayonu, akademik H.Əliyev küç. 36  (ASAN 1)",40.3990627,49.8350717,cashin
Respublika Uşaq Stomatoloji mərkəzi - 1,"Bakı, Nərimanov rayonu, Təbriz küçəsi 102 (Respublika Uşaq Stomatoloji mərkəzi)",40.402058,49.869731,cashin
Respublika Uşaq Stomatoloji mərkəzi - 2,"Bakı, Nərimanov rayonu, Təbriz küçəsi 102 (Respublika Uşaq Stomatoloji mərkəzi)",40.402058,49.869731,cashin
Respublika Uşaq Stomatoloji mərkəzi - 3,"Bakı, Nərimanov rayonu, Təbriz küçəsi 102 (Respublika Uşaq Stomatoloji mərkəzi)",40.402058,49.869731,cashin
ABB-nin Bərdə filialı,"Bərdə,Üzeyir Hacıbəyov  küç, (ABB-nin Bərdə filialı)",40.374042,47.123039,cashin
Bərdə ASAN xidmət,"Bərdə rayonu, Heydər Əliyev prospekti 100",40.394167,47.124167,cashin
ABB-nin Şamaxı filialı,"Şamaxı, H.Əliyev 51 (ABB Şamaxı filialı)",40.632682,48.633041,cashin
Şamaxı - ASAN xidmət,"Şamaxı r., Şamaxı-Yevlax şossesi (ASAN xidmət)",40.613752,48.665060,cashin
ABB-nin Biləsuvar filialı,"Biləsuvar, Biləsuvar , H.Əliyev prospekti 45 (ABB-nin  Biləsuvar filialı)",39.4557586,48.5452351,cashin
ABB-nin Samux filialı - 2,"Samux , Nəbiagalı qəsəbəsi, H.Əliyev prospekti, 134 (ABB Samux filialı)",40.76619506836712,46.40602189588147,cashin
Kitab evi-3,"Bakı, Səbail rayonu, Nigar Rəfibəyli küçəsi 29 (Kitab evi)",40.371540,49.8366995,cashin
ABB-nin Qaradağ filialı,Səbail Q.Abbasov küşəsi 29 (Azərbaycan Beynəlxalq Bankı - Qaradağ filialı),40.348750,49.835861,cashin
Kitab evi-4,"Bakı, Səbail rayonu, Nigar Rəfibəyli küçəsi 29 (Kitab evi)",40.371540,49.8366995,cashin
Kitab evi-5,"Bakı, Səbail rayonu, Nigar Rəfibəyli küçəsi 29 (Kitab evi)",40.371540,49.8366995,cashin
İçərişəhər metro st.,Səbail r. İstiqlaliyyət küç. İçərişəhər metro st.,40.366028,49.831822,cashin
Araz market (Badamdar),Səbail r. Badamdar qəs. T. Məmmədov küç. 3,40.338415,49.807376,cashin
"Bravo (Bayıl, 20ci sahə)","Bakı ş. Səbail rayonu, Şahlar Allahverdiyev küçəsi 6B (Bravo Bayıl 20 Sahə)",40.329151,49.818423,cashin
Az. Kinematoqraflar birliyi,"Bakı, Səbail rayonu, Bülbül prospekti 18 (Az. Kinematoqraflar birliyi)",40.374854,49.843493,cashin
Azərbaycan Milli kitabxanası,"Bakı, Səbail rayonu, Xəqani küçəsi 29 (M.F.Axundov adına Azərbaycan Milli kitabxanası)",40.374048,49.846533,cashin
Bazarstore (Bayıl),"Səbail r., Badamdar qəsəbəsi 1-ci yaşayış massivi 1 (Bazarstore bayıl)",40.342512,49.839394,cashin
ABB-nin Səbail filialı-1,"Bakı, Səbail rayonu, L.Tolstoy 191 (ABB-nin Səbail filialı)",40.374027,49.842046,cashin
ABB-nin Səbail filialı-2,"Bakı, Səbail rayonu, L.Tolstoy 191 (ABB-nin Səbail filialı)",40.374027,49.842046,cashin
Dəniz Mall,"Səbail r., Neftçilər pr. 26a (Dəniz Mall)",40.358210,49.836562,cashin
Bravo SabahWalk,"Bakı şəhəri, Səbail rayonu, Xanlar küç. (Bravo SabahWalk)",40.35106235643215,49.83270188361338,cashin
Park Bulvar yeraltı dayanacaq,"Bakı, Səbail rayonu, Neftçilər pr. (""Park Bulvar "" yeraltı dayanacaq)",40.370972,49.849891,cashin
Bazarstore (İçərişəhər),"Bakı, Səbail rayonu, Nizami ilə Rostropoviç kəsişməsi (Bazarstore)",40.369065726869565,49.82765619608971,cashin
ABB Mərkəzi filialı,"Bakı, Səbail ray.,  H.Z.Tağıyev küç. 3 (ABB Mərkəzi filial)",40.368678,49.840181,cashin
Əqli Mülkiyyət agentliyi,"Bakı ş., Nəsimi r. Mərdanov Qardaşları 1424 (Əqli mülkiyyət)",40.399068,49.830821,cashin
ABB-nin Nəsimi filialı,"Bakı, Nəsimi rayonu, 28 may küç. 21A  (ABB-nin Nəsimi filialı)",40.3773331,49.8496991,cashin
ASAN Kommunal,"Nəsimi r., Cəfər Cabbarlı, 235 Dilarə Əliyeva Küçəsi (ASAN kommunal)",40.380264,49.849622,cashin
Bravo (20 Yanvar),"Bakı ş. Nəsimi r., Tbilisi prospekti, 3007-ci məhəllə (Bravo 20 Yanvar)",40.401478,49.810843,cashin
Araz market (20 Yanvar),"Nəsimi r. Tbilisi pr. Alatava, ev 2 ""Araz""market",40.398077,49.813835,cashin
Neptun market (Əcəmi),Nəsimi r. C. Məmmədquluzadə 939 (Neptun Əcəmi),40.395064,49.828103,cashin
Bazarstore (Yeni Yasamal),"Yasamal r., Əsəd Əhmədov küç., 24B (""Bazarstore)",40.393696,49.794576,cashin
Bolmart (Göy Məscid),"Nəsimi r-nu, Səməd Vurğun küç., 75 B (Bol Mart Sirk ilə üz-bə-üz)",40.383959,49.837863,cashin
Oba market (Rəşid Behbudov küç.),Nəsimi r. Rəşid Behbudov küç. OBA market,40.38099925409084,49.84448618926151,cashin
Araz market (ABŞ səfirliyi),Nəsimi r. Azadlıq pr. Eldar Tağızadə küç. (ABŞ səfirliyi yanı),40.38508766296593,49.844492075089924,cashin
Neptun supermarket (28 m/s),"Bakı, Nəsimi rayonu, Şəmsi Bədəlbəyli ilə Süleyman Rüstəm küçələrin kəsişməsi (Neptun Supermarket)",40.37814582801456,49.846201001139846,cashin
Azərbaycan Tibb Universiteti,"Bakı, Nəsimi rayonu, Mərdanov küçəsi 96 (Azərbaycan Tibb Akademiyası)",40.394587,49.834014,cashin
ABB - Baş idarə,"Bakı, Nəsimi rayonu, Nizami küçəsi 67 (ABB, Baş İdarə)",40.372273,49.836737,cashin
Tam store - Yaşam residens,"Bakı, Nəsimi rayon, Cavadxan küçəsi (Tam store - Yaşam residens)",40.41179607841979,49.812358004930594,cashin
ABB-nin Nəsimi filialı,"Bakı, Nəsimi rayonu, 28 may küç. 21A  (ABB-nin Nəsimi filialı)",40.3773331,49.8496991,cashin
Beko mağazası (28 may),Bakı Nəsimi rayonu 28 may küçəsi 72 (Beko mağazası),40.379162,49.857386,cashin
ABB-nin Əcəmi filialı,"Bakı ş., Nəsimi rayonu, Məmmədcəfər Cəfərov 28 (ABB Əcəmi filialı)",40.407115,49.811858,cashin
ABB-nin Əcəmi filialı,"Bakı ş., Nəsimi rayonu, Məmmədcəfər Cəfərov 28 (ABB Əcəmi filialı)",40.407115,49.811858,cashin
ABB Yeni Bina - MXD,"Bakı, Səbail rayonu, Nizami küçəsi 67 (ABB, yeni inzibati bina)",40.371973,49.836047,cashin
28 Mall  Ticarət mərkəzi - 1,"Bakı şəhəri, Azadlıq prospekti ilə Füzuli küçəsinin kəsişməsi, ""28 Mall""  Ticarət mərkəzi",40.379126,49.846945,cashin
Port Baku - supermarket,"Bakı şəhəri, Nəsimi r-nu, Neftçilər pr. 153 (Port Baku - supermarket - (A00-05))",40.375555,49.859117,cashin
ABB-nin Nəsimi filialı - 1,"Bakı, Nəsimi rayonu, 28 may küç. 21A (ABB-nin Nəsimi filialı)",40.377333,49.849699,cashin
ABB-nin Nəsimi filialı - 2,"Bakı, Nəsimi rayonu, 28 may küç. 21A (ABB-nin Nəsimi filialı)",40.377333,49.849699,cashin
ABB-nin Landmark şöbəsi,"Bakı ş .Nəsimi r., Nizami küçəsi 90a (Landmark ABB şöbəsi)",40.37590642840482,49.85106933088325,cashin
28 Mall  Ticarət mərkəzi - 2,"Bakı şəhəri, Azadlıq prospekti ilə Füzuli küçəsinin kəsişməsi, ""28 Mall""  Ticarət mərkəzi",40.379039,49.846813,cashin
Nəsimi rayonu İcra Hakimiyyəti,"Bakı, Nəsimi rayonu, S.Vurğun küçəsi 112 (Bakı şəhəri Nəsimi rayonu İcra Hakimiyyəti)",40.393859446737,49.835175517010924,cashin
ABB Baş İdarə (köhnə inzibati bina),"Bakı, Nəsimi rayonu, Nizami küçəsi, 67 (ABB Baş İdarə (köhnə inzibati bina))",40.372273,49.836737,cashin
Araz market (7-ci MKR Ankara REC),Binəqədi r. 7 mkr Araz m.,40.428844,49.852414,cashin
Bakı Beynəlxalq Avtovağzal Kompleksi,"Bakı şəhəri, Moskva prospekti",40.418533,49.797843,cashin
Bravo (Dərnəgül şossesi 7/24 ),"Bakı ş., Binəqədi rayonu, Şövkət Məmmədova küçəsi 2 (Bravo OAZİS)",40.419644,49.846714,cashin
ABB-nin Binəqədi filialı,"Bakı, Binəqədi r., S.S. Axundov 42 (ABB Binəqədi filialı 2)",40.425370,49.842855,cashin
Neptun Hipermarket,"Bakı, Xırdalan - Binəqədi şosesi, Respublika Dövlət Yol Polisi idarəsinin yanı. (Neptun Hipermarket)",40.447821,49.777402,cashin
Baku Steel company,"Bakı şəhəri, Dərnəgül şossesi, Mir-Cəlal küç. 15 (Baku Steel company)",40.429386,49.887397,cashin
AzərTAC İnformasiya agentliyi,"Bakı ş, Binəqədi rayonu, Ağasadıx Gəraybəyli k. 63 (AzərTAC Azərbaycan dövlət informasiya agentliyi)",40.418589,49.847733,cashin
ABB Binəqədi filialı - 2,"Bakı, Binəqədi r., S.S. Axundov 42 (ABB Binəqədi filialı 2)",40.425370,49.842855,cashin
Oba market (Biləcəri),"Bakı, Binəqədi rayonu, Biləcəri qəsəbəsi (Oba market)",40.422045,49.798869,cashin
Tam store (Biləcəri),"Bakı, Binəqədi rayonu, Biləcəri qəsəbəsi, Teymur Yaqubov küçəsi (Tam store)",40.4410125182917,49.8082949899416,cashin
H.Əliyev adına Beynəlxalq Hava Limanı,"Bakı şəhəri, Xəzər r-nu, Binə qəs., H. Əliyev adına Beynəlxalq Hava Limanı",40.4648083,50.0516789,cashin
Bravo supermarket (Şüvələn),"Bakı, Xəzər rayonu, Şüvələn qəsəbəsi, Əliheydər Qarayev küçəsi (Bravo supermarket Şüvələn)",40.48622087765167,50.16677931047352,cashin
ABB-nin Mərdəkan filialı,"Bakı, Xəzər rayonu , Mərdəkan qəsəbəsi, Yesenin küçəsi 8 (ABB Mərdəkan filialı)",40.4875177,50.1591142,cashin
Hava Limanı -  Parkinq,"Bakı şəh., Xəzər rayonu , Binə qəsəbəsi, (H.Əliyev adına Beynəlxalq Hava Limanı, Şimal Terminalı çıxış, I mərtəbə)",40.462700,50.049471,cashin
Binə (Araz market - 4),"Bakı ş. Xəzər r-nu, Binə qəs., Ə.İsazadə (Araz market - 4)",40.417602400305285,50.10794818339571,cashin
Rahat market (Qala),"Xəzər r., Qala yolu (Rahat market)",40.474420,50.109470,cashin
RAHAT market,"Xazar r., Mərdəkan qəsəbəsi, Yesenin küçəsi,. “RAHAT” market",40.49036870664834,50.14838320090493,cashin
Seabreeze hotel,"Bakı ş. Xəzər r. Nardaran qəs. (""SeaBreeze"" Hotel)",40.5916485582322,49.98583805577762,cashin
Everest market (Buzovna),Xəzər r. Şaqan qəs. Buzovna-Şüvəlan şossesi (Everest market),40.510589599609375,50.13028335571289,cashin
Bazarstore (Binə qəs. 2),"Bakı ş. Xəzər r-nu, Binə qəs., F.Aynulov küç. 61  (Binə qəs. Bazarstore)",40.449762,50.088291,cashin
ABB-nin Mərdəkan filialı,"Bakı, Xəzər rayonu , Mərdəkan qəsəbəsi, Yesenin küçəsi 8 (ABB Mərdəkan filialı)",40.4875177,50.1591142,cashin
ABB-nin Hava Limanı şöbəsi,"Bakı ş., Xəzər r., Binə qəs., H.Əliyev adına Beynəlxalq Hava Limanı (ABB filialı)",40.464140,50.051627,cashin
Hava Limanı - Cənub terminal,"Xəzər rayonu , Binə qəsəbəsi, (H.Əliyev adına Beynəlxalq Hava Limanı, Cənub Terminalı çıxış, I mərtəbə)",40.462700,50.049471,cashin
ABB-nin Hava limanı şöbəsi - Cənub (2) terminal,"Bakı, Xəzər r., Binə qəsəbəsi, H.Əliyev adına Beynəlxalq Hava Limanı, Cənub (2) terminal 1-ci mərtəbə (ABB filialı)",40.464140,50.051627,cashin
Mərdəkan - 26 N-li Birləşmiş şəhər xəstəxanası,"Bakı, Xəzər rayonu , Mərdəkan, R.Qasımov 6 (26 N-li Birləşmiş şəhər xəstəxanası)",40.4911079,50.1542121,cashin
H.Əliyev adına Beynəlxalq Hava Limanı Şimal (1) terminal 1-ci mərtəbə),"Bakı şəhəri, Xəzər r-nu, Binə qəs., H.Əliyev adına Beynəlxalq Hava Limanı Şimal (1) terminal 1-ci mərtəbə)",40.465292872023326,50.05242882157553,cashin
Bazarstore (AAAF Park),"Xırdalan, H.Aliyev pr. AAAF Park (Bazarstore)",40.461190,49.727606,cashin
ABB-nin Xırdalan filialı - 1,"Abşeron, Xırdalan şəhəri, M.Rəsulzadə küçəsi 3 (ABB- Xırdalan filialı)",40.44917978916914,49.75045339667672,cashin
ABB-nin Xırdalan filialı - 2,"Abşeron, Xırdalan şəhəri, M.Rəsulzadə küçəsi 3 (ABB- Xırdalan filialı)",40.44917978916914,49.75045339667672,cashin
Araz market (Xırdalan),Xırdalan ş. Mehdi Hüseynzadə (Araz market Xırdalan),40.4557660,49.7413620,cashin
ABB-nin Cəlilabad filialı,"Cəlilabad, Azərbaycan küçəsi 44a (ABB-nin Cəlilabad filialı)",39.212265,48.505136 ,cashin
ABB-nin Şəki filialı,"Şəki, H.Əliyev küçəsi 61 A (ABB Şəki filialı)",41.204913833665636,47.177686321754486,cashin
Şəki store,"Şəki, M.Ə.Rəsulzadə küçəsi (Şəki store)",41.1979108,47.1760139,cashin
Şəki ipək,"Şəki, F.X.Xoyski küçəsi 1 (Şəki ipək)",41.21002885793978,47.17874278018726,cashin
Caspian Plaza,Yasamal r. Cəfər Cabbarlı küçəsi 44 (Caspian Plaza),40.385389,49.828897,cashin
Bolmart (Elmlər),"Bakı ş, Yasamal, Əbdürrəhim bəy Haqverdiyev küç 574, Musabəyov parkın yanında (Bolmart Elmlər) 24/7",40.38008133079799,49.8102364552804,cashin
Oba market (Yasamal),"Bakı ş. Yasamal r., Zivərbəy Əhmədbəyov 2 (Oba market)",40.37938415013105,49.83166047254999,cashin
Bravo (Yasamal),"Bakı, Yasamal r., Şərifzadə küç. 71 (Bravo Yasamal)",40.37831881925903,49.80484788477052,cashin
ABB Abşeron filialı,"Yasamal r.,İzmir küç., 1033-cü məhəllə",40.388398,49.824065,cashin
"DSMF,Baş idarə","Bakı, Yasamal rayonu, H.B.Zərdabi küçəsi 80 (DSMF, Baş idarə)",40.394306,49.806691,cashin
ABB - Şərifzadə filialı,"Bakı, Yasamal, Şərifzadə küç. 217/23 (ABB -Şərifzadə filialı)",40.397041,49.801378,cashin
Avromart (Nizami Metro),"Yasamal r., Şamil Əzizbəyov 88 (Xarici İşlər Nazirliyin arxası)",40.378192,49.833945,cashin
Bazarstore (Yasamal),"Yasamal r., MİDA Yaşayış kompleksi",40.376566,49.796424,cashin
Milli Onkoloji mərkəz,"Bakı, Yasamal rayonu, Zərdabi prospekti (Milli Onkoloji mərkəz)",40.400553,49.804752,cashin
Araz market (Statistika),"Yasamal r., İnşaatşılar pr. 31 (Araz market)",40.383982,49.823015,cashin
Bravo (Y/Yasamal),"Baklı ş. Yasamal r., Y/Yasamal qəs., Əsəd Əhmədov küç., Talıblı evi (Bravo yeni yasamal)",40.39410703610893,49.79481143348264,cashin
Yasamal Torpaq kom.,"Yasamal r., Ələkbərov küç. 93 (Yasamal DSMF)",40.3898188,49.8149438,cashin
Baku elektroniks inşaatçılar m/s,"Bakı , Yasamal r., Şərifzadə 3152-ci məh. (Baku Elektroniks inşaatçılar m/s)",40.388584,49.802651,cashin
Nizami mall,Yasamal r. Salatın Əsgərov küç. 163 (Nizami Mall),40.378810,49.830601,cashin
Araz market (Yasamal) - 1,Yasamal r. Naxçıvan küç. 15,40.383234,49.825547,cashin
ABB - Şərifzadə filialı (24/7),"Bakı şəh., Yasamal r-nu, Şərifzadə küç. 100 (""Araz"" market)",40.382067,49.804137,cashin
Grandmart (Almaz Plaza),"Yasamal r., Həsən Məcidov küç., 14 (Almaz plaza)",40.383561,49.809991,cashin
Araz market (Space TV yanı),"Yasamal r., H.Cavid pr. 17 A (Araz market Space TV yanı)",40.366844,49.816483,cashin
Mərkəzi Kliniki Xəstəxana,"Bakı, Yasamal r., Parlament prosp. (Mərkəzi Kliniki Xəstəxana)",40.361371,49.824619,cashin
Araz market (Yasamal) - 2,Bakı ş. Əsəd Əhmədov 41 (Araz market Yasamal),40.3875700,49.7875990,cashin
Mərkəzi Gömrük Hospitalı,"Bakı, Yasamal r., Ələkbərov küç. 5 (İmpland klinikası)",40.380324,49.817222,cashin
Araz market (üç taclı bina),"Bakı, Yasamal rayonu, H.B.Zərdabi prospekti 593-cü məhəllə (Araz market üç taclı bina)",40.385901,49.808390,cashin
Bazarstore (Yasamal),"Bakı, Yasamal r., Z.Xəlilov küç. 60 (""Bazarstore"" market)",40.385992,49.810802,cashin
ABB - Şərifzadə filialı (24/7),"Bakı, Yasamal, Şərifzadə küç. 217/23 (ABB -Şərifzadə filialı, 24/7)",40.397041,49.801378,cashin
Nəsrəddin Tusi adına klinika,"Bakı, Yasamal rayonu, H.B.Zərdabi prospekti 53 (Nəsrəddin Tusi adına klinika)",40.398045,49.805642,cashin
Araz market (Şərifzadə),"Bakı ş. Yasamal r., Şərifzadə küç. 100 (""Araz"" market)",40.382067,49.804137,cashin
Grandmart supermarket (Yasamal),"Bakı ş, Yasamal r., İ.Qutqaşınlı 507-511 küçəsində yerləşən Grandmart supermarket",40.368285,49.821202,cashin
Yasamal filialı - 1,"Bakı, Yasamal rayonu, İnşaatçılar prospekti 2 (ABB Yasamal filialı 24/7 sahə)",40.37450472475061,49.81907753239535,cashin
ABB-nin Yasamal filialı,"Bakı, Yasamal rayonu, İnşaatçılar prospekti 2 (ABB Yasamal filialı)",40.37450472475061,49.81907753239535,cashin
ABB-nin Şəmkir filialı - 2,"Şəmkir, S.Vurğun küçəsi 131 (ABB-nin Şəmkir filialı)",40.83009862611042,46.02020803764185,cashin
Bravo (Şəmkir),"Şəmkir r., M.Ə.Sabir küçəsi 15 (Bravo Şəmkir)",40.8533870,46.0313440,cashin
ABB-nin Gəncə filialı - 1,"Gəncə, Zərdabi küçəsi 210 (ABB Gəncə filialı)",40.66762924194336,46.354103088378906,cashin
ABB-nin Gəncə Mərkəz filialı,Gəncə şəhəri (ABB Gəncə Mərkəz filialı),40.68062261393868,46.35815581226856,cashin
ABB-nin Gəncə filialı - 2,"Gəncə, Zərdabi küçəsi 210 (ABB-nın Gəncə filialı)",40.66762924194336,46.354103088378906,cashin
Bazarstore,Gəncə (Bazarstore),40.678947692703304,46.36589431940843,cashin
Gold Əminə hipermarket,"Gəncə, Tağı Arani küç (Gold Əminə hipermarket)",40.686900,46.379686,cashin
ABB-nin Texnologiya şöbəsi,"Ş.İ.Xətai pr. Ev 101 m.15, Texnologiya şöbəsi",40.688570531303704,46.38513500918613,cashin
Gəncə Asan Xidmət,"Gəncə, Ş.Xətai küç. 87 (Asan xidmət)",40.691684,46.367364,cashin
Gəncə Hava limanı,"Gəncə, Beynəlxalq Hava limanı",40.738814,46.300235,cashin
Bravo (Koroğlu),"Bakı ş. Nizami rayonu, Heydər Əliyev prospekti 172 Koroğlu m/s (Bravo Korğolu - NGA)",40.418569,49.913382,cashin
ABB-nin Nizami filialı-2,"Bakı ş. Nizami rayonu, T.Abbasov və Ə.Hacıyev küç. Kəsişməsi 2453 məhəllə",40.419056,49.933580,cashin
ABB-nin Nizami filialı-3,"Bakı ş. Nizami rayonu, T.Abbasov və Ə.Hacıyev küç. Kəsişməsi 2453 məhəllə",40.419056,49.933580,cashin
Araz market (Nazlı Restoranı),Nizami r. Cəmşid Naxçıvani 90 (30 saylı marşrutun sonu),40.408286,49.958143,cashin
ABB-nin Əhmədli filialı,"Bakı, Nizami rayonu, Məhəmməd Hadi küç. 155 (ABB-nin Əhmədli filialı)",40.384846,49.954478,cashin
5 saylı ASAN Xidmət Mərkəzi,"Bakı ş., Nizami r-nu,  H.Əliyev prospekti, 115 (ASAN5)",40.417716,49.908717,cashin
Grandmart (Nizami),"Bakı, Nizami rayonu, Şərifli küçəsi, 74 C ("" Grand market"")",40.421200,49.941177,cashin
ABB-nin Əhmədli filialı 24/7 sahə - 1,"Bakı, Nizami rayonu, Məhəmməd Hadi küçəsi 155 (ABB-nin Əhmədli filialı) 24/7 sahə",40.384846,49.954478,cashin
ABB-nin Əhmədli filialı 24/7 sahə - 2,"Bakı, Nizami rayonu, Məhəmməd Hadi küçəsi 155 (ABB-nin Əhmədli filialı) 24/7 sahə",40.384846,49.954478,cashin
Grandmart (Xalqlar dostluğu dairəsi),"Bakı, Nizami rayonu, Xalqlar dostluğu dairəsi (Grandmart)",40.398961,49.949841,cashin
Socar YDM,"Bakı ş. Nizami rayonu, Oqtay Vəliyev (Socar YDM)",40.393696,49.931928,cashin
Bolmart (Neftçilər),"Bakı, Nizami rayonu, Qara Qarayev pr. 46 (Bolmart Neftçilər)",40.414391468526276,49.93938743215322,cashin
Tamstore - Neftçilər,"Bakı ş. Nizami r-nu, Qara Qarayev pr-ti (""Tamstore"" supermarket)",40.40610092311918,49.94658573708201,cashin
ABB-nin Siyəzən filialı - 1,"Siyəzən ş., Babək küçəsi (ABB Siyəzən filialı)",41.075936,49.113667,cashin
ABB-nin Siyəzən filialı - 2,"Siyəzən ş., Babək küçəsi (ABB Siyəzən filialı)",41.075936,49.113667,cashin
Yevlax KOB evi,"Yevlax ş., H. Əliyev pr. KOB evi",40.5947946,47.1637953,cashin
ABB-nin Yevlax filialı,"Yevlax, H.Əliyev prospekti, 6 (ABB Yevlax filialı)",40.613104,47.147941,cashin
ABB-nin Yevlax filialı,"Yevlax, H.Əliyev prospekti, 6 (ABB Yevlax filialı)",40.613104,47.147941,cashin
Yevlax Mərkəzi Xəstəxana,"Yevlax rayonu, C. Mustafayev 115",40.597872,47.1576453,cashin
ABB-nin Pirallahı filialı,"PirAllahı r., S. Murtuzəliyev küçəsi (ABB-nin Pirallahı filialı)",40.455348,50.337000,cashin
ABB-nin Zaqatala filialı - 1,"Zaqatala , Vidadi k. 28a  (ABB Zaqatala branch)",41.6289275,46.6414702,cashin
ABB-nin Zaqatala filialı - 2,"Zaqatala , Vidadi k. 28a  (ABB Zaqatala branch)",41.6289275,46.6414702,cashin
ABB-nin Goranboy filialı,"Goranboy, H.Əliyev prospekti 21 (ABB Goranboy filialı)",40.6054493,46.7859249,cashin
Kingsmart 2 (Lökbatan),"Qaradağ r. Lökbatan qəs. 28may küç. (""OBA""market)",40.325977,49.741293,cashin
Kingsmart (Lökbatan),"Qaradağ r., Lökbatan qəs. 28 May küç.,",40.321780,49.734585,cashin
Bravo (Lökbatan qəs.),"Bakı ş. Lökbatan qəsəbəsi, 28 May küçəsi 5H (Bravo Lökbatan)",40.322498,49.732766,cashin
ABB-nin Zərdab filialı,"Zərdab, Azərbaycan küçəsi 56 (ABB Zərdab filialı)",40.21818508094658,47.7063076020076,cashin
Bolluq market (Göyçay),"Goychay r-nu, Nizami Gencevi k. 122 (Bolluq martket)",40.651181,47.750256,cashin
ABB-nin Göyçay filialı,"Göyçay ş., (ABB Göyçay filialı)",40.649423,47.748033,cashin
Sumqayıt ASAN Xidmət Mərkəzi,"Sumqayıt şəhəri, 15-ci məhəllə, ev 42d (ASAN xidmət - Sumqayıt)",40.587334,49.664962,cashin
Corat - Qəsəbə nümayəndəliyi,"Sumqayıt, Corat qəsəbəsi, (Qəsəbə nümayəndəliyi)",40.57288624044854,49.70857303342756,cashin
ABB-nin Yeni Sumqayıt filialı - 1,"Sumqayıt ş., 13-cü mkr., H. Hacıbəyov küç. (ABB Yeni Sumqayıt filialı)",40.570759,49.690221,cashin
ABB-nin Yeni Sumqayıt filialı - 2,"Sumqayıt ş., 13-cü mkr., H. Hacıbəyov küç. (ABB Yeni Sumqayıt filialı)",40.570759,49.690221,cashin
ABB-nin Sumqayıt-3 filialı,"Sumqayt şəhəri, Heydər Əliyev prospekti 509 (Sumqayıt-3 filialı)",40.58064757538158,49.681713022811685,cashin
ABB-nin Sumqayıt-3 filialı,"Sumqayt şəhəri, Heydər Əliyev prospekti 509 (Sumqayıt-3 filialı)",40.58064757538158,49.681713022811685,cashin
Bazarstore (Sumqayıt 2),"Sumqayıt, (Bazarstore Sumqayıt-2)",40.575869,49.679852,cashin
ASAN 1 şöbəsi,"Bakı, Akademik Həsən Əliyev küçəsi 36",40.401852,49.847073,division
ASAN 2 şöbəsi,"Bakı, 8 Noyabr prospekti 23",40.379078,49.87925,division
ASAN 3 şöbəsi,"Bakı, Yasamal rayonu, A.M.Şərifzadə küçəsi 157",40.37915,49.80426,division
ASAN 6 şöbəsi,"Bakı, Xətai rayonu, V.Tau küçəsi, Heydər Əliyev parkının yaxınlığı",40.37804523980371,49.955766016795835,division
BP AİOC şöbəsi,"Bakı, Neftçilər prospekti, 153 (Port Baku North Tower, BP)",40.37641798548452,49.86187779749039,division
Landmark şöbəsi,"Bakı, Nizami küçəsi 90A, Landmark Plaza, 1-ci mərtəbə",40.376015,49.850704,division
Bərdə ASAN xidmət şöbəsi,"Bərdə rayonu, Heydər Əliyev prospekti 100",40.394485,47.12199,division
Gəncə - Texnologiya,"Gəncə, Ş.İ.Xətai prospekti, 101/15",40.688576,46.385214,division
Gəncə ASAN xidmət şöbəsi,"Gəncə şəhəri, Heydər Əliyev prospekti 269",40.69177,46.36730,division
Sabirabad ASAN xidmət şöbəsi,"Sabirabad rayonu, Heydər Əliyev prospekti 128",39.995365,48.477901,division
Seyf - Mərkəzi,,40.369698,49.839626,safe
Seyf - Sənaye,,40.389328,49.882416,safe
Seyf - Nəsimi,,40.377377,49.85022,safe
Seyf - Sumqayıt,,40.374733,49.844112,safe
Seyf - Səbail,,40.374733,49.844112,safe
Seyf - Gəncə,,40.675659,46.358486,safe
Seyf - Xətai,,40.380028,49.8787,safe
Seyf - MXD,,40.372036,49.836678,safe
Seyf - Sabunçu,,40.424931,49.959164,safe
Seyf - Şabran,,41.212433,48.986492,safe
Seyf - Quba,,41.361134,48.510929,safe
Seyf - Şəki,,41.205975,47.17392,safe
Seyf - Zaqatala,,41.631355,46.639709,safe
Seyf - Mingəçevir,,40.769882,47.04895,safe
1 nömrəli Birləşmiş Uşaq Xəstəxanası,1 nömrəli Birləşmiş Uşaq Xəstəxanası,40.660629,46.333196,terminals
1 nömrəli Doğum Evi,"Sumqayıt ş, 1 nömrəli Doğum Evi (Qış Parkının yanı)",40.582840,49.672079,terminals
1 nömrəli Şəhər Xəstəxanası,"Sumqayıt şəh, H.Əliyev, 1 nömrəli Şəhər Xəstəxanası",40.582817,49.672631,terminals
1 nömrəli Şəhər Xəstəxanası,"Sumqayıt şəh, 1 nömrəli Şəhər Xəstəxanası",40.583375,49.673304,terminals
1 nömrəli Uşaq Yoluxucu Xəstəxanası,"66 Şirin Mirzəyev küç., 1 nömrəli Uşaq Yoluxucu Xəstəxanası (Qara Qarayev MS)",40.419648,49.940328,terminals
10 nömrəli Birləşmiş Şəhər Xəstəxanası,"Pirallahı qəs., 22-13 K.Rzayev küç, 10 nömrəli Birləşmiş Şəhər Xəstəxanası",40.447743,50.341450,terminals
11 nömrəli Birləşmiş Şəhər Xəstəxanası,"8-ci km qəs., Yavər Səfərov küç 10, 11 nömrəli Birləşmiş Şəhər Xəstəxanası (Maşın bazarının yanı)",40.394702,49.918604,terminals
12 nömrəli Birləşmiş Şəhər Xəstəxanası,"Suraxanı qəs., 12 Vahid Xəlilov, 12 nömrəli Birləşmiş Şəhər Xəstəxanası (89 saylı məktəb)",40.431047,50.036846,terminals
13 nömrəli Birləşmiş Şəhər Xəstəxanası,"Suraxanı ray., Elxan Həsənov 52, 13 nömrəli Birləşmiş Şəhər Xəstəxanası (Azersun arena yaxın)",40.421000,49.994012,terminals
14 nömrəli Birləşmiş Şəhər Xəstəxanası,"Zaqulba qəs., 14 nömrəli Birləşmiş Şəhər Xəstəxanası",40.527395,50.104497,terminals
15 nömrəli Birləşmiş Şəhər Xəstəxanası,"Qaraçuxur qəs., 15 nömrəli Birləşmiş Şəhər Xəstəxanası ( Neftçilər parkının yanı)",40.391546,49.972694,terminals
16 nömrəli Şəhər Poliklinikası,"26, 12 İnşaatçılar prospekti, 16 nömrəli Şəhər Poliklinikası (İncəsənət)",40.378443,49.820720,terminals
17 nömrəli Birləşmiş Şəhər Xəstəxanası,"Qobustan qəs., 17 nömrəli Birləşmiş Şəhər Xəstəxanası",40.083094,49.409869,terminals
18 nömrəli Birləşmiş Şəhər Xəstəxanası,"11 Nizami St, 18 nömrəli Birləşmiş Şəhər Xəstəxanası (Qara Qarayev M.S)",40.412406,49.936850,terminals
19 nömrəli Birləşmiş Şəhər Xəstəxanası,"Lökbatan qəs., 19 nömrəli Birləşmiş Şəhər Xəstəxanası",40.329648,49.729079,terminals
2 nömrəli Doğum Evi,"Bakixanov qəs., Oskar Əfəndiyev küç., 2 nömrəli Doğum Evi (Andromed klinikasının yanı)",40.423803,49.953430,terminals
2 nömrəli Doğum Evi,"Bakixanov qəs., Oskar Əfəndiyev küç., 2 nömrəli Doğum Evi (Andromed klinikasının yanı)",40.423803,49.953430,terminals
2 nömrəli Doğum Evi,"Oskar Afandiyev Küç, 2 nömrəli Doğum Evi (Ariana Biznes Parkın yanı)",40.423563,49.952943,terminals
2 nömrəli Şəhər klinik Xəstəxanası,"Y Səfərov küç., 2 nömrəli Şəhər klinik Xəstəxanası",40.382316,49.862847,terminals
2 nömrəli Şəhər Xəstəxanası,"Sumqayıt, 2 nömrəli Şəhər Xəstəxanası",40.571022,49.733873,terminals
21 nömrəli Birləşmiş Şəhər Xəstəxanası,"Ramana qəs., 1 Haqverdiyev küç, 21 nömrəli Birləşmiş Şəhər Xəstəxanası",40.457074,49.987833,terminals
22 nömrəli Birləşmiş Şəhər xəstəxanası,"Əhmədli qəs., 22 nömrəli Birləşmiş Şəhər xəstəxanası",40.387726,49.947155,terminals
23 nömrəli Birləşmiş Şəhər Xəstəxanası,"Sahil qəs., Bəxtiyar Əliyev küç 39, 23 nömrəli Birləşmiş Şəhər Xəstəxanası",40.222630,49.575708,terminals
24 nömrəli Birləşmiş Şəhər Xəstəxanası (keçmiş 31poliklinikası),"Günəşli qəs., 24 nömrəli Birləşmiş Şəhər Xəstəxanası (keçmiş 31poliklinikası)",40.372673,49.975644,terminals
26 nömrəli Birləşmiş Şəhər Xəstəxanası,"Mərdəkan qəs., 26 nömrəli Birləşmiş Şəhər Xəstəxanası",40.491137,50.154163,terminals
28 nömrəli Birləşmiş Şəhər Xəstəxanası,"H.Hacıağa küç 21, Bilgah, 28 nömrəli Birləşmiş Şəhər Xəstəxanası",40.561945,50.028300,terminals
29 nömrəli Birləşmiş Şəhər Xəstəxanası,"Binə qəs., 29 nömrəli Birləşmiş Şəhər Xəstəxanası",40.449690,50.089581,terminals
3 nömrəli Doğum Evi,"Suraxanı qəsəbəsi, 3 nömrəli Doğum Evi (Atəşgah yaxınlıqda)",40.410913,50.009834,terminals
3 nömrəli Şəhər klinik Xəstəxanası,"Sabunçu qəs., 4 Ə. Məmmədəliyev, 3 nömrəli Şəhər klinik Xəstəxanası",40.442560,49.942438,terminals
3 nömrəli Şəhər klinik Xəstəxanası,"Sabunçu qəs., 4 Ə. Məmmədəliyev, 3 nömrəli Şəhər klinik Xəstəxanası",40.442570,49.942460,terminals
3 nömrəli Şəhər klinik Xəstəxanası,"Sabunçu qəs., 4 Ə. Məmmədəliyev, 3 nömrəli Şəhər klinik Xəstəxanası",40.442601,49.942443,terminals
3 nömrəli Şəhər klinik Xəstəxanası,"Sabunçu qəs., 4 Ə. Məmmədəliyev, 3 nömrəli Şəhər klinik Xəstəxanası",40.442598,49.942453,terminals
3 nömrəli Şəhər Poliklinikası,3 nömrəli Şəhər Poliklinikası,40.665362,46.351931,terminals
3 nömrəli Şəhər Xəstəxanası,"Sumqayıt şəh., 3 nömrəli Şəhər Xəstəxanası",40.620319,49.559648,terminals
3 nömrəli Uşaq Xəstəxanası,"Səbail r,98, Zarifa Aliyeva St, 3 nömrəli Uşaq Xəstəxanası",40.375448,49.858767,terminals
31 nömrəli Birləşmiş Şəhər Xəstəxanası,"Şüvəlan qəs., 31 nömrəli Birləşmiş Şəhər Xəstəxanası (AZAL arena)",40.496920,50.194747,terminals
32 nömrəli Birləşmiş Şəhər Xəstəxanası,"Keşlə qəs., 32 nömrəli Birləşmiş Şəhər Xəstəxanası",40.396670,49.895039,terminals
4 nömrəli Birləşmiş Uşaq Xəstəxanası,"30,, 28 May küç., Lökbatan, 4 nömrəli Birləşmiş Uşaq Xəstəxanası",40.321200,49.735688,terminals
4 nömrəli Doğum Evi,"Lökbatan qəs., S.Orucov küç, H.Əliyev parkı, 4 nömrəli Doğum Evi",40.322585,49.727134,terminals
4 nömrəli Şəhər Xəstəxanası,"Sumqayıt şəh, Səməd Vurğun küç, 4 nömrəli Şəhər Xəstəxanası (Turan marketin yanı)",40.605726,49.657873,terminals
5 nömrəli Doğum Evi,"Bayıl qəs., Neftçi Qurban küç 93, 5 nömrəli Doğum Evi",40.343547,49.839141,terminals
5 nömrəli Şəhər klinik Xəstəxanası,"101 Fətəli Xan Xoyski, 5 nömrəli Şəhər klinik Xəstəxanası",40.403450,49.862233,terminals
5 nömrəli Şəhər klinik Xəstəxanası,"101 Fətəli Xan Xoyski, 5 nömrəli Şəhər klinik Xəstəxanası (Gənclik) 2",40.403341,49.862270,terminals
5 nömrəli Şəhər klinik Xəstəxanası,"101 Fətəli Xan Xoyski, 5 nömrəli Şəhər klinik Xəstəxanası (Gənclik) 3",40.403341,49.862270,terminals
5 nömrəli Şəhər Poliklinikası,5 nömrəli Şəhər Poliklinikası,40.389774,49.840661,terminals
5 nömrəli Uşaq Yolxucu Xəstəxanası,"Bakixanov qəs., 6 Seyid Şuşinski, 5 nömrəli Uşaq Yolxucu Xəstəxanası",40.426455,49.962045,terminals
6 nömrəli Uşaq Klnik Xəstəxanası,"Nərimanov r. Koroğlu Rəhimov küç, 6 nömrəli Uşaq Klnik Xəstəxanası (ABU ARENA)",40.397850,49.859218,terminals
7 nömrəli Birləşmiş Şəhər Xəstəxanası,"Maştağa qəs., Nərimanov küç 41, 7 nömrəli Birləşmiş Şəhər Xəstəxanası",40.537550,49.996168,terminals
7 nömrəli Birləşmiş Şəhər Xəstəxanası,"Məştağa qəs., 41 Narimanov, 7 nömrəli Birləşmiş Şəhər Xəstəxanası",40.537562,49.996136,terminals
7 nömrəli Doğum Evi,"Nizami ray., Azər Manaflı küçəsi 2, 7 nömrəli Doğum Evi (Sarı gəlin restoranın yanı)",40.414312,49.930657,terminals
7 nömrəli Uşaq Yoluxucu Xəstəxanası,"Nərimanov r. Qarabağ küç 69, 7 nömrəli Uşaq Yoluxucu Xəstəxanası (Təhsil nazirliyin arxası)",40.392124,49.860172,terminals
8 nömrəli Birləşmiş Şəhər Xəstəxanası,"Nardaran qəs., 8 nömrəli Birləşmiş Şəhər Xəstəxanası",40.550781,49.995504,terminals
8 nömrəli Birləşmiş Uşaq Xəstəxanası (2014 ildən),"Əmircan qəsəbəsi, Tofiq Bayram küçəsi 4, 8 nömrəli Birləşmiş Uşaq Xəstəxanası (ABB-dan aşağı,ATS ilə üz bəüz)",40.427907,49.986354,terminals
9 nömrəli Birləşmiş Şəhər Xəstəxanası,"Puta qəs.,Sovet küç 9, 9 nömrəli Birləşmiş Şəhər Xəstəxanası",40.295291,49.659962,terminals
Abşeron Rayon Mərkəzi Xəstəxanası,"Xırdalan şəh., Tağıyev küç., Abşeron Rayon Mərkəzi Xəstəxanası (Doğum evi) (9 saylı orta məktəbin yanı)",40.459005,49.739665,terminals
Ağdam Rayon Mərkəzi Xəstəxanası,Ağdam Rayon Mərkəzi Xəstəxanası (Quzanlı-Xındırıstan-Baş Qərvənd yolunun üstü),40.157607,47.167415,terminals
Ağdaş Rayon Mərkəzi Xəstəxanası,"Ağdaş Rayon Mərkəzi Xəstəxanası (Cəfər Cabbarlı küç, Məşəd Döngəsi 1)",40.647092,47.491600,terminals
Ağstafa Rayon Mərkəzi Xəstəxanası,"Ağstafa Rayon Mərkəzi Xəstəxanası (H.Əliyev Pr., ABB Ağstafa filialı ilə üzbə-üz)",41.112000,45.439831,terminals
Ak. M.Ə.Mirqasımov adına Respublika Klinik Xəstəxanası,"Yasamal ray., Şərifzadə küç., Ak. M.Ə.Mirqasımov adına Respublika Klinik Xəstəxanası (Dövlət Həkimləri Təkmilləşdirmə İnstitutu)",40.403634,49.804400,terminals
Ak. M.Ə.Mirqasımov adına Respublika Klinik Xəstəxanası,"Nəsimi r, 1 Mirqasımov küç, Kliniki Tibbi Mərkəzi(Semashko)",40.403634,49.804400,terminals
Ak. M.Ə.Mirqasımov adına Respublika Klinik Xəstəxanası,"212, Şərifzadə, Ak. M.Ə.Mirqasımov adına Respublika Klinik Xəstəxanası (Respublika xest)",40.403634,49.804400,terminals
Ak. M.Ə.Mirqasımov adına Respublika Klinik Xəstəxanası,"212, Şərifzadə, Ak. M.Ə.Mirqasımov adına Respublika Klinik Xəstəxanası (Respublika xest)",40.403634,49.804400,terminals
Akademik C.M.Abdullayev adına Elmi-Tədqiqat Kardiologiya İnstitutu,"Nərimanov r. Fətəli Xan Xoyski 101, Akademik C.M.Abdullayev adına Elmi-Tədqiqat Kardiologiya İnstitutu",40.403768,49.861705,terminals
Akademik Mirməmməd Cavadzadə adına Respublika Kliniki Uroloji Xəstəxanası,"Səbail, 1 Müzəffər Həsənov küç., Akademik Mirməmməd Cavadzadə adına Respublika Kliniki Uroloji Xəstəxanası,",40.369439,49.833197,terminals
Akademik Mirməmməd Cavadzadə adına Respublika Kliniki Uroloji Xəstəxanası,"1 Müzəffər Həsənov küç., Akademik Mirməmməd Cavadzadə adına Respublika Kliniki Uroloji Xəstəxanası",40.369439,49.833197,terminals
Astara Rayon Mərkəzi Xəstəxanası,Astara Rayon Mərkəzi Xəstəxanası,38.444716,48.877626,terminals
B.Ə.Eyvazov adına Elmi-Tədqiqat Hematologiya və Transfuziologiya İnstitutu,"87 Mirəli Qaşqay, B.Ə.Eyvazov adına Elmi-Tədqiqat Hematologiya və Transfuziologiya İnstitutu",40.396972,49.841418,terminals
B.Ə.Eyvazov adına Elmi-Tədqiqat Hematologiya və Transfuziologiya İnstitutu,"AZ1007, 145, Mirali Gashgai, B.Ə.Eyvazov adına Elmi-Tədqiqat Hematologiya və Transfuziologiya İnstitutu",40.396972,49.841418,terminals
Balakən Rayon Mərkəzi Xəstəxanası,Balakən Rayon Mərkəzi Xəstəxanası (Yevlax-Zakatala-Gürcüstan yolundan Atatürk küçəsinə keçid),41.703307,46.426109,terminals
Beyləqan Rayon Mərkəzi Xəstəxanası,Beyləqan Rayon Mərkəzi Xəstəxanası,39.776368,47.617542,terminals
Bərdə Müalicə Diaqnostika Mərkəzi,Birləşmiş Uşaq Xəstəxanası,40.390202,47.132820,terminals
Biləsuvar Rayon Mərkəzi Xəstəxanası,Biləsuvar Rayon Mərkəzi Xəstəxanası,39.466298,48.543021,terminals
Birləşmiş Uşaq Xəstəxanası,Birləşmiş Uşaq Xəstəxanası,40.371731,47.130412,terminals
Cəlilabad Müalicə Diaqnostika Mərkəzi,Cəlilabad Müalicə Diaqnostika Mərkəzi,39.206489,48.526757,terminals
Cəlilabad Rayon Mərkəzi Xəstəxanası,Cəlilabad Rayon Mərkəzi Xəstəxanası,39.216439,48.502423,terminals
Daşkəsən Rayon Mərkəzi Xəstəxanası,Daşkəsən Rayon Mərkəzi Xəstəxanası,40.524317,46.079096,terminals
Elmi-Tədqiqat Ağciyər Xəstəlikləri İnstitutu,"2514 Məmmədəli Şərifli, Elmi-Tədqiqat Ağciyər Xəstəlikləri İnstitutu (Qara Qarayev M/S)",40.420313,49.946484,terminals
Elmi-Tədqiqat Ağciyər Xəstəlikləri İnstitutu,"2514 Məmmədəli Şərifli, Elmi-Tədqiqat Ağciyər Xəstəlikləri İnstitutu (Qara Qarayev MS)",40.420313,49.946484,terminals
Elmi-Tədqiqat Mamalıq və Ginekologiya İnstitutu,"Yasamal ray.,Kazım Kazımzadə 118, Elmi-Tədqiqat Mamalıq və Ginekologiya İnstitutu(Gömrük hospitalın yanı)",40.377718,49.819092,terminals
Elmi-Tədqiqat Mamalıq və Ginekologiya İnstitutu,Elmi-Tədqiqat Mamalıq və Ginekologiya İnstitutu,40.377718,49.819092,terminals
Elmi-Tədqiqat Tibbi Bərpa İnstitutu,"Nərimanov r. Xətai pr., Elmi-Tədqiqat Tibbi Bərpa İnstitutu (Xətai Plaza ilə üz-üzə)",40.383892,49.852590,terminals
Elmi-Tədqiqat Travmatologiya və Ortopediya İnstitutu,"32 Abbas Səhhət, Elmi-Tədqiqat Travmatologiya və Ortopediya İnstitutu",40.396922,49.839707,terminals
Elmi-Tədqiqat Travmatologiya və Ortopediya İnstitutu,"Abbas Səhhət 32, Elmi-Tədqiqat Travmatologiya və Ortopediya İnstitutu",40.396922,49.839707,terminals
Ə.D.Məlikov adına 6 nömrəli Birləşmiş Şəhər Xəstəxanası,"Rəsulzadə qəs., Ə.D.Məlikov adına 6 nömrəli Birləşmiş Şəhər Xəstəxanası",40.436729,49.843816,terminals
Ə.D.Məlikov adına 6 nömrəli Birləşmiş Şəhər Xəstəxanası,"M.Ə. Rəsulzadə qəs., Ə.D.Məlikov adına 6 nömrəli Birləşmiş Şəhər Xəstəxanası (99 saylı məktəbin yanı)",40.436760,49.843494,terminals
Ə.D.Məlikov adına 6 nömrəli Birləşmiş Şəhər Xəstəxanası,"M.Ə. Rəsulzadə qəs., Ə.D.Məlikov adına 6 nömrəli Birləşmiş Şəhər Xəstəxanası (99 saylı məktəbin yanı)",40.436760,49.843494,terminals
Füzuli Müalicə Diaqnostika Mərkəzi,Füzuli Müalicə Diaqnostika Mərkəzi,39.526116,47.472789,terminals
Füzuli Rayon Mərkəzi Xəstəxanası,Füzuli Rayon Mərkəzi Xəstəxanası,39.451106,47.330362,terminals
Gədəbəy Rayon Mərkəzi Xəstəxanası,Gədəbəy Rayon Mərkəzi Xəstəxanası,40.578342,45.813172,terminals
Goranboy Rayon Mərkəzi Xəstəxanası,Goranboy Rayon Mərkəzi Xəstəxanası,40.598669,46.777407,terminals
Göyça rayon Mərkəzi Xəstəxanası,"Göyçay şəhəri, Nizami küç. 183", 40.659904,47.751667,terminals
Göygöl Rayon Mərkəzi Xəstəxanası,Göygöl Rayon Mərkəzi Xəstəxanası,40.598211,46.328782,terminals
Göytəpə şəhər xəstəxanası,Göytəpə şəhər xəstəxanası,39.116789,48.601152,terminals
Hacıqabul Rayon Mərkəzi Xəstəxanası,Hacıqabul Rayon Mərkəzi Xəstəxanası,40.031429,48.932229,terminals
İmişli Rayon Mərkəzi Xəstəxanası,İmişli Rayon Mərkəzi Xəstəxanası,39.861672,48.069774,terminals
İsmayıllı Rayon Mərkəzi Xəstəxanası,İsmayıllı Rayon Mərkəzi Xəstəxanası,40.780922,48.159235,terminals
K.Y.Fərəcova adına Elmi-Tədqiqat Pediatriya İnstitutu,"Bəsti Bağırova küç., K.Y.Fərəcova adına Elmi-Tədqiqat Pediatriya İnstitutu",40.384550,49.826568,terminals
Kliniki Tibbi Mərkəzi,"Nəsimi r, 1 Mirqasımov küç, Kliniki Tibbi Mərkəzi(Semashko)",40.394408,49.835035,terminals
Kliniki Tibbi Mərkəzi,"Nəsimi r, 1 Mirqasımov küç, Kliniki Tibbi Mərkəzi(Semashko)",40.394408,49.835035,terminals
Kliniki Tibbi Mərkəzi,"Nəsimi ray., 1 Mirqasımov küç, Kliniki Tibbi Mərkəzi(Semaşko)",40.394408,49.835035,terminals
Kürdəmir Rayon Mərkəzi Xəstəxanası,Kürdəmir Rayon Mərkəzi Xəstəxanası,40.355613,48.159308,terminals
Lerik Rayon Mərkəzi Xəstəxanası,Lerik Rayon Mərkəzi Xəstəxanası,38.774630,48.417656,terminals
Lənkəran Müalicə Diaqnostika Mərkəzi,Lənkəran Müalicə Diaqnostika Mərkəzi,38.782374,48.841254,terminals
Lənkəran Rayon Mərkəzi Xəstəxanası,Lənkəran Rayon Mərkəzi Xəstəxanası,38.753682,48.849797,terminals
M.A.Topçubaşov adına Elmi Cərrahiyyə Mərkəzi,"Şərifzadə küç., M.A.Topçubaşov adına Elmi Cərrahiyyə Mərkəzi",40.395629,49.804557,terminals
M.A.Topçubaşov adına Elmi Cərrahiyyə Mərkəzi,"196 Abbas Mirzə Şərifzadə küç., M.A.Topçubaşov adına Elmi Cərrahiyyə Mərkəzi (Günəş Petrol, Hiçama Mərkəzi)",40.395629,49.804557,terminals
Masallı Rayon Mərkəzi Xəstəxanası,Masallı Rayon Mərkəzi Xəstəxanası,39.026323,48.682835,terminals
Mərkəzi Neftcilər Xəstəxanası,"Yusif Səfərov küç.,Mərkəzi Neftcilər Xəstəxanası",40.381092,49.863999,terminals
Mərkəzi Neftcilər Xəstəxanası,"Yusif Səfərov küç.,Mərkəzi Neftcilər Xəstəxanası",40.381092,49.863999,terminals
Mingəçevir Rayon Mərkəzi Xəstəxanası,Mingəçevir Rayon Mərkəzi Xəstəxanası,40.760358,47.048937,terminals
Naftalan Şəhər Mərkəzi Xəstəxanası,Naftalan Şəhər Mərkəzi Xəstəxanası,40.509340,46.816131,terminals
Neftçala Rayon Mərkəzi Xəstəxanası,Neftçala Rayon Mərkəzi Xəstəxanası,39.374983,49.239415,terminals
Oğuz Rayon Mərkəzi Xəstəxanası,Oğuz Rayon Mərkəzi Xəstəxanası,41.059332,47.464521,terminals
Qarayev adına 2 nömrəli Uşaq Xəstəxanası,"S.Vurğun küç., 956 məhəllə, Qarayev adına 2 nömrəli Uşaq Xəstəxanası",40.393656,49.833317,terminals
Qarayev adına 2 nömrəli Uşaq Xəstəxanası,"S.Vurğun küç., 956 məhəllə, Qarayev adına 2 nömrəli Uşaq Xəstəxanası",40.393656,49.833317,terminals
Qax Rayon Mərkəzi Xəstəxanası,Qax Rayon Mərkəzi Xəstəxanası,41.416404,46.932229,terminals
Qazax Müalicə Diaqnostika Mərkəzi,Qazax Müalicə Diaqnostika Mərkəzi,41.092279,45.347997,terminals
Qəbələ Müalicə Diaqnostika Mərkəzi,Qəbələ Müalicə Diaqnostika Mərkəzi,40.967384,47.840323,terminals
Qəbələ Rayon Mərkəzi Xəstəxanası,Qəbələ Rayon Mərkəzi Xəstəxanası,40.967753,47.840789,terminals
Qobustan Rayon Mərkəzi Xəstəxanası,Qobustan Rayon Mərkəzi Xəstəxanası,40.531216,48.937023,terminals
Quba Müalicə Diaqnostika Mərkəzi,Quba Müalicə Diaqnostika Mərkəzi,41.362346,48.568171,terminals
Quba Regional Perinatal Mərkəzi,Quba Regional Perinatal Mərkəzi,41.362531,48.511252,terminals
Qubadlı Rayon Mərkəzi Xəstəxanası,Qubadlı Rayon Mərkəzi Xəstəxanası (Sumqayıt),40.598494,49.666173,terminals
Respublika Neyrocərrahiyyə Xəstəxanası,Respublika Neyrocərrahiyyə Xəstəxanası (Radiozavod yax),40.372219,49.942488,terminals
Respublika Neyrocərrahiyyə Xəstəxanası,"Əhmədli qəs., Respublika Neyrocərrahiyyə Xəstəxanası(Radiozavod)",40.372219,49.942488,terminals
Respublika Perinatal Mərkəzi,"Yusif Səfərov küç., Respublika Perinatal Mərkəzi",40.380044,49.864927,terminals
Respublika Uşaq Klinik Xəstəxanası,"Yasamal ray., Həsənbəy Zərdabi, (Onkologiya mərkəzinin yanı), Respublika Uşaq Klinik Xəstəxanası",40.401748,49.805812,terminals
Saatlı Rayon Mərkəzi Xəstəxanası,Saatlı Rayon Mərkəzi Xəstəxanası,39.919824,48.352880,terminals
Şabran Rayon Mərkəzi Xəstəxanası,Şabran Rayon Mərkəzi Xəstəxanası,41.211212,48.994966,terminals
Salyan Rayon Mərkəzi Xəstəxanası,Salyan Rayon Mərkəzi Xəstəxanası,39.578450,48.981458,terminals
Şamaxı Müalicə Diaqnostika Mərkəzi,Şamaxı Müalicə Diaqnostika Mərkəzi,40.614871,48.664458,terminals
Şamaxı Rayon Mərkəzi Xəstəxanası,Şamaxı Rayon Mərkəzi Xəstəxanası,40.638489,48.643880,terminals
Samux Rayon Mərkəzi Xəstəxanası,Samux Rayon Mərkəzi Xəstəxanası,40.763640,46.402019,terminals
Şəki Regional Perinatal Mərkəzi,Şəki Regional Perinatal Mərkəzi,41.196057,47.175966,terminals
Şəmkir rayon Mərkəzi Xəstəxanası,Şəmkir rayon Mərkəzi Xəstəxanası,40.830031,46.017904,terminals
Şirvan Müalicə Diaqnostika Mərkəzi,Şirvan Müalicə Diaqnostika Mərkəzi,39.967486,48.949797,terminals
Şirvan Şəhər Mərkəzi Xəstəxanası,Şirvan Şəhər Mərkəzi Xəstəxanası,39.951870,48.936824,terminals
Siyəzən Müalicə-Diaqnostika Mərkəzi,Siyəzən Müalicə-Diaqnostika Mərkəzi,41.077334,49.114171,terminals
Siyəzən Rayon Mərkəzi Poliklinikası,Siyəzən Rayon Mərkəzi Poliklinikası,41.080187,49.111566,terminals
Sumqayıt Şəhər Təcili Tibbi Yardım Xəstəxanası,"Sumqayıt şəh, Mehdi Hüseynzadə küç, Sumqayıt Şəhər Təcili Tibbi Yardım Xəstəxanası",40.598607,49.665652,terminals
Sumqayıt Şəhər Uşaq Xəstəxanası,Sumqayıt Şəhər Uşaq Xəstəxanası,40.600107,49.666846,terminals
Sumqayıt Şəhər Uşaq Xəstəxanası,Nizami küç. Sumqayıt Şəhər Uşaq Xəstəxanası (Park Palas yaxınlığında),40.600048,49.666681,terminals
Şuşa Rayon Mərkəzi Xəstəxanası,"Yasamal, Əsəd Əhmədov, Şuşa Rayon Mərkəzi Xəstəxanası (Eksperemental xəstəxananın yanı)",40.394047,49.803799,terminals
Talasemiya merkezi,"Nərimanov r. Fətəli Xan Xoysk küç,Talasemiya merkezi(Gənclik şadlıq sarayının yanı)",40.402011,49.862103,terminals
Tərtər Rayon Mərkəzi Xəstəxanası,Tərtər Rayon Mərkəzi Xəstəxanası,40.338164,46.926285,terminals
Tovuz Rayon Mərkəzi Xəstəxanası,Tovuz Rayon Mərkəzi Xəstəxanası,40.989809,45.609014,terminals
Ucar Rayon Mərkəzi Xəstəxanası,Ucar Rayon Mərkəzi Xəstəxanası,40.511356,47.664866,terminals
Uşaq Nevroloji Xəstəxanası,"Yasamal, 95 Tağı Şahbazi, Uşaq Nevroloji Xəstəxanası (Statistika)",40.382334,49.820463,terminals
Xaçmaz Rayon Mərkəzi Xəstəxanası,Xaçmaz Rayon Mərkəzi Xəstəxanası,41.461772,48.798612,terminals
Xızı Rayon Mərkəzi Xəstəxanası,Xızı Rayon Mərkəzi Xəstəxanası,40.911784,49.072104,terminals
