Name,lat,lon,location_type,phone,address,working_hours,map_link
Bravo Əhmədli,40.375065,49.944519,Hiper,+994 12 404 27 16,Ramiz Quliyev küçəsi 4,24/7,"https://www.google.com/maps/dir/?api=1&origin=&destination=40.375065,49.944519&travelmode=driver"
Bravo Koroğlu m/s,40.418194,49.913635,Hiper,+994 12 404 09 89,Heydər Əliyev prospekti 172,24/7,"https://www.google.com/maps/dir/?api=1&origin=&destination=40.418194,49.913635&travelmode=driver"
Bravo 20 Yanvar m/s,40.401619,49.811024,Hiper,+994 12 525 20 08,Tbilisi Prospekti 3007,24/7,"https://www.google.com/maps/dir/?api=1&origin=&destination=40.401619,49.811024&travelmode=driver"
Bravo Gənclik Mall,40.400177,49.852364,Super,+994 12 525 20 08,Fətəli Xan Xoyski prospekti 14,9:00 - 23:00,"https://www.google.com/maps/dir/?api=1&origin=&destination=40.400177,49.852364&travelmode=driver"
Bravo Xətai m/s,40.387726,49.874157,Hiper,+994 12 525 20 08,Babak prospekti,24/7,"https://www.google.com/maps/dir/?api=1&origin=&destination=40.387726,49.874157&travelmode=driver"
Bravo 28 Mall,40.379128,49.846539,Super,+994 12 525 20 08,Azadlıq prospekti 15А,09:00 - 23:00,"https://www.google.com/maps/dir/?api=1&origin=&destination=40.379128,49.846539&travelmode=driver"
Bravo Əsəd Əhmədov küç.,40.393997,49.795109,Super,+994 12 525 20 08,Əsəd Əhmədov küçəsi (Yeni Yasamal yaşayış massivi),24/7,"https://www.google.com/maps/dir/?api=1&origin=&destination=40.393997,49.795109&travelmode=driver"
Bravo Şəmkir,40.853363,46.031227,Super,+994 12 525 20 08,Bakı-Qazax şossesi 406-cı km,07:00 - 02:00,"https://www.google.com/maps/dir/?api=1&origin=&destination=40.853363,46.031227&travelmode=driver"
Bravo 8 Noyabr pr.,40.373058,49.926048,Super,+994 12 525 20 08,8 noyabr pr. 102B,08:00 - 02:00,"https://www.google.com/maps/dir/?api=1&origin=&destination=40.373058,49.926048&travelmode=driver"
Bravo Mərdəkan şossesi,40.462429,50.082314,Super,+994 12 525 20 08,Mərdəkan Şosesi,07:00 - 02:00,"https://www.google.com/maps/dir/?api=1&origin=&destination=40.462429,50.082314&travelmode=driver"
Bravo Yeni Günəşli,40.386593,49.975250,Super,+994 12 525 20 08,İlqar Musayev küçəsi,07:00 - 02:00,"https://www.google.com/maps/dir/?api=1&origin=&destination=40.386593,49.975250&travelmode=driver"
Bravo Ramiz Qəmbərov küç.,40.412334,49.954147,Super,+994 12 525 20 08,"Bakıxanov qəsəbəsi, Ramiz Qəmbərov küçəsi 2566",08:00 - 02:00,"https://www.google.com/maps/dir/?api=1&origin=&destination=40.412334,49.954147&travelmode=driver"
Bravo Sumqayıt,40.573364,49.691227,Super,+994 12 525 20 08,Üzeyir Hacıbəyov küçəsi 2,08:00 - 02:00,"https://www.google.com/maps/dir/?api=1&origin=&destination=40.573364,49.691227&travelmode=driver"
Bravo Şövkət Məmmədova küç.,40.419731,49.846649,Super,+994 12 525 20 08,Şövkət Məmmədova küçəsi 2,24/7,"https://www.google.com/maps/dir/?api=1&origin=&destination=40.419731,49.846649&travelmode=driver"
Bravo 20-ci sahə,40.329807,49.818363,Super,+994 12 525 20 08,Şahlar Allahverdiyev küçəsi 6B,24/7,"https://www.google.com/maps/dir/?api=1&origin=&destination=40.329807,49.818363&travelmode=driver"
Bravo Lökbatan,40.322475,49.732838,Super,+994 12 525 20 08,"Lökbatan qəsəbəsi, 28 May küçəsi",24/7,"https://www.google.com/maps/dir/?api=1&origin=&destination=40.322475,49.732838&travelmode=driver"
Bravo Mirəsədulla Mirqasımov küç.,40.395706,49.840885,Market,+994 12 525 20 08,Mirəsədulla Mirqasımov küçəsi,08:00 - 23:00,"https://www.google.com/maps/dir/?api=1&origin=&destination=40.395706,49.840885&travelmode=driver"
Bravo Gəncə Mall,40.677006,46.359890,Market,+994 12 525 20 08,"Heydər Əliyev prospekti 433, Gəncə Mall 1-ci mərtəbə",09:00 - 23:00,"https://www.google.com/maps/dir/?api=1&origin=&destination=40.677006,46.359890&travelmode=driver"
Bravo Şüvəlan,40.486343,50.166718,Super,+994 12 525 20 08,"Şüvəlan qəsəbəsi, Polis Akademiyasının yaxınlığı",,"https://www.google.com/maps/dir/?api=1&origin=&destination=40.486343,50.166718&travelmode=driver"
Bravo Xırdalan,40.450523,49.744705,Market,+994 12 525 20 08,Heydər Əliyev prospekti,07:00 - 02:00,"https://www.google.com/maps/dir/?api=1&origin=&destination=40.450523,49.744705&travelmode=driver"
"Bravo ""Park Azure"" yaşayış kompleksi",40.379177,49.875526,Market,+994 12 525 22 28,Afiyəddin Cəlilov küçəsi 27A,07:00 - 02:00,"https://www.google.com/maps/dir/?api=1&origin=&destination=40.379177,49.875526&travelmode=driver"
Bravo Globus Center,40.385128,49.828129,Market,+994 12 525 22 28,Cəfər Cabbarlı küçəsi 609,07:00 - 23:00,"https://www.google.com/maps/dir/?api=1&origin=&destination=40.385128,49.828129&travelmode=driver"
Bravo Dəniz Mall,40.358597,49.838146,Market,+994 12 525 20 08,"Neftçilər prospekti 26A, Dəniz Mall 1-ci mərtəbəsi",09:00 - 23:00 (only in summer 09:00 - 02:00),"https://www.google.com/maps/dir/?api=1&origin=&destination=40.358597,49.838146&travelmode=driver"
"Bravo ""Sabah Residence"" yaşayış kompleksi",40.350815,49.832806,Market,+994 12 525 20 08,Xanlar Əliyev küçəsi 10,07:00 - 02:00,"https://www.google.com/maps/dir/?api=1&origin=&destination=40.350815,49.832806&travelmode=driver"
"Bravo ""Bağçalı şəhər"" yaşayış kompleksi",40.574696,49.643204,Market,+994 12 525 20 08,"Sumqayıt şəhəri, Sülh küçəsi 20B",08:00 - 23:00,"https://www.google.com/maps/dir/?api=1&origin=&destination=40.574696,49.643204&travelmode=driver"
Bravo Zefir Mall,40.376522,49.793922,Market,+994 12 525 20 08,"Xarici Dairəvi Yol 8, Zefir Mall 1-ci mərtəbə",09:00 - 23:00,"https://www.google.com/maps/dir/?api=1&origin=&destination=40.376522,49.793922&travelmode=driver"
"Bravo ""Şokolad Tower"" yaşayış kompleksi",40.380783,49.809059,Market,+994 12 525 20 08,Həsən bəy Zərdabi prospekti,07:00 - 02:00,"https://www.google.com/maps/dir/?api=1&origin=&destination=40.380783,49.809059&travelmode=driver"
Bravo Məhəmməd Hadi küç.,40.388016,49.955494,Market,+994 12 525 20 08,Məhəmməd Hadi küçəsi 2320,07:00 - 23:00,"https://www.google.com/maps/dir/?api=1&origin=&destination=40.388016,49.955494&travelmode=driver"
Bravo Əsəd Əhmədov küç.22,40.388050,49.787800,Market,+994 12 525 20 08,"Əsəd Əhmədov küçəsi, Xarici Dairəvi yol 22",07:00 - 23:00,"https://www.google.com/maps/dir/?api=1&origin=&destination=40.388050,49.787800&travelmode=driver"
Bravo Şüvəlan Park,40.484509,50.183918,Market,+994 12 525 20 08,Almas İldırım küçəsi 68,09:00 - 23:00 (only in summer 09:00 - 00:00),"https://www.google.com/maps/dir/?api=1&origin=&destination=40.484509,50.183918&travelmode=driver"
Bravo Gəncə Avtovağzal,40.701084,46.321404,Market,+994 12 525 20 08,Gəncə-Şəmkir şossesi sağ tərəfi,08:00 - 23:00,"https://www.google.com/maps/dir/?api=1&origin=&destination=40.701084,46.321404&travelmode=driver"
Bravo Amburan Mall,40.588303,50.058319,Market,+994 12 525 20 08,"Bilgəh qəsəbəsi, Amburan Mall 1-ci mərtəbəsi",09:00 - 23:00 (only in summer 24/7),"https://www.google.com/maps/dir/?api=1&origin=&destination=40.588303,50.058319&travelmode=driver"
"Bravo ""Şərifzadə Center"" yaşayış kompleksi",40.383671,49.804050,Market,+994 12 525 20 08,Abbas Mirzə Şərifzadə küçəsi 380A,07:00 - 02:00,"https://www.google.com/maps/dir/?api=1&origin=&destination=40.383671,49.804050&travelmode=driver"
Bravo Mir Cəlal küç.,40.412987,49.804237,Market,+994 12 404 04 80,"4-cü mkr, Mir Cəlal küçəsi 2A",08:00-23:00,"https://www.google.com/maps/dir/?api=1&origin=&destination=40.412987,49.804237&travelmode=driver"
Bravo Səməd Vurğun küç.,40.386280,49.837585,Market,+994 12 525 20 08,Səməd Vurğun küçəsi,07:00 - 02:00,"https://www.google.com/maps/dir/?api=1&origin=&destination=40.386280,49.837585&travelmode=driver"
Bravo A.M.Şərifzadə küç.,40.398560,49.801273,Market,+994 12 525 20 08,"Abbas Mirzə Şərifzadə Küçəsi 231-233, 2 saylı Bakı Tibb kollecinin yaxınlığında",07:00 - 02:00,"https://www.google.com/maps/dir/?api=1&origin=&destination=40.398560,49.801273&travelmode=driver"
Bravo Qış Parkı,40.376831,49.835712,Market,+994 12 525 20 08,"Məhəmməd Füzuli küçəsi, Qış parkı ilə üzbəüz",24/7,"https://www.google.com/maps/dir/?api=1&origin=&destination=40.376831,49.835712&travelmode=driver"
Bravo Babək pr.,40.394787,49.963158,Market,+994 12 404 04 80,"Babək prospekti 94, Sərhədçi İdman kompleksinin yaxınlığı",07:00 - 02:00,"https://www.google.com/maps/dir/?api=1&origin=&destination=40.394787,49.963158&travelmode=driver"
"Bravo ""Qəsr"" yaşayış kompleksi",40.484016,49.757584,Market,+994 12 525 20 08,"Masazır qəsəbəsi, Əliağa Vahid küçəsi 281",08:00 - 23:00,"https://www.google.com/maps/dir/?api=1&origin=&destination=40.484016,49.757584&travelmode=driver"
Bravo Azadlıq pr.,40.401787,49.837296,Market,+994 12 404 04 80,"Nərimanov rayonu, Azadlıq prospekti 145",24/7,"https://www.google.com/maps/dir/?api=1&origin=&destination=40.401787,49.837296&travelmode=driver"
Bravo İstanbul Evləri,40.416210,49.840031,Market,+994 12 404 04 80,"Binəqədi rayonu, Əcəmi Naxçıvani küçəsi 39L",07:00 - 02:00,"https://www.google.com/maps/dir/?api=1&origin=&destination=40.416210,49.840031&travelmode=driver"
Bravo Fətəli xan Xoyski küç.,40.403156,49.864838,Market,+994 12 525 20 08,"Fətəli xan Xoyski küçəsi, 5 №-li xəstəxana yaxınlığı",24/7,"https://www.google.com/maps/dir/?api=1&origin=&destination=40.403156,49.864838&travelmode=driver"
"Bravo ""Renessance Palace"" yaşayış kompleksi",40.384518,49.812393,Market,+994 12 525 20 08,Zahid Xəlilov Küçəsi 576,08:00 - 23:00,"https://www.google.com/maps/dir/?api=1&origin=&destination=40.384518,49.812393&travelmode=driver"
"Bravo ""Park Xətai"" yaşayış kompleksi",40.365807,49.959637,Market,+994 12 525 20 08,Gəncə prospekti 2942A,07:00 - 02:00,"https://www.google.com/maps/dir/?api=1&origin=&destination=40.365807,49.959637&travelmode=driver"
"Bravo ""Whitestone"" yaşayış kompleksi",40.391796,49.860645,Market,+994 12 525 20 08,Qarabağ küçəsi 68,08:00 - 23:00,"https://www.google.com/maps/dir/?api=1&origin=&destination=40.391796,49.860645&travelmode=driver"
"Bravo ""Roseville"" yaşayış kompleksi",40.390942,49.849545,Market,+994 12 525 20 08,Kazım Kazımzadə küçəsi 30,08:00 - 23:00,"https://www.google.com/maps/dir/?api=1&origin=&destination=40.390942,49.849545&travelmode=driver"
Bravo Sabit Orucov küç.,40.380573,49.866737,Market,+994 12 525 20 08,Sabit Orucov küçəsi 13,07:00 - 23:00,"https://www.google.com/maps/dir/?api=1&origin=&destination=40.380573,49.866737&travelmode=driver"
"Bravo Yasamal ""Asan Xidmət""",40.378220,49.804775,Market,+994 12 525 20 08,Abbas Mirzə Şərifzadə küçəsi 66,08:00 - 23:00,"https://www.google.com/maps/dir/?api=1&origin=&destination=40.378220,49.804775&travelmode=driver"
Bravo Bakıxanov Mall,40.432003,49.954494,Market,+994 12 525 20 08,"Bakıxanov qəsəbəsi, Yavər Əliyev küçəsi 132",08:00 - 23:00,"https://www.google.com/maps/dir/?api=1&origin=&destination=40.432003,49.954494&travelmode=driver"
Bravo Məsud Davudoğlu küç.,40.421780,49.835938,Market,+994 12 525 20 08,İsmayıl Dağıstanlı küçəsi 32 (Məsud Davudoğlu küçəsi),08:00 - 23:00,"https://www.google.com/maps/dir/?api=1&origin=&destination=40.421780,49.835938&travelmode=driver"
Bravo Elşən Süleymanov küç.,40.409325,49.956383,Ekspres,+994 12 525 20 08,Elşən Süleymanov küçəsi 137A,08:00 - 02:00,"https://www.google.com/maps/dir/?api=1&origin=&destination=40.409325,49.956383&travelmode=driver"
Bravo Yavər Əliyev küç.,40.437290,49.959236,Market,+994 12 525 20 08,Yavər Əliyev küçəsi 10,08:00 - 23:00,"https://www.google.com/maps/dir/?api=1&origin=&destination=40.437290,49.959236&travelmode=driver"
Bravo Təbriz küç.,40.393024,49.857925,Market,+994 12 525 20 08,Təbriz küçəsi 41,07:00 - 02:00,"https://www.google.com/maps/dir/?api=1&origin=&destination=40.393024,49.857925&travelmode=driver"
Bravo Bilgəh,40.554775,50.022442,Market,+994 12 525 20 08,"Nardaran qəsəbəsi, Azərbaycan Qadını küçəsi",09:00 - 23:00 (only in summer 24/7),"https://www.google.com/maps/dir/?api=1&origin=&destination=40.554775,50.022442&travelmode=driver"
Bravo Savalan,40.506317,49.974953,Market,+994 12 525 20 08,Zabrat - Maştağa şossesi 14,08:00 - 02:00,"https://www.google.com/maps/dir/?api=1&origin=&destination=40.506317,49.974953&travelmode=driver"
Bravo Adil İsgəndərov küç.,40.677341,46.371674,Market,+994 12 525 20 08,"Gəncə şəhəri, Adil İsgəndərov küçəsi 2",24/7,"https://www.google.com/maps/dir/?api=1&origin=&destination=40.677341,46.371674&travelmode=driver"
Bravo Adil Məmmədov küç.,40.421795,49.809044,Market,+994 12 525 20 08,Adil Məmmədov küçəsi 42C,08:00 - 23:00,"https://www.google.com/maps/dir/?api=1&origin=&destination=40.421795,49.809044&travelmode=driver"
Bravo Xəqani küç.,40.374973,49.850178,Ekspres,+994 12 525 20 08,Xaqani küçəsi 26/32,07:00-23:00,"https://www.google.com/maps/dir/?api=1&origin=&destination=40.374973,49.850178&travelmode=driver"
Bravo Bülbül küç.,40.374413,49.843643,Ekspres,+994 12 525 20 08,Bülbül prospekti 18,24/7,"https://www.google.com/maps/dir/?api=1&origin=&destination=40.374413,49.843643&travelmode=driver"
"Bravo ""Life Center"" yaşayış kompleksi",40.403027,49.867691,Ekspres,+994 12 525 20 08,"Nərimanov rayonu, Əhməd Rəcəbli prospekti",07:00 - 23:00,"https://www.google.com/maps/dir/?api=1&origin=&destination=40.403027,49.867691&travelmode=driver"
Bravo Sabunçu,40.443058,49.942692,Ekspres,+994 12 525 20 08,"Sabunçu qəsəbəsi, №3 xəstəxana yaxınlığı",08:00 - 00:00,"https://www.google.com/maps/dir/?api=1&origin=&destination=40.443058,49.942692&travelmode=driver"
"Bravo ""Rahatlıq məkanı"" yaşayış kompleksi",40.416355,49.933159,Market,+994 12 525 20 08,Əlif Hacıyev küçəsi,07:00 - 23:00,"https://www.google.com/maps/dir/?api=1&origin=&destination=40.416355,49.933159&travelmode=driver"
Bravo Axundov parkı,40.368645,49.830395,Ekspres,+994 12 525 20 08,Əhməd Cavad küçəsi 3,08:00-02:00,"https://www.google.com/maps/dir/?api=1&origin=&destination=40.368645,49.830395&travelmode=driver"
"Bravo ""Azinko"" yaşayış kompleksi",40.406548,49.876183,Ekspres,+994 12 525 20 08,Əliyar Əliyev küçəsi 26,07:00 - 02:00,"https://www.google.com/maps/dir/?api=1&origin=&destination=40.406548,49.876183&travelmode=driver"
Bravo M.K.Atatürk pr.,40.408398,49.847549,Ekspres,+994 12 525 20 08,Mustafa Kamal Atatürk prospekti 27,24/7,"https://www.google.com/maps/dir/?api=1&origin=&destination=40.408398,49.847549&travelmode=driver"
Bravo Surxay Cabbarov küç.,40.417351,49.966877,Ekspres,+994 12 525 20 08,Surxay Cabbarov küçəsi 2B,08:00 - 22:00,"https://www.google.com/maps/dir/?api=1&origin=&destination=40.417351,49.966877&travelmode=driver"
"Bravo ""Bakı Tennis Akademiyası""",40.422466,49.842594,Ekspres,+994 12 525 20 08,"8-ci mkr, İbrahimpaşa Dadaşov küçəsi",07:00 - 23:00,"https://www.google.com/maps/dir/?api=1&origin=&destination=40.422466,49.842594&travelmode=driver"
Bravo Məhəmməd Xiyabani küç.,40.399067,49.792599,Ekspres,+994 12 525 20 08,Məhəmməd Xiyabani küçəsi 202A,08:00 - 23:00,"https://www.google.com/maps/dir/?api=1&origin=&destination=40.399067,49.792599&travelmode=driver"
Bravo Sumqayıt Dəmiryol st.,40.561970,49.681252,Ekspres,+994 12 525 20 08,Sumqayıt Dəmiryolu stanstiyası,07:00 - 23:00,"https://www.google.com/maps/dir/?api=1&origin=&destination=40.561970,49.681252&travelmode=driver"
Bravo Hüseyn Seyidzadə küç.,40.415878,49.819038,Ekspres,+994 12 525 20 08,Hüseyn Seyidzadə küçəsi 56,08:00 - 23:00,"https://www.google.com/maps/dir/?api=1&origin=&destination=40.415878,49.819038&travelmode=driver"
Bravo Xalqlar Dostluğu m/s,40.402592,49.955204,Ekspres,+994 12 525 20 08,Bəhruz Nuriyev küçəsi 2383,08:00 - 23:00,"https://www.google.com/maps/dir/?api=1&origin=&destination=40.402592,49.955204&travelmode=driver"
Bravo Cəmşid Naxçıvanski küç.,40.406052,49.949257,Ekspres,+994 12 525 20 08,Cəmşid Naxçıvanski küçəsi 51,08:00 - 23:00,"https://www.google.com/maps/dir/?api=1&origin=&destination=40.406052,49.949257&travelmode=driver"
Bravo Binəqədi,40.430470,49.850700,Ekspres,+994 12 525 20 08,"Binəqədi rayonu, Xarici Dairəvi küçəsi 16C",08:00 -23:00,"https://www.google.com/maps/dir/?api=1&origin=&destination=40.430470,49.850700&travelmode=driver"
Bravo Gəncə Dəmiryol st.,40.713882,46.367138,Ekspres,+994 12 525 20 08,Zülfü Hacıyev küçəsi 8,08:00 - 22:00,"https://www.google.com/maps/dir/?api=1&origin=&destination=40.713882,46.367138&travelmode=driver"
Bravo Sabunçu Dəmiryol st.,40.446301,49.946194,Ekspres,+994 12 525 20 08,Əsildar Məmmədəliyev küçəsi,07:00 - 23:00,"https://www.google.com/maps/dir/?api=1&origin=&destination=40.446301,49.946194&travelmode=driver"
Bravo Gəncə pr.,40.358143,49.961662,Ekspres,+994 12 525 20 08,"Əhmədli qəsəbəsi, Gəncə prospekti",08:00 - 23:00,"https://www.google.com/maps/dir/?api=1&origin=&destination=40.358143,49.961662&travelmode=driver"
Bravo Əbdülvahab Salamzadə küç.,40.393284,49.810108,Ekspres,+994 12 525 20 08,Əbdülvahab Salamzadə küçəsi 7,08:00 - 23:00,"https://www.google.com/maps/dir/?api=1&origin=&destination=40.393284,49.810108&travelmode=driver"
Bravo Zahid Xəlilov küç.,40.379364,49.811714,Ekspres,+994 12 525 20 08,Zahid Xəlilov küçəsi 568,08:00 - 23:00,"https://www.google.com/maps/dir/?api=1&origin=&destination=40.379364,49.811714&travelmode=driver"
"Bravo ""Rifah Plaza"" yaşayış kompleksi",40.394775,49.838371,Ekspres,+994 12 525 20 08,Mirəsədulla Mirqasımov küçəsi 8,07:00 - 23:00,"https://www.google.com/maps/dir/?api=1&origin=&destination=40.394775,49.838371&travelmode=driver"
Bravo 20 Yanvar küç.,40.412437,49.809032,Ekspres,+994 12 525 20 08,"Nəsimi rayonu, 20 Yanvar Küçasi",08:00 - 23:00,"https://www.google.com/maps/dir/?api=1&origin=&destination=40.412437,49.809032&travelmode=driver"
Bravo Sahil m/s,40.373371,49.844433,Ekspres,+994 12 525 20 08,Xəqani küçəsi 21,07:00 - 02:00,"https://www.google.com/maps/dir/?api=1&origin=&destination=40.373371,49.844433&travelmode=driver"
Bravo Ceyhun Hacıbəyli küç.,40.385174,49.848789,Ekspres,+994 12 525 20 08,Ceyhun Hacıbəyli küçəsi 8,08:00 - 23:00,"https://www.google.com/maps/dir/?api=1&origin=&destination=40.385174,49.848789&travelmode=driver"
Bravo Svetlana Məmmədova küç.,40.424446,49.823261,Ekspres,+994 12 525 20 08,Svetlana Məmmədova küçəsi 122,07:00 - 02:00,"https://www.google.com/maps/dir/?api=1&origin=&destination=40.424446,49.823261&travelmode=driver"
"Bravo ""Park Bayıl"" yaşayış kompleksi",40.344589,49.838936,Ekspres,+994 12 525 20 08,Qurban Abbasov küçəsi 27,08:00 - 23:00,"https://www.google.com/maps/dir/?api=1&origin=&destination=40.344589,49.838936&travelmode=driver"
"Bravo ""Sea Breeze"" yaşayış kompleksi",40.587234,49.985023,Ekspres,+994 12 525 20 08,"Nardaran qəsəbəsi, ""Sea Breeze"" yaşayış kompleksi",24/7,"https://www.google.com/maps/dir/?api=1&origin=&destination=40.587234,49.985023&travelmode=driver"
Bravo 20 Yanvar m/s,40.403976,49.806622,Ekspres,+994 12 525 20 08,Həsən bəy Zərdabi prospekti 811,07:00 - 23:00,"https://www.google.com/maps/dir/?api=1&origin=&destination=40.403976,49.806622&travelmode=driver"
Bravo Azərbaycan pr.,40.372826,49.832901,Ekspres,+994 12 525 20 08,Azərbaycan prospekti 23,08:00 - 23:00,"https://www.google.com/maps/dir/?api=1&origin=&destination=40.372826,49.832901&travelmode=driver"
Bravo Əliəşrəf Əlizadə küç.,40.411240,49.870834,Ekspres,+994 12 525 20 08,Əliəşrəf Əlizadə küçəsi 65,08:00 - 23:00,"https://www.google.com/maps/dir/?api=1&origin=&destination=40.411240,49.870834&travelmode=driver"
Bravo Cavadxan küç.,40.419746,49.818203,Ekspres,+994 12 525 20 08,Cavadxan küçəsi 4A,08:00 - 23:00,"https://www.google.com/maps/dir/?api=1&origin=&destination=40.419746,49.818203&travelmode=driver"
Bravo Bəşir Səfəroğlu küç.,40.373669,49.833820,Ekspres,+994 12 525 20 08,Təbriz Xəlilbəyli küçəsi 31A,24/7,"https://www.google.com/maps/dir/?api=1&origin=&destination=40.373669,49.833820&travelmode=driver"
Bravo Bəkir Çobanzadə küç.,40.411163,49.931221,Ekspres,+994 12 525 20 08,Bəkir Çobanzada küçəsi 46A,08:00 - 23:00,"https://www.google.com/maps/dir/?api=1&origin=&destination=40.411163,49.931221&travelmode=driver"
"Bravo ""Park City"" yaşayış kompleksi",40.410393,49.950638,Ekspres,+994 12 525 20 08,Rüstəm Rüstəmov küçəsi 72A,08:00 - 22:00,"https://www.google.com/maps/dir/?api=1&origin=&destination=40.410393,49.950638&travelmode=driver"
Bravo Akim Abbasov küç.,40.385593,49.804523,Ekspres,+994 12 525 20 08,General Akim Abbasov küçəsi 1,08:00 - 23:00,"https://www.google.com/maps/dir/?api=1&origin=&destination=40.385593,49.804523&travelmode=driver"
Bravo Sabit Rəhman küç.,40.399803,49.833710,Ekspres,+994 12 525 20 08,Sabit Rəhman küçəsi 82B,08:00 - 23:00,"https://www.google.com/maps/dir/?api=1&origin=&destination=40.399803,49.833710&travelmode=driver"
Bravo Məhəmməd Hadi küç. 136,40.390984,49.953701,Ekspres,+994 12 525 20 08,Məhəmməd Hadi küçəsi 136A,08:00 - 23:00,"https://www.google.com/maps/dir/?api=1&origin=&destination=40.390984,49.953701&travelmode=driver"
"Bravo ""Çinar Park"" yaşayış kompleksi",40.415352,49.857815,Ekspres,+994 12 525 20 08,Ziya Bünyadov prospekti 1965,07:30 - 23:00,"https://www.google.com/maps/dir/?api=1&origin=&destination=40.415352,49.857815&travelmode=driver"
Bravo M.F.Axundov küç.,40.383011,49.825718,Ekspres,+994 12 525 20 08,Mirzə Fətəli Axundov küçəsi 179,08:00 - 02:00,"https://www.google.com/maps/dir/?api=1&origin=&destination=40.383011,49.825718&travelmode=driver"
Bravo Nəsimi küç.,40.414333,49.945320,Ekspres,+994 12 525 20 08,"Nizami rayonu, Nəsimi küçəsi 214",07:00 - 23:00,"https://www.google.com/maps/dir/?api=1&origin=&destination=40.414333,49.945320&travelmode=driver"
Bravo Kürdəxanı,40.539192,49.923313,Ekspres,+994 12 525 20 08,Tofiq Tağızadə küçəsi 16,08:00 - 23:00,"https://www.google.com/maps/dir/?api=1&origin=&destination=40.539192,49.923313&travelmode=driver"
Bravo Süleyman Vəzirov küç.,40.383778,49.870468,Ekspres,+994 12 525 20 08,Xocalı Prospekti 29,08:00 - 23:00,"https://www.google.com/maps/dir/?api=1&origin=&destination=40.383778,49.870468&travelmode=driver"
Bravo Səttar Bəhlulzadə küç.,40.413254,49.837021,Ekspres,+994 12 525 20 08,Səttar Bəhlulzadə küçəsi 1,07:00 - 23:00,"https://www.google.com/maps/dir/?api=1&origin=&destination=40.413254,49.837021&travelmode=driver"
Bravo A.Bakıxanov küç.,40.390858,49.845531,Ekspres,+994 12 525 20 08,Abbasqulu ağa Bakıxanov küçəsi 35-37,08:00 - 23:00,"https://www.google.com/maps/dir/?api=1&origin=&destination=40.390858,49.845531&travelmode=driver"
Bravo S.Ə.Şirvani küç.,40.392990,49.959721,Ekspres,+994 12 525 20 08,Seyid Əzim Şirvani küçəsi 29,08:00 - 23:00,"https://www.google.com/maps/dir/?api=1&origin=&destination=40.392990,49.959721&travelmode=driver"
Bravo Xan Şuşinski küç.,40.398853,49.836044,Ekspres,+994 12 525 20 08,Xan Şuşinski küçəsi,07:00 - 23:00,"https://www.google.com/maps/dir/?api=1&origin=&destination=40.398853,49.836044&travelmode=driver"
"Bravo ""Gülüstan Residence"" yaşayış kompleksi",40.380642,49.841648,Ekspres,+994 12 525 20 08,Bülbül prospekti 60,07:30 - 23:00,"https://www.google.com/maps/dir/?api=1&origin=&destination=40.380642,49.841648&travelmode=driver"
Bravo Cəlil Məmmədquluzadə küç.,40.395691,49.829384,Ekspres,+994 12 525 20 08,Cəlil Məmmədquluzadə küçəsi 998,07:00 - 23:00,"https://www.google.com/maps/dir/?api=1&origin=&destination=40.395691,49.829384&travelmode=driver"
Bravo İbrahimpaşa Dadaşov küç.,40.411991,49.843002,Ekspres,+994 12 525 20 08,İbrahimpaşa Dadaşov küçəsi 57,07:30 - 23:00,"https://www.google.com/maps/dir/?api=1&origin=&destination=40.411991,49.843002&travelmode=driver"
Bravo A.M.Şərifzadə küç. 301,40.391216,49.802288,Ekspres,+994 12 525 20 08,Abbas Mirzə Şərifzadə küçəsi 301A,07:00 - 23:00,"https://www.google.com/maps/dir/?api=1&origin=&destination=40.391216,49.802288&travelmode=driver"
Bravo Həzi Aslanov m/s,40.373547,49.953789,Ekspres,+994 12 525 20 08,Məhəmməd Hadi küçəsi 76,07:00 - 23:30,"https://www.google.com/maps/dir/?api=1&origin=&destination=40.373547,49.953789&travelmode=driver"
Bravo Hüseyn Cavid pr.,40.377781,49.815750,Ekspres,+994 12 525 20 08,Hüseyn Cavid prospekti 46,08:00 - 23:00,"https://www.google.com/maps/dir/?api=1&origin=&destination=40.377781,49.815750&travelmode=driver"
"Bravo ""Ağ şəhər"" yaşayış kompleksi",40.382687,49.880829,Ekspres,+994 12 525 20 08,Xəqani Rüstəmov küçəsi 23,07:00 - 23:00,"https://www.google.com/maps/dir/?api=1&origin=&destination=40.382687,49.880829&travelmode=driver"
Bravo Zərifə Əliyeva küç.,40.375481,49.857346,Ekspres,+994 12 525 20 08,Zərifə Əliyeva prospekti 55,07:30 - 23:00,"https://www.google.com/maps/dir/?api=1&origin=&destination=40.375481,49.857346&travelmode=driver"
Bravo Nəsib bəy Yusifbəyli küç.,40.398125,49.840244,Ekspres,+994 12 525 20 08,Nəsib bəy Yusifbəyli küçəsi 74,07:00 - 23:00,"https://www.google.com/maps/dir/?api=1&origin=&destination=40.398125,49.840244&travelmode=driver"
"Bravo ""Zümrüd Residence"" yaşayış kompleksi",40.397938,49.862251,Ekspres,+994 12 525 20 08,Ələsgər Hüseynov küçəsi 5,08:00 - 23:00,"https://www.google.com/maps/dir/?api=1&origin=&destination=40.397938,49.862251&travelmode=driver"
Bravo Mehdi Hüseynzadə küç.,40.459766,49.744411,Ekspres,+994 12 525 20 08,"Xırdalan şəhəri, Mehdi Hüseynzadə küçəsi 26",07:30 - 23:50,"https://www.google.com/maps/dir/?api=1&origin=&destination=40.459766,49.744411&travelmode=driver"
Bravo Özbəkistan küç.,40.414879,49.927147,Ekspres,+994 12 525 20 08,"Nizami rayonu, Mehdi Abbasov küçəsi 15A",08:00 - 23:00,"https://www.google.com/maps/dir/?api=1&origin=&destination=40.414879,49.927147&travelmode=driver"
Bravo Ağa Nemətulla küç.,40.407623,49.868450,Ekspres,+994 12 525 20 08,Ağa Nemətulla küçəsi 209,08:00 - 23:00,"https://www.google.com/maps/dir/?api=1&origin=&destination=40.407623,49.868450&travelmode=driver"
"Bravo ""Qurtuluş"" yaşayış kompleksi -1",40.490860,49.754726,Ekspres,+994 12 525 20 08,"Masazır qəsəbəsi, İstiqlaliyyət küçəsi",08:00 - 23:00,"https://www.google.com/maps/dir/?api=1&origin=&destination=40.490860,49.754726&travelmode=driver"
"Bravo ""Qurtuluş"" yaşayış kompleksi -2",40.486008,49.767689,Ekspres,+994 12 525 20 08,"Masazır qəsəbəsi, Qara Qarayev küçəsi 58A",08:00 - 23:00,"https://www.google.com/maps/dir/?api=1&origin=&destination=40.486008,49.767689&travelmode=driver"
Bravo Səid Rüstəmov küç.,40.368454,49.829170,Ekspres,+994 12 525 20 08,"Səbail rayonu, Həsən Abdullayev küçəsi",08:00 - 23:00,"https://www.google.com/maps/dir/?api=1&origin=&destination=40.368454,49.829170&travelmode=driver"
Bravo Hövsan,40.360592,50.078354,Ekspres,+994 12 525 20 08,"Hövsan qəsəbəsi, İlqar Əhlimanov küçasi 159D",07:30 - 23:00,"https://www.google.com/maps/dir/?api=1&origin=&destination=40.360592,50.078354&travelmode=driver"
Bravo Xırdalan -2,40.455780,49.736412,Ekspres,+994 12 525 20 08,"Xırdalan şəhəri, Heydər Əliyev prospekti 240",08:00 - 02:00,"https://www.google.com/maps/dir/?api=1&origin=&destination=40.455780,49.736412&travelmode=driver"
Bravo Üzeyir Hacıbəyov küç.,40.371468,49.842682,Ekspres,+994 12 525 20 08,"Səbail rayonu, Səməd Vurğun küçəsi 3",24/7,"https://www.google.com/maps/dir/?api=1&origin=&destination=40.371468,49.842682&travelmode=driver"
Bravo Əhmədli m/s,40.385784,49.953472,Ekspres,+994 12 525 20 08,"Xətai rayonu, Məhəmməd Hadi küçəsi182",07:00-02:00,"https://www.google.com/maps/dir/?api=1&origin=&destination=40.385784,49.953472&travelmode=driver"
Bravo Maştağa,40.531670,49.991234,Ekspres,+994 12 525 20 08,"Maştağa qəsəbəsi, Nizami küçəsi 97",08:00 - 23:00,"https://www.google.com/maps/dir/?api=1&origin=&destination=40.531670,49.991234&travelmode=driver"
Bravo Şuşa,39.758015,46.744385,Ekspres,+994 12 525 20 08,"Şuşa şəhəri, Aslan Qaraşarov küçəsi",08:00 - 00:00,"https://www.google.com/maps/dir/?api=1&origin=&destination=39.758015,46.744385&travelmode=driver"
Bravo Buzovna,40.511261,50.140347,Ekspres,,"Mərdəkan qəsəbəsi, Buzovna-Mərdəkan yolu",08:00 - 23:00,"https://www.google.com/maps/dir/?api=1&origin=&destination=40.511261,50.140347&travelmode=driver"
Bravo Binəqədi şossesi,40.449390,49.843666,Market,,"Binəqədi qəsəbəsi, Binəqədi şossesi, 1-ci küçə",08:00 - 23:00,"https://www.google.com/maps/dir/?api=1&origin=&destination=40.449390,49.843666&travelmode=driver"
Bravo Tovuz,40.991013,45.615772,Market,,"Tovuz şəhəri, Həzi Aslanov küçəsi",08:00 - 23:00,"https://www.google.com/maps/dir/?api=1&origin=&destination=40.991013,45.615772&travelmode=driver"
"Bravo ""AAAF Park"" yaşayış kompleksi",40.459625,49.720074,Ekspres,,"H.Əliyev prospekti 167,  AAAF park yasayis kompleksi 28 saylı küçə, bina 5",07:30 - 23:00,"https://www.google.com/maps/dir/?api=1&origin=&destination=40.459625,49.720074&travelmode=driver"
Bravo Xırdalan H.Əliyev pr-2,40.463448,49.724785,Market,,"Xırdalan şəhəri, H.Əliyev prospekti 263",07:30 - 02:00,"https://www.google.com/maps/dir/?api=1&origin=&destination=40.463448,49.724785&travelmode=driver"
Bravo A.Abbaszadə küç.,40.355026,49.816319,Ekspres,,"Badamdar qəsəbəsi, Abbasqulu Abbaszadə küçəsi 59 A",08:00 - 23:00,"https://www.google.com/maps/dir/?api=1&origin=&destination=40.355026,49.816319&travelmode=driver"
Bravo Qala yolu,40.456032,50.142788,Market,,"Qala qəsəbəsi, 3 Nömrəli Zeytun Savxozunun ərazisi",08:00 - 23:00,"https://www.google.com/maps/dir/?api=1&origin=&destination=40.456032,50.142788&travelmode=driver"
Bravo Lənkəran,38.757114,48.833950,Super,,"Lənkəran rayonu, Şilavar kəndi",08:00 - 23:00,"https://www.google.com/maps/dir/?api=1&origin=&destination=38.757114,48.833950&travelmode=driver"
Bravo Şamaxı,40.641991,48.635811,Market,,"Şamaxı şəhəri, Məmməd Əmin Rəsulzadə küçəsi 28,30",24/7,"https://www.google.com/maps/dir/?api=1&origin=&destination=40.641991,48.635811&travelmode=driver"
Bravo Göyçay,40.651539,47.750381,Market,,"Göyçay şəhəri, Nizami küçəsi 214 A",24/7,"https://www.google.com/maps/dir/?api=1&origin=&destination=40.651539,47.750381&travelmode=driver"
Bravo Zirə,40.382217,50.287785,Ekspres,,"Zirə qəsəbəsi, Cəlal Əliyev küçəsi",08:00 - 23:00,"https://www.google.com/maps/dir/?api=1&origin=&destination=40.382217,50.287785&travelmode=driver"
Bravo Lənkəran Dosa Mall,38.754219,48.852238,Market,,"Lənkəran şəhəri, Dosa Mall, Fikrət Məmmədov küçəsi 23",08:00 - 23:00,"https://www.google.com/maps/dir/?api=1&origin=&destination=38.754219,48.852238&travelmode=driver"
Bravo İmişli,39.868732,48.061630,Market,,"İmişli şəhəri, Qədir İsmayılzadə küçəsi",08:00 - 23:00,"https://www.google.com/maps/dir/?api=1&origin=&destination=39.868732,48.061630&travelmode=driver"
Şirkət,,,,,,,
,,,,,,,
Digər,,,,,,,
Hüquq,,,,,,,
