name,fullName,address,lat,lon
Musviqabad Postu DYP,,-,40.469228,49.628294
Ekologiya Postu DYP,,-,40.438587,49.77644
BolMart Mehdiabad,,"Absheron r-nu, Mehdiabad qes., 28 may, ev 172",40.501562,49.856133
Azer City super market,,"Baki-Sumqayit soss., 12-ci km",40.450836,49.76495
Spar market Fatmayi,,"Binaqedi ray., Fatmayi-Goredil baglari",0.0,0.0
Araz supermarket 2 (Masazir),,"Masazir qes, Aliaga Vahid kuc.",40.475238,49.753099
Araz supermarket (Masazir),,"Masazir qes., Aliaga Vahid kuc.",40.458,49.75621
Shok market,,"Masazir qes, A.Vahid kuc.",40.481342,49.755828
Araz Mehdiabad,,Mehdiabad qes.,40.49627,49.85587
Rahat Market,,"Mehdiabad qes., Azizbəyov kuc., ev 1C",40.49449,49.85568
Shok market,,"Mehdiabad qes., Garant Yasayıs Massivi",40.486164,49.838354
Rahat Market,,"Mushviqabad qes., Shamaxi shossesi",40.469921,49.62685
Araz supermarket (Saray),,Saray qes.,40.5232638,49.6875601
Saray Postu DYP,,Saray qes.,40.522817,49.68794
BolMart Market,,Saray qes.,40.522221,49.68882
BDYPİ Qeydiyyat-İmtahan İdarəsi 1,,"Xirdalan - Bineqedi shos., 4",40.445847,49.773465
Bazarstore,,"Xirdalan seh., Baki- Shamaxi yolu 4-cu km",40.441141,49.748095
Elit Optimal Xırdalan,,"Xirdalan seh., H.Aliyev pr., 457",40.449971,49.745987
Megastore supermarket,,"Xirdalan seh, Qalubiyye kuc, ev 3/14",40.454632,49.745358
Agcabedi rayonu DYP sobesi,,-,40.049747,47.451687
Bazarstore Ağcabədi,,H.Haciyev kuc.,40.044053,47.447172
Alsu Mall,,Sherefxanli kendi,40.050891,47.172676
Neptun supermarket,,"U.Hacibeyev pr., 213",40.052532,47.441929
Agdam market,,"Quzanli qes., H.Aliyev pr.",40.158224,47.160699
Brend Store,,"Quzanli qes., H.Aliyev pr.",40.163065,47.156007
Agdam rayon DYP sobesi,,Xindiristan kendi,40.124347,47.103405
Agdas seheri DYP sobesi,,H.Aliyev pr. 9-ci dalan,40.647124,47.472202
Agstafa seheri DYP sobesi,,"H. Aliyev pr., 57",41.111736,45.441493
Agsu seheri DYP sobesi,,-,40.571915,48.388222
Ağsu Regional Dövlət Miqrasiya Xidməti İdarəsi,,M.A.Resulzade kucesi,40.57795,48.375915
Elit Optimal  Ağsu,,"N.Gencevi kuc., 8 A",40.567185,48.393206
Pasha Sigorta,,"Nizami kuc., 5",40.567203,48.391584
Anbar 1 (Yığım),,Anbar,0.0,0.0
Anbar 15 ( Yığım),,Anbar,0.0,0.0
Anbar 18 (Yığım),,Anbar,0.0,0.0
Anbar 12 (Yığım),,Anbar,0.0,0.0
Anbar 11 (Yığım),,Anbar,0.0,0.0
Anbar 9 (Yığım),,Anbar,0.0,0.0
Anbar 16 (Yığım),,Anbar,0.0,0.0
Anbar 2 (Yığım),,Anbar,0.0,0.0
Astara seheri DYP sobesi,,"Heydar Aliyev kuc., 35",38.44787,48.874294
Nesimi rayon DYP sobesi,,-,40.396671,49.838276
Nizami rayon DYP sobesi,,-,40.413616,49.929211
Qaradag Postu DYP,,-,40.145455,49.45186
Suraxani rayon DYP sobesi,,-,40.418669,50.007289
Xezer rayon DYP sobesi,,-,40.470859,50.11599
28 May M/S,,-,40.379915,49.848715
Araz supermarket (Avesta),,1104-cu məh.,40.40984,49.84633
Bakcell Memar Acemi,,"5-ci mkr., Cavadxan kuc., meh., 3005",40.411165,49.814241
Araz supermarket,,"8-ci km qes., Cobanzade kuc., 4C",40.398228,49.816482
Rahat market,,"8-ci mkr, S.Axundov kuc., 5F",40.4272889,49.8446867
Rahat Market,,"8-ci mkr., Suleynan Sani Axundov kuc., ev 3G",40.42558,49.84391
Araz supermarket,,"9-cu mik., Mir Celal kuc., 59/K",40.41901,49.81121
Rahat market,,"9-cu mkr., 3169 meh., Mir Celal kuc., 143B",40.4256174,49.8187465
SafaStore Market,,"9-cu mkr., Mir Calal kuc.",40.41435,49.80495
BolMart 3 (Oxford),,"A.Abbaszade kuc., ev 17",40.3544835,49.8169719
Araz supermarket 1 (Lider AS),,"A.Alekberov kuc., 1054-cu meh.",40.392731,49.816168
Elit Market,,"Acemi Naxcivani kuc., 23",40.41859,49.85127
Rahat market MetroPark,,"Aga Nematulla ile Tebriz kuc.,  kesishmesi",40.40331,49.87237
Xezer Market,,"Aga Nemetulla pr., 1950",40.4013,49.87625
Vergi X/M,,"Aga Neymatulla kuc., 44",40.406466,49.869461
Araz supermarket Nerimanov 1,,Aga Neymetulla kuc.,40.3968202,49.8785851
Araz supermarket,,"A. Haqverdiyev kuc., meh., 574",40.38007,49.81097
Araz supermarket (Kömürcü),,"A.Huseynzade kuc., 84",40.381166,49.831255
Araz supermarket,,"Akademik Mireli Qasqay kuc., ev 94",40.40147,49.83984
Neptun Market 5,,"A.Meherremov kuc., 20C",40.40749,49.81132
Bazarstore Suraxani,,Amircan STQ  M.Mustafayev,40.42088,49.99714
BolMart,,A.Salamzade kuc.,40.398228,49.816482
Baki Regional Dovlet Miqrasiya Xidmeti Idaresi,,"Ataturk pr., 189",40.418072,49.840385
Shamkir Market,,"Ataturk pr., 4A",40.403229,49.850918
Expressbank MXD filiali 24/7,,"Ataturk pr., Y.V.Cemenzeminli kuc., 134 С",40.405197,49.849064
Expressbank MXD filiali 24/7,,"Ataturk pr., Y.V.Cemenzeminli kuc., 134С",0.0,0.0
Kanan market,,"Azerbaycan Qadini kuç., ev 50 A",40.570395,50.043632
Bazarstore Xetai,,"Babek pr., 1129-ci meh.",40.38792,49.866905
Neptun Market 6,,"Babek pr., 2341-43 meh.",40.39426,49.95337
Shassi,,"Babek pr., 37C",40.390552,49.903118
Araz supermarket Xetai,,"Babek pr., ev 10D",40.3882857,49.870981
Bazarstore Badamdar,,"Badamdar qes., 1-ci Y/M",40.34396,49.81001
Baki seher BDYPI,,"Badamdar qes., M.Musfiq kuc.",40.35543,49.79752
Baki seher BDYPI,,"Badamdar qes., M.Musfiq kuc.",40.355242,49.797626
Gizil Gul market (Neptun),,"Baki seh,C. Xandan kuc.,",40.41864,49.83858
Xetai rayon DYP shobesi,,"Bakı şəhəri, Xətai rayonu.",40.376187,49.961719
Ruzi Market,,"Bakı şəh., Nəsimi r-nu, Hüseyn Seyidzadə küç.35.",40.415581,49.8176
Bazarstore Q.Qarayev,,"Baki seh, Nizami r-nu, Tofiq Abbasov",40.418818,49.935058
Universal market,,"Baki seh, Nizami r-nu, Universal market",40.4094713,49.9559437
Expressbank Elmlər filialı 24/7,,"Bakı şəh., Yasamal r-nu, B. Vahabzadə küç",40.375344,49.812386
Neptun market Kurdexani,,"Bakı ş., Sabunçu r., Əjdər Məlikov 31",40.516768,49.938666
Rahat market,,Bakıxanov qes.,40.431553,49.954705
Bazarstore Bakixanov,,"Bakixanov qes., Genclik pr., 29",40.41777,49.96429
Bazarstore (Makromart),,"Bakixanov qes., Mehmandarov kuc.",40.424131,49.960196
Rahat market,,Balaxanidan Novxaniya geden yol,40.4675391,49.8420873
Rahat Market,,"Bileceri qes, Y.Huseynov kuc.",40.43181,49.80854
Shassi,,"Binaqadi r-nu, 8-ci MKR., C.Xandan kuc., ev 19A",40.418459,49.84444
Bazarstore (Makromart),,"Binaqadi r-nu, A.Sultanova",40.412601,49.84519
Shassi,,"Binaqadi r-nu, Bilacari STQ, R.Ismayilov (Bilacari qas.), ev 11D",40.421457,49.799264
Expressbank Naxçıvani filialı 2,,"Binaqedi r-nu, 8-ci MKR, A.Naxcivani kuc",40.34079,49.779587
Darnagul market,,"Bineqadi r-nu, 14-cu Asirim kuc., b. 43",40.417462,49.848325
Qiz Qalasi market 2,,"Bineqedi qes., 2-ci meden, korpus 64, ev 14",40.4633134,49.8296123
Araz supermarket (7 MKR),,"Bineqedi qes.,  7-ci mkr., 3123-cu meh.",40.426606,49.851359
Endi market,,"Bineqedi qes., Naxcivani kuc., 5",40.414128,49.839067
Kristal Abşeron Binəqədi,,"Bineqedi r-nu, 9 MKR, MirCalal kuc., 59",40.419709,49.810723
Bazarstore,,"Bineqedi r-nu, Acemi Naxcivani kuc., 14",40.415928,49.838921
Baki Regional Migrasiya İdaresi,,"Bineqedi r-nu, Ataturk pr. 189",40.41457,49.845211
A.Mart market,,"Bineqedi r-nu, Bileceri qes., M.Aslanov kuc., Donge 8",40.448173,49.809368
Istanbul market,,"Bineqedi r-nu, Bineqedi kendi, Gulustan kuc., Donge 15",40.458541,49.841018
Nicat market,,"Bineqedi r-nu, Bineqedi kendi, Meden 3",40.47282,49.835644
Tayqa market,,"Bineqedi r-nu, Bineqedi shossesi 308 C",40.456536,49.842752
Megastore supermarket,,"Bineqedi r-nu, I.Dadashov kuc, ev 60",40.414631,49.843514
№10 Sizin market,,"Bineqedi r-nu, M.Rasulzade STQ, Z.Farzaliyev, ev 14",40.424011,49.826293
Bineqedi Rayon Mehkemesi,,"Bineqedi r-nu, S.S.Axundov kuc.",40.426354,49.857536
DIM-Elektron İmtahan Korpusu,,"Binəqədi r-nu, S.S.Axundov kuc.,",40.425873,49.852989
Nur market,,"Bineqedi r-nu, Sulutepe qes., 34/334",40.439039,49.751511
Bakı Beynəlxalq Avtovağzal Kompleksi,,"Bineqedi r-nu, Sumqayit shossesi, 3-cu km.",40.418483,49.797907
Rahat supermarket Xocasen,,"Bineqedi r-nu, Xocasen qes.",40.414675,49.768304
Sürücü Təlim Mərkəzi,,"Bineqedi r-nu, Z.Bunyadov pr., 39 C",40.415801,49.854562
Sürücü Təlim Mərkəzi,,"Bineqedi r-nu., Z.Bunyadov pr., 39C",40.415833,49.855085
Sürücü Təlim Mərkəzi,,"Bineqedi r-nu., Z.Bunyadov pr., 39C",40.415801,49.854562
Araz supermarket,,"Bine qes., E.Isazade kuc., 5",40.45014,50.08782
Spar Axundov,,"B.Sardarov kuc.,",40.367096,49.829132
Expressbank Nesimi filiali 24/7,,"Bulbul pr., 29",40.37604,49.842824
Sahil Metro kecid,,"Bulbul pr., ile Z.Aliyeva kuc., kesishmesi",40.36524,49.819985
Araz supermarket 2 (Buzovna),,"Buzovna qes., Buzovna - Mashtaqa yolunun saq terefi",40.507277,50.106063
Favorit Market,,"Buzovna qes., R.Imanov kuc., 22A",40.52742,50.09805
Neptun Market 7,,"C.Memmedquluzade kuc., 998",40.39535,49.82805
Araz supermarket Vorovskiy,,C.Xandan kuc.,40.415451,49.828831
Tayqa market,,"Darnagul qes, ev 19",40.416033,49.849562
Bazarstore Yasamal,,"Esed Ehmedov kuc., 24B",40.3937865,49.7950441
Bazarstore 8 km,,"E.Suleymanov kuc., 122",40.40991,49.95562
Genclik M/S,,F.Xoyski kuc. (Genclik Mall cixisi),40.400492,49.851008
Bazarstore Genclik,,"F. Xoyski pr., 830",40.39977,49.85014
Araz supermarket,,"General Sixlinski küc., 2942/a",40.368153,49.964559
Rahat Market,,"Hesen Aliyev kuc., ev 48",40.39776,49.82955
Neptun 9 market,,"Hesenoglu kuc., 4, 851-852-ci meh.",40.39777,49.86903
Araz supermarket Narimanov 3,,"Hesenoglu kuc., 9",40.400012,49.865241
Nerimanov rayon DYP sobesi,,"H.Mammedov kuc., 9",40.400223,49.8378
VIP Store,,"H. Zardabi kuc., 77A",40.3926777,49.8061825
Expressbank Yasamal,,"H.Zardabi pr., 94",40.402753,49.807086
Icheri sheher M/S,,Icheri sheher M/S,40.366356,49.831555
Yasamal rayon DYP sobesi,,"Insaatcilar pr., 33",40.394287,49.813343
Grandmart,,"I.Qutqasinli kuc., 507-511",40.368497,49.820971
Rahat Market,,"Kesle qes., Faiq Yusifov kuc., ev 51A",40.4092,49.86979
Dostum market,,"K.Guneshli qes., G.Mehmandarov kuc.",40.35947,49.96661
Koroglu M/S,,Koroglu M/S,40.420101,49.918816
iL market Kurdaxani,,"Kurdaxani qe.s, M.Adil kuc., 17",40.54745,49.91118
Araz supermarket (Bine Topdan),,Lokbatan qes.,40.303116,49.760205
Bazarstore (Aqrovest),,Lokbatan qes.,40.3095192,49.7450173
Expressbank Qaradag filiali,,"Lokbatan qes., Bine Ticaret Merkezi, 1-ci sira",40.30478,49.748451
Elmar Market,,"Lokbatan qes., S.Orucov kuc., 02/392A",40.32653,49.72674
Bineqedi rayon DYP sobesi,,M.A.Rasulzade qes.,40.443813,49.844711
Abseron Market,,Mastaga qes.,40.52613,50.01716
NAR Memar Əcəmi,,"M.Cafarov kuc., 3005",40.410079,49.813595
Rahat market,,"M.Davudoglu kuc., 17",40.4225588,49.8352899
Araz supermarket (Mehemmedi ),,"Mehemmedi kendi, Mehemmedi yashayısh kompleksi",40.51153,49.94165
Rahat market,,"Mehti Hadi kuç., ev 82, bina 5",40.37075,49.950442
Araz supermarket,,"M.E. Resulzade qes., Azadliq pr., 157",40.43615,49.84476
Shassi,,"Metbuat pr., ev 187",40.370438,49.810192
Expressbank Ahmedli filiali,,M.Hadi kuc.,40.385969,49.954315
Ahmadli M/S,,M.Hadi kuc.,40.385339,49.953475
Expressbank Ahmedli filiali 24/7,,M.Hadi kuc.,40.38603,49.95476
BolMart 1 Millenium,,"Mircalal kuc., 314",40.4211268,49.8145708
Bazarstore Nesimi,,Mirqasımov kuc.,40.396811,49.84226
Rahat market,,M.Qashqay-E.Alesgerovanin kesismesi,40.39387,49.84178
Araz supermarket Yasamal,,"M.Seyidov kuc.,",40.382768,49.809157
Mehelle Market,,"Narimanov ray., Y.V.Camanzaminli kuc. 123A",40.411036,49.86708
Darya market,,"Narimanov r-nu, A.Aliyev kuc.",40.357741,49.834029
Okean market,,"Narimanov r-nu, A.Aliyev kuc., 61",40.404271,49.841603
Kosmos market,,"Narimanov r-nu., A.Aliyev kuc. 8",40.400185,49.88242
Bazarstore Montin,,"Narimanov r-nu, Aga Nemetulla kuc., 26",40.397385,49.877903
Buta market,,"Narimanov r-nu, Aga Neymatulla kuc., 252",40.408756,49.867332
Rahat market,,"Narimanov r-nu, Ak. Hesen Aliyev kuc  55",40.400439,49.841126
Market,,"Narimanov r-nu, Ak. Hesen Aliyev kuc., ev 59",40.400332,49.848903
INTEGRAL beyond compare,,"Narimanov r-nu, A.Racabli kuc., 2 bina 8",40.40855,49.862236
Cinar Park Biznes Merkezi,,"Narimanov r-nu, A.Recebli kuc., 1965",40.415604,49.857361
Rahat market,,"Narimanov r-nu, E.Aliyev kuc., 19 A",40.406296,49.87328
Montin market,,"Narimanov r-nu, Ismayil Hidayatzade kuc., 28/29",40.395187,49.871052
STEP IT Academy2,,"Narimanov r-nu, K.Rahimov kuc., 70",40.414814,49.853134
V - Design,,"Narimanov r-nu., Montin qes., A. Neymetulla kuc., 2",40.39327,49.882457
Azərbaycan Kooperasiya Universiteti,,"Narimanov r-nu, Nacaf Narimanov kuc., 93",40.409968,49.837631
Deniz market,,"Narimanov r-nu, Nazim Haciyev kuc.,",40.40313,49.875507
Bakcell Nərimanov,,"Narimanov r-nu, Tabriz kuc., 108 m 5",40.404133,49.873417
BolMart,,"Narimanov r-nu, Ulvi Bunyadzade kuc., 2",40.385433,49.851236
Nas Project BOKT,,"Narimanov r-nu, Xatai pr., 47E, Armoni Residence, 2 mert",40.388191,49.857683
East Park yaşayış kompleksi,,"Narimanov r-nu, Xatai pr., 49",40.390104,49.858871
DIN Hospitali,,"Narimanov r-nu, Z.Bunyadov pr. 36",40.413734,49.850521
KOBİA,,"Narimanov r-nu, Ziya Bunyadov pr., 38 C, 1969-cu meh.",40.413319,49.853509
Spar Market (3-cu mkr),,"Nasimi r-nu, 3-cu mkr.",40.406746,49.812824
Bakı Sağlamlıq Mərkəzi /2-ci mərtəbə/,,"Nasimi r-nu, Azadliq pr. 112",40.396811,49.839356
VTB Bank Əcəmi filialı,,"Nasimi r-nu, Cavadxan kucş, 30 A",40.409716,49.814923
Rahat market,,"Nasimi r-nu., Ceyhun Salimov kuc., 7",40.401157,49.822037
Rahat supermarket Papanin,,"Nasimi r-nu, Ceyhun Səlimov küç., 7",40.401132,49.822172
Bakı Dəmiryol Vağzalı,,"Nasimi r-nu, F.Amirov kuc., 24",40.380236,49.849743
Eser market,,"Nasimi r-nu, Huseynbala Aliyev kuc., 18",40.409855,49.818845
Spar market,,"Nasimi r-nu, Mirqasimov kuc.",40.395985,49.843381
AvroMart,,"Nasimi r-nu., Samil Azizbayov kuc., 88, meh. 302",40.378494,49.834133
Finex Kredit,,"Nasimi r-nu, Suleyman Rustam kuc., 11",40.381034,49.844456
Rahat Nesimi 1,,"Nasimi r-nu, Suleyman Rustam kuc., 980",40.39284,49.838812
Bazarstore,,"Nasimi r-nu., Xan Sushinski kuc., 60",40.396076,49.836998
BolMart 2 (Tusi),,"Nasreddin Tusi kuc., 11",40.37321,49.96185
Bazarstore Park Bulvar,,"Neftchiler pr., 1",40.37113,49.84986
Port Bazar Market,,"Neftchiler pr., 153",40.381107,49.863304
Kukla teatri Kecid,,Neftciler pr.,40.367108,49.838866
Sabail rayon DYP sobesi,,"Neftciler pr., 35",40.33836,49.830482
Pasa Sigorta,,"Neftciler pr., 66",40.357663,49.833827
Rahat market,,"Nesimi r-nu., Akademik H.Aliyev kuc., 1061",40.3957327,49.819664
MediClub hospital,,"Nesimi r-nu., Alovset Quliyev kuc., 73",40.373406,49.834692
"Bas pasport, qeydiyyat ve miqrasiya idaresi",,"Nesimi r-nu, Mikayıl Rafili kuc. 3",40.382415,49.843723
Kaspi Liseyi Ag sheher,,"Nəsimi r-nu, Neftçilər pr., ev 151",40.383412,49.879011
BolMart,,"Nesimi r-nu, S.Azizbeyov kuc, ev 9",40.381,49.845041
STEP IT Academy Tbilisi,,"Nesimi r-nu, Tbilisi pr., Ev 1025/30-cu meh",40.390023,49.830158
Grandmart,,"Nizami kuc., 129E",40.37743,49.85432
Oscar Market,,"Nizami kuc., ve Merdanov Qardaslari kuc-nin kesismesi",40.37342,49.84005
Rahat supermarket,,"Nizami r-nu., 8-ci km, Nasimi kuc., 25 A",40.415085,49.968344
Megastore Xalqlar,,"Nizami r-nu, Bahruz Nuriyev kuc., 79",40.403931,49.959347
Spar Market,,"Nizami r-nu, Bakir Cobanzade kuc., ev 63 m. 0",40.399165,49.940066
Yaxin Sirab market,,"Nizami r-nu, Kamal Balakishiyev kuc., ev 8, m. 16,",40.415947,49.932004
Kristal Abşeron Q.Qarayev,,"Nizami r-nu, Ozbekistan kuc., 9",40.415296,49.926467
Rahat supermarket Neftçilər,,"Nizami r-nu., Qara Qarayev kuc., ev 74",40.409339,49.943294
Lacin T/M,,"Nizami r-nu., Qara Qarayev pr.",40.399559,49.952656
Bazarstore X.Dostlugu,,"Nizami r-nu, Q.Qarayev pr., 124",40.397425,49.951995
STEP IT Academy1,,"Nizami r-nu, Q.Qarayev pr., 87",40.406108,49.947439
Lyuksmart market,,"Nizami r-nu, Tofiq Abbasov kuc., 9B",40.420704,49.926048
Neptun Market 8,,"N.Rafiyev kuc., 25, 1171-ci meh.",40.3854,49.87573
Rahat Market,,"Qala STQ, Qala kuc., ev 15",40.47417,50.10945
Elit T/m,,"Qaradag r-nu, Lokbatan qes.",40.324886,49.779452
KingsMart Market,,"Qaradag r-nu, Lokbatan qes.",40.321957,49.734562
KingSmart,,"Qaradag r-nu, Lokbatan qes., Intigam Nabiyev kuc., 41C",40.325486,49.741464
Qaradag market,,"Qaradag r-nu, Sahil qes, Baki - Salyan shosesi 25 -ci km",40.243935,47.801419
Elit Optimal Qaradag,,"Qaradag r-nu, Sederek T.M.",40.329909,49.782996
Rahat market,,"Qara Qarayev pr., 39A",40.413225,49.940171
Lacin T/M 2,,"Qara Qarayev pr, Bahruz Nuriyev kuc., kesishmesi",40.399609,49.95121
Qiz Qalasi market 1,,Qız Qalası market 1,40.467057,49.8274064
Ruslan 93 market 1,,"Q.Qarayev pr., 7A",40.419753,49.92511
Araz supermarket 2,,"Q.Qarayev pr., E.Veliyev kuc.",40.41955,49.92552
Grandmart,,"Resad Qafurov kuc., 20",40.3989766,49.8601298
Expressbank Neftciler filiali,,"R. Rustemov kuc., 34B",40.408946,49.941185
Expressbank Neftciler filiali  24/7,,"R. Rustemov kuc., 34B",40.408946,49.941185
Neptun 4 market H.Aslanov,,"R.Rza kuc., 2942A",40.37089,49.95508
Endi market,,"Sabail r-nu, Badamdar qes., A.Namazov kuc., ev 9",40.34049,49.807031
Express market,,"Sabail r-nu., Badamdar qes., Tofiq Mammedov kuc., 61A",40.336201,49.805553
Real market,,"Sabail r-nu, Bayil qes., Q.Abbasov kuc., 56",40.344903,49.838455
Bazarstore Bayil,,"Sabayil r-nu, Qurban Abbasov kuc., ev 74 m",40.342493,49.839473
Bakcell Sahil,,"Sabayil r-nu, U.Hacibeyli kuc., 48",40.372464,49.845265
Baku Store,,"Sabunchu r-nu, Mashtaga qes., H.Heybetov kuc., 13",40.528401,49.99823
Spar supermarket,,"Sabunçu r-nu, Bakixanov qes., Ahmedbey Agayev kuc., Ev 131.",0.0,0.0
Grandmart,,"Sabuncu r-nu, Bakixanov qes., Besir Bunyadov kuc., 143",40.427357,49.939404
Araz-Fateh market,,"Sabuncu r-nu., Bakixanov qes., M.Fataliyev kuc., 72",40.414743,49.968502
Sabunçu r-n Məhkəməsi,,"Sabuncu r-nu, Bakixanov qes., Oskar Efendiyev kuc.",40.430848,49.954354
Kaspi Liseyi Bakixanov,,"Sabuncu r-nu.,Bakixanov qes., Sakit Qocayev kuc., 176",40.408445,49.969903
Elit Optimal Bakıxanov,,"Sabuncu r-nu, Bakixanov qes., S.Mehmandarov kuc., 1 B",40.429096,49.956768
Rahat market	Bakixanov (Buta),,"Sabuncu r-nu, Bakixanov qes., Y.Aliyev kuc., 14",40.436577,49.958805
SOS MMC,,"Sabuncu r-nu, Balaxani qas., R.Mirisli kuc., 102",40.468591,49.935799
Araz supermarket Savalan,,"Sabuncu r-nu., Mastaga qes., 27 sayli sahe",40.337879,49.778126
Uğur market,,"Sabuncu r-nu, Mastaga qes., Axund Sheyx Huseynov kuc.",40.540459,50.008877
Bereket market,,"Sabuncu r-nu,Mastaga qes., M.Huseynov kuc.",40.523827,50.001509
Elit Optimal Maştağa,,"Sabuncu r-nu, Mastaga qes., Seyid İbad Aga kuc., 93 A",40.533737,50.003853
Bolmart Zabrat,,"Sabuncu r-nu, Sheher pr., 18 D, Zabrat yolu",40.446761,49.935044
Sabuncu rayon DYP sobesi,,"Sabuncu r-nu, Zabrat qes., Babek 53",40.47942,49.950539
Rahat hipermarket,,"Sabuncu r-nu, Zabrat qes., Zabrat yolu",40.465641,49.944649
BolMart,,"Sabunсu r-nu., Zabrat qes.",40.491835,49.953624
VIP Market,,Sadiqcan kuc 15.,40.36127,49.95602
Nariman Market,,Sahil qes.,40.22334,49.57658
Optimal Market,,"Sahil qes., M. Seyidov kuc.",40.227,49.57601
Rahat supermarket Ekologiya 2,,Samaxi shossesi,40.43249,49.78518
Grandmart,,"Samed Vurgun kuc., 34",40.3763,49.84151
Bazarstore Baki K/T,,"Sarayevo kuc., 23-25-ci meh.",40.38614,49.96076
Sevimli Dad Market,,"Sarifzade kuc., 73",40.384371,49.803477
BolMart 4 (Teze Bazar),,"Semed Vurgun kuc., 75B",40.3834437,49.8383331
Araz supermarket 1 (Neftciler),,"Serifli kuc., 25",40.41339,49.94938
Araz supermarket Elmler,,"Shehriyar kuc.,",40.37751,49.81221
VTB Bank  28 May filialı,,Shemsi Bedelbeyli 96.,40.377578,49.843432
Araz supermarket Xatai 2,,S.Orucov kuc.,40.379856,49.866924
Yagmur Market,,"S.Orucov kuc., 23 meh., 1184",40.38064,49.87234
Grandmart,,"Suleyman Rahimov kuc., 179A",40.38022,49.84261
Bizim market Suraxani,,"Suraxani r-nu, Bulbule STQ, S.Behlulzade kuc, ev 85",40.433076,49.983498
Araz supermarket (Hovsan),,"Suraxani r-nu, Elman Qasimov kuc., 227 A",40.393741,49.93752
Araz-Hovsan supermarket,,"Suraxani r-nu., Hovsan qes., Hovsan sovxoz",40.373183,50.112749
Araz supermarket Y.Guneshli,,"Suraxani r-nu, Ilqar Musayev kuc., 56 D",40.355617,49.971902
Bazarstore Qarachuxur,,"Suraxani r-nu, Qaracuxur qes., C.Qurbanov kuc.",40.399743,49.976796
Nərmin store,,"Suraxani r-nu., Ramana qes., Samir Aliyev kuc.",40.444927,50.00153
Araz supermarket Ramana,,"Suraxani r-nu, Samir Aliyev kuc. 189 B",40.39912,49.939778
BolMart Y/Günəşli,,"Suraxani r-nu., Yeni Gunesli qes.",40.384487,49.97905
Polis Akademiyasi,,"Suvalan qes., Almaz Ildirim kuc., 3",40.487292,50.167969
PARK CENTER,,"S.Vurgun kuc., 18 A",40.373623,49.842629
Spar (S.Vurgun),,"S.Vurgun kuc., 19",40.375108,49.841
World Business Center,,"S.Vurgun kuc., 43",40.378489,49.840023
Neptun Market 2,,"Tbilisi pr., 1058",40.39663,49.81514
Chiraq Plaza,,"Tbilisi pr, 49 C",40.394482,49.819632
Araz supermarket (20 Yanvar),,"Tbilisi pr., Alatava 2",40.39778,49.81381
Rahat market Su sonasi,,"Tebriz kuc., ev 60",40.3925,49.85779
Araz supermarket (UPD),,UPD qes.,40.38643,49.90605
Megastore supermarket,,"Xatai-nu, X.Mammedov kuc., 1 C",40.372705,49.944818
Şusa market,,"Xatai r-nu, Cavadxan kuc., 3",40.378835,49.948194
Bizim market Gence pr.,,"Xatai r-nu, Gence pr, 105",40.353918,49.96256
Megastore supermarket,,"Xatai r-nu, General Shixlinski kuc., 2",40.381467,49.964396
Megastore supermarket,,"Xatai r-nu, Kohne Gunesli qes, I.Ismayilov kuc, ev 5C",40.368818,49.972458
NAR Ahmedli,,"Xatai r-nu., M.Hadi kuc., 23/24",40.385082,49.95409
“Elit Optimal” Xalqlar,,"Xatai r-nu, M.Hadi kuc.,  49C",40.390701,49.954198
Bazarstore Ukraina,,"Xatai r-nu., M.Hadi kuc., 58",40.397425,49.951995
Grandmart H.Aslanov,,"Xatai r-nu., M.Hadi kuc., 75",40.371511,49.953608
Kaspi International School,,"Xatai r-nu, N.Aliyev kuc., 26",40.385071,49.870695
Gunesh market,,"Xatai r-nu., Nobel pr. 141",40.375696,49.919876
Rahat supermarket Nobel,,"Xatai r-nu, Nobel pr., 189 A",40.371174,49.931146
SAF Market,,"Xatai r-nu, q.Mammedov kuc., ev 7A, m. 9, 2947 meh.",40.370036,49.947855
Xalqlar Dostlugu M/S,,"Xatai r-nu, Q.Qarayev pr.",40.397087,49.952824
DOLU mağaza Əhmədli,,"Xatai r-nu, Sarayevo kuc., ev 32",40.386087,49.956614
Bizim market Sarayevo 2,,"Xatai r-nu, Sarayevo kuc, ev 8C",40.386031,49.955821
Bakcell Əhmədli,,"Xatai r-nu, Sarayevo kuc., ev E, 2322-ci meh.",40.386546,49.95416
Real-S super market,,"Xatai r-nu, Seyid Azim Sirvani kuc., 78",40.392892,49.960948
Dost Mart,,"Xatai r-nu, Shixlinski kuc., 15",40.375962,49.964856
Freshmart,,"Xatai r-nu, S.Orucov kuc.",40.381119,49.86895
DOLU mağaza Xətai,,"Xatai r-nu, Suleyman Vezirov kuc., ev 25 A",40.384421,49.872246
Araz supermarket Xətai,,"Xatai r-nu, S.Vezirov kuc., 64 A",40.385349,49.868763
Bazarstore Nargile,,"Xatai r-nu., Zig sossesi 5",40.368488,49.938885
Bizim market Sarayevo,,"Xetai r-nu, Axmedli STQ, Sarayevo kuc, ev 23 2346-2347 ci meh.",40.394663,49.935469
Rahat Market,,"Xətai r-nu, Inqlab Ismayilov kuc., 8",40.36001,49.96977
Ocaq market,,"Xezer r-nu, Bine qes., Bine saxvoz,",40.419568,50.106091
Rahat supermarket Binə,,"Xezer r-nu, Bine qes., Bine Sovxoz shossesi, 3-cu km",40.423013,50.103787
Brend supermarket,,"Xezer r-nu, Bine qes., Hicran Hasilov kuc., ev 4, Donge 2",40.454808,50.106426
Nihat market,,"Xezer r-nu., Qala STQ, Qala qes.",40.446134,50.170333
Elit Optimal Şüvəlan,,"Xezer r-nu., Shuvalan qes., A.İldirim kuc., 8",40.486791,50.16923
Araz supermarket (Suvelan),,"Xezer r-nu, Suvelan qes., A.Ildirim kuc., 11",40.381394,49.869461
Rahat supermarket Ekologiya 1,,"Xirdalan seh., Shamaxi shossesi",40.431895,49.785512
Rahat market,,"Xiyabani kuc., 1A",40.4010905,49.7966471
Neptun Market 3 H.Aslanov,,"X.Mammedov kuc., 2944",40.37211,49.95107
Demirchi Tower,,"Xocali pr., 37",40.382935,49.871475
Expressbank Xatai filiali,,"Xocali pr., 55",40.383354,49.877816
Caspian Plaza,,"Yasamal ray., C.Cabbarlı kuc. 44",40.385208,49.828653
Bizim market Sharifzade,,"Yasamal r-n, Sharifzade kuc, ev 154C, 3153-cu meh",40.389337,49.804226
Araz supermarket 6-cı paralel,,"Yasamal r-nu, 6-cı paralel, M.Naxcivani kuc., 15",40.38397,49.822992
Elmler Akademiyası M/S,,"Yasamal r-nu, B. Vahabzade kuc.",40.375248,49.815685
Expressbank Elmler filiali,,"Yasamal r-nu, B. Vahabzade kuc.",40.375344,49.812386
Zeytun market,,"Yasamal r-nu, H.B.Zardabi kuc., 192 A",40.40002,49.80617
SOCAR İnstitutu,,"Yasamal r-nu, H.B.Zardabi kuc., 88A",40.398352,49.806496
Bakcell Yasamal,,"Yasamal r-nu, H.Cavid pr., 147",40.375838,49.815578
NAR Elmler,,"Yasamal r-nu, H.Cavid pr., 48",40.41132,49.8467879
Bakı Biznes Universiteti,,"Yasamal r-nu, Hesen bey Zardabi kuc., 88 A",40.396973,49.806788
Olimp-hospital,,"Yasamal r-nu, İnsaatcilar pr., ev 8",40.375711,49.819492
XXI ESR Tehsil Merkezi,,"Yasamal r-nu, Insaatcilar pr.  ev 98",40.380163,49.822157
Qala Heyat Sigorta,,"Yasamal r-nu, Izmir kuc., 5 A",40.388443,49.823471
Dalga market,,"Yasamal r-nu, K.Rahimov kuc, 15",40.386337,49.801349
Parlament pr Kecid,,"Yasamal r- nu, Parlament pr.",40.364357,49.818337
20 yanvar  yarmarka,,"Yasamal r-nu, R. Cafarov kuc.",40.403103,49.811375
AvroMart market,,"Yasamal r-nu, S.Qurbanov kuc., ev 19",40.377987,49.831516
Yadigar market,,"Yasamal r-nu, Yeni Yasamal, A.Ahmadov kuc.",40.390957,49.788914
Spar market,,"Yasamal r-nu, Yeni Yasamal, A.Ahmedov kuc,. 41",40.389139,49.788387
Bizim market  A.Ahmedov,,"Yasamal r-n, Yeni Yasamal, Əsəd əhmədov küç 19",40.393891,49.794462
Imza market,,"Yeni Guneshli qes, AB massivi",40.378537,49.978268
Araz supermarket (Gunesli),,Yeni Gunesli qes.,40.38604,49.98132
Bereket Market,,"Yeni Gunesli qes, massiv AB",40.37661,49.97808
Ayxan Market,,"Zabrat 1 qes., Babek kuc., 92",40.475663,49.950012
BakuBus,,Zig shosesi,40.356523,49.980495
Rahat market,,Zig sosesi 3A,40.367712,49.940043
Vergi X/M,,"Ziya Bunyatov kuc., 15",40.402651,49.881392
Bazarstore (Makromart),,"Z.Xelilov kuc., 60",40.386602,49.815497
Balaken Postu DYP,,-,41.639942,46.566956
Balaken seher DYP sobesi,,-,41.722042,46.417637
Berde Postu DYP,,-,40.466873,47.127251
BolMart Bərdə,,"Baki kuc.,",40.401145,47.124763
Bazarstore Berde,,"Baki kuc., 2A",40.37685,47.13492
Avtovagzal Bərdə,,"Berde r-nu, Guloglular kendi",40.402963,47.123774
Expressbank Berde filiali 24/7,,"Heyder Aliyev pr., 88A",40.376637,47.126664
Neptun supermarket,,"Ismet Qayibov kuc., 18 A",40.384157,49.913424
Kanan market,,"Kalantarli qes., Sanaye kuc.,",40.359459,47.124147
Pasha Sigorta,,"Koroglu kuc., 1",40.376217,47.124168
Qediroglu market,,Lek kendi.,40.359905,47.141949
Berde sheheri DYP shobesi,,"U.Hacibeyov kuc., 5",40.374983,47.12187
BolMart Beyləqan,,A.Akbarov ve S.İmrəliyev kucelerin kesishmesi,39.774311,47.622938
Elit Optimal  Beyləqan,,Magistral kuc.,39.774139,47.622906
Beylaqan rayon DYP sobesi,,"M.A.Rasulzade kuc., 98",39.771932,47.622499
Elit Optimal  Bilesuvar,,"H.Aliyev pr., 43",39.46022,48.541847
Bilesuvar rayonu DYP sobesi,,"M.Axundov kuc., 246",39.454227,48.541737
Goytepe Postu DYP,,-,39.159786,48.571059
Bazarstore Cəlilabad,,"Calilabad r-nu, 28 may kuc., 41.",39.208444,48.493469
Celilabad rayonu DYP sobesi,,"Heydar Aliyev pr., 154",39.210027,48.500937
Rahat Market,,Heyder Aliyev pr.,39.206373,48.483288
Bakcell Celilabad,,"Qurtulus kuc., 70",39.21581,48.52384
Daskesen rayonu DYP sobesi,,"Tofiq Ismayılov kuc., 9",40.525237,46.091202
Gedebey sehəri DYP shobesi,,Gədəbəy şəhəri DYP şöbəsi,40.579642,45.814352
Gence seher BDYPI,,-,40.6833632,46.3692434
Gence seher BDYPI,,-,40.682151,46.369679
Expressbank Gence filiali,,"Ataturk pr., 240",40.680646,46.35814
Pasha Sigorta,,"Ataturk pr., 240",40.680508,46.358349
NAR Gence,,Ataturk pr. 261,40.676319,46.359337
Araz supermarket,,"Ataturk pr., ev 127 M",40.697168,46.361255
Bakcell Gəncə,,"Cavadxan kuc., 28 B",40.675156,46.360298
Bazarstore Gence 2,,F.X.Xoyski kuc.,40.681773,46.362288
BolMart,,"M.Seyxzamanov kuc., 7",40.688383,46.385627
Bazarstore Gence,,"N. Narimanov kuc., 76",40.67488,46.3701
Mega Market,,"Sax Ismayil Xatai pr., 93",40.646721,46.348915
BolMart,,"S.İ.Xatai pr. U.Hacibayov kuc. kesishma,",40.696155,46.373909
Gəncə Regional Dövlət Miqrasiya Xidməti İdarəsi,,"U.Hacibeyov kuc., 274 B",40.705547,46.373448
Gence Postu DYP,,"Zazali postu, Baki- Alet - Qazax-Gurcustan yolu",40.689449,46.489613
Goranboy rayonu DYP sobesi,,-,40.602589,46.784264
Goycay səhəri DYP sobesi,,-,40.628007,47.739372
Goygol seheri DYP sobesi,,"H.Aliyev kuc., 20",40.580799,46.316148
Step market,,"S.Behlulzade kuc., 2",40.589926,46.325742
Real Market,,Qurtulush kuc.,39.11502,48.5955
Nevahi Postu DYP,,-,40.01211,49.1474
Qedirxum T/M,,"Baki-Qazax yolu, 113-cu km",40.029761,48.954782
Haciqabul market,,H.Aliyev prospekti 32,40.641628,46.364574
Haciqabul rayonu DYP sobesi,,"Heydar Aliyev kuc., 12",40.03674,48.93398
Fedek market,,Pirsaat qes.,40.042123,49.063032
Imisli seheri DYP sobesi,,-,39.867855,48.056168
Bazarstore Imisli,,H. Aliyev kuc.,39.8686,48.05621
Ismayilli rayon DYP sobesi,,"H.Aliyev kuc., 30",40.785441,48.145602
Ismayilli Postu DYP,,Ismayilli Postu DYP,40.721084,48.336431
Nur market,,Salatin Asgerova kuc.,40.790566,48.17315
Sehane Market,,Sumagalli kendi,40.78907,48.14888
Kurdemir Postu DYP,,-,40.309299,48.240253
Kurdemir seheri DYP sobesi,,-,40.3348,48.156401
BolMart Kurdemir,,"Babek pr., 38",40.351712,48.162355
Yusioil market,,Ershali kendi,40.283021,48.331926
EFİ Ticarət Mərkəzi,,"İmisli shossesi,",40.328463,48.148228
EDU market,,Sigirli kendi,40.258214,48.402756
Ugur Market,,"Yeni Siximli kendi, Baki-Qazax yolu 188-ci km",40.317439,48.215019
Bazarstore (Makromart),,"Baki-Astara shossesi, Digah qes., 21-ci meh.",38.758857,48.834741
Lənkəran Regional Dövlət Miqrasiya Xidməti İdarəsi,,Goyshaban kendi,38.81296,48.826977
Pasha Sigorta,,"H.Asıanob kuc., 1",38.758389,48.855526
Bakcell Lənkəran,,"H.Aslanov kuc., xiyabani 26",38.753952,48.851355
Bazarstore Lənkəran,,Qala Xiyabani kuc.,38.758035,48.854132
Halal market,,Sehidler Xiyabani kuc.,38.768083,48.846924
Lankaran seheri DYP sobesi,,"Tofiq Ismayilov kuc., 26",38.762293,48.838786
Palıd market,,Veravul kendi,38.809748,48.770418
Lerik rayon DYP sobesi,,"Hazi Aslanov kuc., 1",38.77497,48.411777
Bazarstore Masallı,,"H.Aliyev pr., 135",39.023303,48.669215
Bazarstore (Makromart),,"H.Aliyev pr., 30",39.038432,48.67581
Masalli rayonu DYP sobesi,,"H.Aliyev, pr., 99",39.021109,48.677353
Cenub market,,"Masalli r-nu, Erkivan yolu",39.019316,48.651035
Mingecevir seheri DYP sobesi,,-,40.772659,47.053265
Qediroqlu Market 3,,-,40.76921,46.99909
Qediroqlu Market 2,,-,40.7727,47.02292
OBA market,,"GRESS qes., Naxcivan kuc.,",40.770011,47.000103
Expressbank Mingecevir filiali,,"H. Aliyev pr., 36",40.769269,47.053441
Expressbank Mingecevir filiali 1,,"H.Aliyev pr., 36",40.771052,47.049373
Bakcell Mingecevir,,"H.Aliyev pr., 47/2a",40.769678,47.053382
Qediroglu Market 6,,"H.Aliyev pr., bina 8, 1-ci qacqinlar seherciyi",40.757064,47.082637
Bazarstore market  2,,"M.E. Rasulzade kuc., 53",40.767952,47.056881
Bazarstore Mingəçevir,,"Mingecevir seh., H.Aliyev pr., 31",40.76734,47.056638
Qədiroğlu market 7,,"Mingecevir seh., N.Nerimanov kuc.",40.765308,47.053299
Qediroqlu market 1,,"Mingecevir seh, Qress",40.7697851,46.9870397
5+ market 1,,"M.Maqamayev pr., 16/2",40.76748,47.04572
Qediroglu Market 5,,"Nizami pr., 4",40.759621,47.058716
Qediroglu Market 4,,"Xocali kuc., 7A",40.76773,47.056182
Elgun Market,,-,40.50705,46.81382
Naftalan seher DYP sobesi,,-,40.509823,46.824268
Proqress Market,,M.A.Resulzade kuc.,39.383336,49.25003
Proqress market,,Mehemmed Esedov kuc.,39.384035,49.244745
Neftcala seheri DYP sobesi,,"Nizami kuc., 4",39.373158,49.239332
Oguz seheri DYP sobesi,,-,41.076556,47.466152
Qax sheher DYPI,,-,41.419884,46.918758
Qazax seheri DYP sobesi,,-,41.095383,45.371429
Qazax Postu DYP,,-,41.263988,45.222938
Anar market,,Aliaga Shxlinski kucesi,41.095386,45.351033
Şok market,,"Azadliq kuc., 80 A",41.091619,45.359337
Bakcell Qazax,,H.Aliyev pr.,41.088203,45.35461
Qebele seher DYP,,-,40.61787,48.66296
Qebele  T/M,,I.B.Qutqasinli kuc.,40.980552,47.848229
Qobustan-Mereze Postu DYP,,-,40.528229,48.876339
Bizim market Qovlar,,"Qovlar seh,",40.947375,45.7399406
Quba seheri DYP sobesi,,-,41.355946,48.493145
“Arena Hotel Quba”,,Baki-Quba yolunun 4-cu km.,41.362196,48.566585
Yeni Market,,H. Aliyev pr.,41.3629861,48.516876
Xezer Market,,H.Aliyev pr.,41.3632246,48.5353312
Bakcell Quba,,"H.Aliyev pr., 196",41.362108,48.525499
Vahid Market,,"H.Aliyev pr., 30-32-ci meh.",41.3681954,48.5430608
Megastore supermarket,,"H.Aliyev pr., Tofiq Ahmedov küç., 1",41.36297,48.528767
Araz supermarket,,Heyder Aliyev pr.,41.36265,48.52289
Topdan market,,Merkəzi Bazar.,41.361157,48.527542
Eleqant market,,Mirzememmədkend kendi,41.377995,48.529481
Dəniz Market,,"Qirmizi qes., F.Xoyski kuc.",41.3738058,48.5237965
Life Store,,Vaqif kucesi.,41.370425,48.544299
Yalama Postu DYP,,-,41.559868,48.542316
Expressbank Qusar filiali,,A. Xammetov kuc.,41.437064,48.433861
Expressbank Qusar filiali 24/7,,A. Xammetov kuc.,41.4313993,48.4407918
Petek Market,,"Fuzuli kuc., 32",41.4178308,48.4135978
Pioner 1 market,,"H.Aliyev kuc., 168",41.4152485,48.411672
Pioner 6 market,,H.Aliyev pr.,41.418488,48.418621
Eynar Market,,"H.Aliyev pr., 5",41.4301161,48.4341085
Pioner 4 market,,"Muqtedir kuc., 5",41.4268055,48.4317315
Pioner 5 market,,"M.Veliyev kuc., 7",41.4332342,48.434865
Pioner supermarket,,Qazi Mammed kuc.,41.4248734,48.4207901
Saatli seheri DYP sobesi,,H.Aliyev pr.,39.939739,48.378422
Bol Market,,H.Aliyev prospekti 190,39.937267,48.362831
Sabirabad seheri DYP sobesi,,-,40.016487,48.474659
Elit Optimal Sabirabad,,"H.Aliyev pr., 68",40.008208,48.471008
Bazarstore Sabirabad,,"H.Aliyev pr., ev 31",40.004805,48.470412
Elsen-Gulsen T/M,,Qaraguney kendi,39.963795,48.848213
Sabran rayonu DYP sobesi,,-,41.199325,48.985145
Elit Optimal Şabran,,"M.A.Rasulzade kuc., 1",41.200351,48.983098
Araz supermarket Şabran,,M.A.Resulzade kucesi 57 A,41.20164,48.981513
Shabran Hotel & Resort,,"Sabran r-nu, Pirebedil kendi",41.194506,48.783523
Salyan Postu DYP,,-,39.771767,49.171028
Salyan seheri DYP sobesi,,"A.Zeynalov kuc., 83",39.598303,48.987484
Ruslan T/M,,Cadirli kendi,39.832761,48.948979
Rassa market,,"H.Aliyev pr ile T.Davudzade kuc., kesishmesi",39.59671,48.984833
Dereleyez T/M,,Qaradagli kendi,39.769566,48.976471
Vigas Ailem market,,Shorsulu kendi,39.422768,48.82132
Shirvan Restoran Shamaxi,,Baki-Qazax yolu 110-cu km,40.565361,48.748467
Bakcell Samaxi,,"Gencler kuc., 34",40.634064,48.643005
Gold Qayali market,,Hamyali kend erazisi,40.601274,48.685499
Samaxi rayonu DYP sobesi,,"N.Narimanov kuc., 64",40.638377,48.636404
VIP market,,"S.Azimshirvani kuc., - C.Cabarli kuc.",40.62622,48.64692
Elit Optimal  Shamaxi,,"Shamaxi, Neriman Nerimanov",40.639884,48.639313
Seki seher DYPI,,-,41.190136,47.160568
Seki Postu DYP,,-,41.061977,47.142055
Bakcell Şəki,,"Axundov pr., 6",41.202696,47.179895
Sevda Market,,H.Aliyev pr.,41.2064004,47.1700487
Ekonom market 1,,"M.A. Rasulzade kuc., 180",41.202294,47.177867
Şəki Regional Dövlət Miqrasiya Xidməti İdarəsi,,"M.A. Resulzade pr., 12",41.157602,47.177722
Ekonom market 2,,M.E.Resulzade pr.,41.161937,47.164072
Sheki store,,"M.E.Resulzade pr,. 166 B",41.198036,47.176121
Bazar Mini Market,,Salman Mumtaz kuc.,41.185017,47.159368
Col yolu market,,Salman Mumtaz kuc.,41.186922,47.160666
Bazarstore Seki,,"S.Rahman kuc., 27",41.20205,47.16704
Semkir seheri DYP sobesi,,-,40.851585,46.031139
Semkir Postu DYP,,-,40.734573,46.22364
Elit Optimal Şəmkir,,20 Yanvar kuc.,40.828149,46.023945
Bazarstore (Makromart),,Elshen Allahverdiyev kuc.,40.84084,46.03909
Şəmkir şəhər Məhkəməsi,,H.Aliyev prospekti  2,40.843002,46.026981
Araz N1 market,,"Şəmkir r., Şixəli Qurbanov 4",40.828825,46.018473
Neptun market Şəmkir,,"S.Vurgun kuc., 59",40.81686,46.014031
Sirvan seheri DYP sobesi,,-,39.95694,48.93929
Elit Optimal Şirvan,,20 Yanvar kucesi,39.956046,48.941216
Cengen T/M,,"H.Aliyev pr., 49",39.964005,48.942089
Expressbank Sirvan filiali,,"H. Aliyev pr., 58",39.967603,48.943281
Elit 6 market  Sirvan,,Mehemmed Amin Resulzade kuc.,39.95225,48.94314
Pasa Sigorta,,M.E. Rasulzade kuc.,39.96622,48.949526
Spar market 24/7,,"N.Narimanov kuc., Ev 3",39.95272,48.938019
Bakcell Sirvan,,"Rasulzade kuc., 23",39.957506,48.946469
Şirvan Regional Dövlət Miqrasiya Xidməti İdarəsi,,"S.Zeynalov kuc., 33",39.964922,48.94485
Neptun supermarket,,Xaqani kuc. 11,39.960386,48.945613
Siyezen rayonu DYP sobesi,,-,41.087802,49.105443
Araz supermarket Siyəzən,,"H.Aliyev pr., Ev 726",41.086845,49.102064
Zarat Postu DYP,,Zarat  kendi,40.942268,49.284283
En Ucuz Hiper Market,,"10-cu mkr., Babek pr.",40.5689,49.69146
Qayali Superstore,,11-ci mkr erazisi.,40.564606,49.675649
Sumqayıt Hospital,,"12 MKR, Cerkassi kuc., 181",40.563227,49.684683
Qayali market Sumqayit,,15-ci mehelle,40.587612,49.665981
Seda T/M,,"17-ci mkr., I.Qayibov kuc.",40.563976,49.708467
En ucuz Market,,"17-ci mkr., Mehemmed Esedov kuc.",40.559343,49.704617
Elmar market 1,,18-ci mkr.,40.55968,49.69807
Goyercin Market,,"30-cu meh., ev 2",40.59137,49.67985
Expressbank Sumqayıt filiali,,"30-cu meh., Sulh kuc., ve Nerimanov kuc., kesismesi",40.58993,49.676373
Expressbank Sumqayit filiali 24/7,,"30-cu meh., Sulh kuc., ve Nerimanov kuc., kesismesi",40.589841,49.676398
Araz supermarket (Sumqayıt),,32-ci meh.,40.5901,49.67517
Ordubad market,,40-ci mehelle,40.583257,49.674926
Bazarstore,,"44-cu mah., Baki kuc. 37",40.575867,49.679546
Faxri Market,,7-8-12 mehelle,40.59935,49.66878
Araz supermarket,,"9-cu MKR., U.Hacibeyov kuc., 24 C",40.566535,49.685684
Bakcell Sumqayit 1,,"Azadlıq pr., 3",40.595592,49.67073
Gold Qayali T/M,,"Babek pr., 10-cu MKR.",40.568562,49.692322
Goycay market,,"H.Aliyev pr. 54, 22-ci meh.",40.601163,49.664335
Qayali market,,"H.Z. Tagiyev qes., Demir Yol Y/M-i, 6C",40.619465,49.562397
Sumqayit seheri DYP sobesi,,Koroglu pr.,40.595904,49.658164
Sulh plaza,,"Sulh kuc.,",40.585236,49.665153
En Ucuz Ali 94 market,,"Sulh kuc., 19",40.585621,49.66703
Elit Optimal Sumqayıt,,"Sumqayıt seh, 18-ci mkr dairesi",40.559597,49.696884
Qayali market,,"S.Vurgun kuc., Bulvar erazisi",40.593975,49.682801
Bakcell Sumqayit 2,,U.Hacibeyev kuc.,40.571177,49.689694
Araz supermarket (Sumqayit 2),,"U.Hacibeyov kuc., ev 25 C",40.569936,49.689899
STP,,"Z.Tagiyev qes., Sumqayit sossi, 7-ci km",40.599037,49.631506
Terter rayonu DYP sobesi,,-,40.338043,46.948105
Tovuz rayonu DYP sobesi,,-,40.979336,45.628406
Şok market,,Eyyublu kendi.,40.926261,45.816867
Ərzaq market,,"Eyyublu kendi, N.Narimanov kuc.",40.928176,45.818048
Elit Optimal Tovuz,,"M.Musayev kuc.,",40.979442,45.628626
Bazarstore Qovlar,,Qovlar kendi,40.949269,45.740468
Best Store,,"Qovlar seh., Vagzal kuc.,",40.949066,45.735176
Mega Market,,-,40.505451,47.658531
Ucar seheri DYP sobesi,,"H.Aliyev pr., 8",40.523777,47.650072
Elit Optimal Ucar,,M.A.Rasulzade kuc.,40.506657,47.660426
Küçəkənd market,,"Ucar r-nu, Kucekend kendi",40.484567,47.792399
Xacmaz seheri DYP sobesi,,-,41.469952,48.800243
Aydin Market,,Arzu kendi,41.402354,48.6978343
Gold Qayalı market,,Baki pr.,41.447936,48.795249
Gold Qayalı market 2,,Baki pr.,41.447936,48.795249
Yashil market,,Baki pr. Xacmaz-Xudat yolu,41.469271,48.781913
Nabran market,,"Baki pr., Xacmaz-Xudat yolu",41.453873,48.789047
Murad market,,Cinartala kendi.,41.548019,48.722977
Expressbank Xacmaz filiali 2,,"H.Aliyev kuc., 2",41.470226,48.796435
Expressbank Xacmaz filiali 24/7,,"H.Aliyev kuc., 2",41.466126,48.804432
Xaçmaz Regional Dövlət Miqrasiya Xidməti İdarəsi,,"H.Aliyev pr., 13",41.466137,48.787216
Pasha Sigorta,,"H.Z.Tagiyev kuc., 12 A",41.465492,48.800285
Ugur market,,"Muzaffaroba kandi, Xacmaz-Xudat yolu, 6-cı km",41.500034,48.764496
Qayali market,,"N.Narimanov kuc.,",41.463416,48.801529
Cəmşid market,,"Qaradaglı kendi., Xacmaz - Shabran yolu",41.403775,48.836347
Euro market,,"R.Behbudov kuc., 46 A",41.451974,48.79779
Vahidoğlu market,,"Xacmaz - Sabran yolu, Carxi- Rahimoba kendlerin erazisi",41.394766,48.84601
Hayat-insaat T/M,,Xacmaz-Xudat yolu,41.567134,48.721846
Ay ulduz market,,"Ziya Bunyadov kuc., 25-ci meh",41.448893,48.813061
Abseron rayon DYP sobesi,,-,40.442078,49.758932
Spar market Xırdalan,,A.Safiyev kuc.,40.455892,49.750664
AR. Dovlet Yol Polisi Idaresi,,Bineqedi sossesi 4,40.355471,49.79755
Kristal Abşeron Xirdalan,,"H.Aliyev pr., 30, Bina 2",40.454825,49.736057
Bazarstore (Makromart),,"Heydar Aliyev pr., 167",40.462606,49.728794
Grandmart,,"Mehdi Huseynzada kuc., 54B",40.40991,49.95562
Araz supermarket (Xirdalan),,Mehdi Huseynzade kuc.,40.45547,49.74133
Neptun market Xirdalan,,"Xirdalan qes., Bineqedi shosesi",40.44756,49.77701
EL market,,"Xirdalan seh., H.Aliyev pr., 34",40.439975,49.765901
Narinci market,,"Xirdalan seh, Qusculuq mas., S.Bahlulzada kuc.",40.459731,49.719756
Xizi rayonu DYP sobesi,,-,40.911695,49.072467
Qayali Market,,"Xachmaz r-nu, Xudat, M.F.Axundov kuc.",41.6222245,48.6869956
Turist Market,,"Xudat, M.Fataliaxundov kuc., 1A",41.6228889,48.686103
Yardimli seheri DYP sobesi,,"Fuzuli kuc., 9",38.909737,48.269802
Yevlax seher DYPI,,-,40.636093,47.748985
Yevlax Postu DYP,,-,40.679855,46.867077
Neptun market,,"H.Aliyev pr., 101",40.597435,47.144635
Yevlax Regional Dövlət Miqrasiya Xidməti İdarəsi,,"Heydar Aliyev pr., 99 A/4",40.591685,47.144538
Neptun market,,Yeni Yevlax,40.613908,47.146035
Pasha Sigorta,,"Aslanbey Qardasov kuc., ev 7",41.631131,46.638119
Bakcell Zaqatala,,"Faiq Amirov kuc., 4 А",41.629227,46.64019
“Elit Optimal” Zaqatala,,"H.Aslanov kuc., 66",41.629731,46.639835
Elit 2 market,,Heydar Aliyev pr.,41.63392,46.65056
Bazarstore Zaqatala,,"Molla Veli Vidadi kuc., 3",41.62941,46.64276
Bullur market,,"Nizami kuc., 53",41.63195,46.6508
Zaqatala seheri DYPI,,Vaqif İsmayilov kuc.,41.627212,46.635807
Avtovagzal,,V.Ismayilov kuc.,41.601893,46.65777
Zerdab rayonu DYP sobesi,,-,40.212229,47.701135
